{
  "type": "FeatureCollection",
  "name": "Bamboo",
  "xy_coordinate_resolution": 1e-08,
  "features": [
    {
      "type": "Feature",
      "properties": {
        "Name": "Black bamboo",
        "Date planted": null,
        "Area ": null,
        "Insights": null,
        "Past usage": null,
        "_rfi_source_fid": 1
      },
      "geometry": {
        "type": "MultiPolygon",
        "coordinates": [
          [
            [
              [
                -80.04363758,
                -0.57215805
              ],
              [
                -80.04358502,
                -0.57214381
              ],
              [
                -80.04353245,
                -0.57212738
              ],
              [
                -80.04345498,
                -0.57209852
              ],
              [
                -80.04336637,
                -0.57206444
              ],
              [
                -80.04334592,
                -0.57197413
              ],
              [
                -80.04338852,
                -0.57190512
              ],
              [
                -80.04345839,
                -0.57187274
              ],
              [
                -80.04349758,
                -0.57185485
              ],
              [
                -80.04354189,
                -0.57185229
              ],
              [
                -80.04361975,
                -0.57187753
              ],
              [
                -80.04364286,
                -0.57188158
              ],
              [
                -80.04369782,
                -0.57186783
              ],
              [
                -80.04373834,
                -0.57186783
              ],
              [
                -80.04382595,
                -0.57185907
              ],
              [
                -80.04385114,
                -0.57188536
              ],
              [
                -80.04388509,
                -0.57192259
              ],
              [
                -80.04390042,
                -0.57194668
              ],
              [
                -80.04389385,
                -0.57196202
              ],
              [
                -80.04384128,
                -0.57197406
              ],
              [
                -80.04381171,
                -0.57198392
              ],
              [
                -80.04378543,
                -0.57199049
              ],
              [
                -80.0437471,
                -0.57200582
              ],
              [
                -80.04370986,
                -0.57204306
              ],
              [
                -80.0437011,
                -0.57206167
              ],
              [
                -80.04369453,
                -0.57207372
              ],
              [
                -80.04363758,
                -0.57215805
              ]
            ]
          ]
        ]
      }
    },
    {
      "type": "Feature",
      "properties": {
        "Name": "Bamboo",
        "Date planted": null,
        "Area ": null,
        "Insights": null,
        "Past usage": null,
        "_rfi_source_fid": 2
      },
      "geometry": {
        "type": "MultiPolygon",
        "coordinates": [
          [
            [
              [
                -80.04488924,
                -0.57264884
              ],
              [
                -80.04494713,
                -0.57267083
              ],
              [
                -80.04500038,
                -0.57268241
              ],
              [
                -80.0450189,
                -0.57266157
              ],
              [
                -80.04505827,
                -0.57258748
              ],
              [
                -80.04511036,
                -0.57254465
              ],
              [
                -80.04513467,
                -0.57244972
              ],
              [
                -80.04517404,
                -0.57238605
              ],
              [
                -80.04524466,
                -0.57232586
              ],
              [
                -80.0453338,
                -0.5722865
              ],
              [
                -80.04536042,
                -0.57225987
              ],
              [
                -80.04538474,
                -0.5722344
              ],
              [
                -80.04531064,
                -0.57219736
              ],
              [
                -80.04528054,
                -0.57217073
              ],
              [
                -80.04523655,
                -0.57213716
              ],
              [
                -80.04521513,
                -0.57216089
              ],
              [
                -80.04518677,
                -0.57219678
              ],
              [
                -80.04514972,
                -0.57224395
              ],
              [
                -80.04508316,
                -0.57229778
              ],
              [
                -80.04502122,
                -0.57234091
              ],
              [
                -80.04498707,
                -0.57243815
              ],
              [
                -80.04492777,
                -0.57252788
              ],
              [
                -80.0448895,
                -0.57255199
              ],
              [
                -80.04484389,
                -0.57256457
              ],
              [
                -80.04471807,
                -0.57258187
              ],
              [
                -80.04468923,
                -0.57258345
              ],
              [
                -80.04470758,
                -0.57262486
              ],
              [
                -80.04472331,
                -0.57262905
              ],
              [
                -80.04479566,
                -0.57260337
              ],
              [
                -80.04488589,
                -0.57260392
              ],
              [
                -80.04488056,
                -0.57263958
              ],
              [
                -80.04488924,
                -0.57264884
              ]
            ]
          ]
        ]
      }
    },
    {
      "type": "Feature",
      "properties": {
        "Name": "Bamboo",
        "Date planted": null,
        "Area ": null,
        "Insights": null,
        "Past usage": null,
        "_rfi_source_fid": 3
      },
      "geometry": {
        "type": "MultiPolygon",
        "coordinates": [
          [
            [
              [
                -80.04425606,
                -0.57503364
              ],
              [
                -80.04434751,
                -0.57496418
              ],
              [
                -80.04464273,
                -0.57495723
              ],
              [
                -80.04494257,
                -0.5750429
              ],
              [
                -80.0451579,
                -0.57520034
              ],
              [
                -80.04523662,
                -0.57527906
              ],
              [
                -80.04526209,
                -0.57530916
              ],
              [
                -80.04532692,
                -0.57532999
              ],
              [
                -80.04540333,
                -0.57538093
              ],
              [
                -80.04541722,
                -0.57543186
              ],
              [
                -80.04543343,
                -0.57547817
              ],
              [
                -80.04546585,
                -0.57554763
              ],
              [
                -80.04548205,
                -0.57562172
              ],
              [
                -80.04549363,
                -0.57567034
              ],
              [
                -80.04549595,
                -0.57572127
              ],
              [
                -80.04553762,
                -0.57578379
              ],
              [
                -80.04552605,
                -0.57580694
              ],
              [
                -80.04551215,
                -0.57581157
              ],
              [
                -80.04541028,
                -0.57576295
              ],
              [
                -80.04534545,
                -0.57568886
              ],
              [
                -80.04527599,
                -0.57561246
              ],
              [
                -80.04520652,
                -0.57554763
              ],
              [
                -80.045166,
                -0.57548627
              ],
              [
                -80.04503982,
                -0.57532536
              ],
              [
                -80.04500277,
                -0.5752698
              ],
              [
                -80.0449472,
                -0.57519339
              ],
              [
                -80.04476313,
                -0.57515519
              ],
              [
                -80.04466125,
                -0.57513667
              ],
              [
                -80.04444013,
                -0.57509499
              ],
              [
                -80.04425606,
                -0.57503364
              ]
            ]
          ]
        ]
      }
    },
    {
      "type": "Feature",
      "properties": {
        "Name": "Bamboo",
        "Date planted": null,
        "Area ": null,
        "Insights": null,
        "Past usage": null,
        "_rfi_source_fid": 4
      },
      "geometry": {
        "type": "MultiPolygon",
        "coordinates": [
          [
            [
              [
                -80.04586641,
                -0.57582662
              ],
              [
                -80.04569044,
                -0.57591113
              ],
              [
                -80.04558856,
                -0.57585787
              ],
              [
                -80.0455712,
                -0.57581273
              ],
              [
                -80.04558972,
                -0.57577221
              ],
              [
                -80.04567423,
                -0.57582662
              ],
              [
                -80.04574022,
                -0.5758243
              ],
              [
                -80.04583399,
                -0.57579073
              ],
              [
                -80.04591272,
                -0.57574558
              ],
              [
                -80.04594513,
                -0.57569465
              ],
              [
                -80.04600996,
                -0.57567381
              ],
              [
                -80.04614657,
                -0.57567149
              ],
              [
                -80.04624382,
                -0.57564603
              ],
              [
                -80.0462415,
                -0.57566455
              ],
              [
                -80.04586641,
                -0.57582662
              ]
            ]
          ]
        ]
      }
    },
    {
      "type": "Feature",
      "properties": {
        "Name": "Bamboo",
        "Date planted": null,
        "Area ": null,
        "Insights": null,
        "Past usage": null,
        "_rfi_source_fid": 5
      },
      "geometry": {
        "type": "MultiPolygon",
        "coordinates": [
          [
            [
              [
                -80.04730774,
                -0.57503943
              ],
              [
                -80.04734478,
                -0.57507068
              ],
              [
                -80.04734826,
                -0.57510194
              ],
              [
                -80.04734131,
                -0.57514824
              ],
              [
                -80.04726953,
                -0.57518066
              ],
              [
                -80.04711093,
                -0.57525475
              ],
              [
                -80.04703221,
                -0.57529179
              ],
              [
                -80.04689097,
                -0.57536009
              ],
              [
                -80.0467833,
                -0.57541218
              ],
              [
                -80.04665943,
                -0.57546312
              ],
              [
                -80.0465124,
                -0.57553258
              ],
              [
                -80.04640589,
                -0.57558351
              ],
              [
                -80.04636769,
                -0.57559741
              ],
              [
                -80.04637232,
                -0.57555805
              ],
              [
                -80.04637261,
                -0.57549901
              ],
              [
                -80.04638853,
                -0.57547962
              ],
              [
                -80.04640358,
                -0.57547441
              ],
              [
                -80.04644844,
                -0.57549119
              ],
              [
                -80.04648491,
                -0.57548135
              ],
              [
                -80.04649301,
                -0.57546746
              ],
              [
                -80.04650546,
                -0.5754472
              ],
              [
                -80.04653613,
                -0.57543418
              ],
              [
                -80.04656652,
                -0.57542347
              ],
              [
                -80.04661428,
                -0.5754035
              ],
              [
                -80.04668577,
                -0.57537311
              ],
              [
                -80.046726,
                -0.57536241
              ],
              [
                -80.04673757,
                -0.5753462
              ],
              [
                -80.04676304,
                -0.57532305
              ],
              [
                -80.04678272,
                -0.57531263
              ],
              [
                -80.04679893,
                -0.57531321
              ],
              [
                -80.04685334,
                -0.57531263
              ],
              [
                -80.04691123,
                -0.57529758
              ],
              [
                -80.04693843,
                -0.57526864
              ],
              [
                -80.04696853,
                -0.57526574
              ],
              [
                -80.04700616,
                -0.57524954
              ],
              [
                -80.04703915,
                -0.57520034
              ],
              [
                -80.04705768,
                -0.57518066
              ],
              [
                -80.04709241,
                -0.57516561
              ],
              [
                -80.04717113,
                -0.57513551
              ],
              [
                -80.04719197,
                -0.57511351
              ],
              [
                -80.04721165,
                -0.57509557
              ],
              [
                -80.04724059,
                -0.57507994
              ],
              [
                -80.04730774,
                -0.57503943
              ]
            ]
          ]
        ]
      }
    },
    {
      "type": "Feature",
      "properties": {
        "Name": "Bamboo",
        "Date planted": null,
        "Area ": null,
        "Insights": null,
        "Past usage": null,
        "_rfi_source_fid": 6
      },
      "geometry": {
        "type": "MultiPolygon",
        "coordinates": [
          [
            [
              [
                -80.04721917,
                -0.57101462
              ],
              [
                -80.04699487,
                -0.57092085
              ],
              [
                -80.04671306,
                -0.57080321
              ],
              [
                -80.04619735,
                -0.57058019
              ],
              [
                -80.04612578,
                -0.570731
              ],
              [
                -80.04630471,
                -0.57105561
              ],
              [
                -80.04635839,
                -0.57122687
              ],
              [
                -80.04630918,
                -0.57138853
              ],
              [
                -80.0463319,
                -0.57149084
              ],
              [
                -80.04632032,
                -0.57161818
              ],
              [
                -80.04631685,
                -0.5719483
              ],
              [
                -80.04657247,
                -0.57167992
              ],
              [
                -80.04661602,
                -0.57163395
              ],
              [
                -80.04719718,
                -0.57103661
              ],
              [
                -80.04721917,
                -0.57101462
              ]
            ]
          ]
        ]
      }
    },
    {
      "type": "Feature",
      "properties": {
        "Name": "Bamboo",
        "Date planted": null,
        "Area ": null,
        "Insights": null,
        "Past usage": null,
        "_rfi_source_fid": 7
      },
      "geometry": {
        "type": "MultiPolygon",
        "coordinates": [
          [
            [
              [
                -80.04636718,
                -0.57491296
              ],
              [
                -80.04629944,
                -0.57490018
              ],
              [
                -80.04601059,
                -0.57474171
              ],
              [
                -80.04593519,
                -0.57470593
              ],
              [
                -80.04580994,
                -0.57465353
              ],
              [
                -80.0457422,
                -0.57460369
              ],
              [
                -80.04565912,
                -0.5745564
              ],
              [
                -80.04562717,
                -0.57454106
              ],
              [
                -80.04557861,
                -0.57452061
              ],
              [
                -80.04544952,
                -0.57445032
              ],
              [
                -80.04520413,
                -0.57439281
              ],
              [
                -80.04511467,
                -0.57439281
              ],
              [
                -80.04505843,
                -0.57436981
              ],
              [
                -80.04502776,
                -0.57433147
              ],
              [
                -80.04501945,
                -0.57432827
              ],
              [
                -80.04498558,
                -0.57434169
              ],
              [
                -80.04492359,
                -0.57436342
              ],
              [
                -80.04478812,
                -0.57447333
              ],
              [
                -80.04466798,
                -0.57458963
              ],
              [
                -80.04461686,
                -0.57461391
              ],
              [
                -80.04459896,
                -0.57460113
              ],
              [
                -80.04451205,
                -0.57452573
              ],
              [
                -80.04453506,
                -0.57449122
              ],
              [
                -80.04458618,
                -0.57436598
              ],
              [
                -80.04470376,
                -0.5743238
              ],
              [
                -80.04487247,
                -0.57425223
              ],
              [
                -80.0449466,
                -0.57419344
              ],
              [
                -80.04485458,
                -0.5740912
              ],
              [
                -80.04473444,
                -0.57397618
              ],
              [
                -80.04471271,
                -0.57392251
              ],
              [
                -80.04475617,
                -0.57385988
              ],
              [
                -80.04484435,
                -0.57375125
              ],
              [
                -80.04496577,
                -0.57365029
              ],
              [
                -80.04501689,
                -0.57354166
              ],
              [
                -80.04509869,
                -0.57342792
              ],
              [
                -80.04514726,
                -0.57329628
              ],
              [
                -80.04515492,
                -0.57317871
              ],
              [
                -80.04511914,
                -0.57308669
              ],
              [
                -80.04508974,
                -0.57296272
              ],
              [
                -80.04510252,
                -0.5728247
              ],
              [
                -80.04516387,
                -0.57263683
              ],
              [
                -80.045261,
                -0.57258699
              ],
              [
                -80.04540926,
                -0.57241446
              ],
              [
                -80.04561375,
                -0.57238378
              ],
              [
                -80.04574156,
                -0.572348
              ],
              [
                -80.04585147,
                -0.57229944
              ],
              [
                -80.04592816,
                -0.57231477
              ],
              [
                -80.04592049,
                -0.57236589
              ],
              [
                -80.04586681,
                -0.57247836
              ],
              [
                -80.04581313,
                -0.57252948
              ],
              [
                -80.04573645,
                -0.57258571
              ],
              [
                -80.04522011,
                -0.57280041
              ],
              [
                -80.04517921,
                -0.57297678
              ],
              [
                -80.04521499,
                -0.57346498
              ],
              [
                -80.04496833,
                -0.57383816
              ],
              [
                -80.04479706,
                -0.57394168
              ],
              [
                -80.04479595,
                -0.57394327
              ],
              [
                -80.04503175,
                -0.57407427
              ],
              [
                -80.0451046,
                -0.57435671
              ],
              [
                -80.04545543,
                -0.57442381
              ],
              [
                -80.04636718,
                -0.57491296
              ]
            ]
          ]
        ]
      }
    },
    {
      "type": "Feature",
      "properties": {
        "Name": "Bamboo",
        "Date planted": null,
        "Area ": null,
        "Insights": null,
        "Past usage": null,
        "_rfi_source_fid": 8
      },
      "geometry": {
        "type": "MultiPolygon",
        "coordinates": [
          [
            [
              [
                -80.04572638,
                -0.57172593
              ],
              [
                -80.04569571,
                -0.57159813
              ],
              [
                -80.04570593,
                -0.57148055
              ],
              [
                -80.04566248,
                -0.57136809
              ],
              [
                -80.04565481,
                -0.57119939
              ],
              [
                -80.045612,
                -0.5711406
              ],
              [
                -80.04545479,
                -0.57105114
              ],
              [
                -80.04537967,
                -0.57100133
              ],
              [
                -80.04535451,
                -0.5709531
              ],
              [
                -80.04540064,
                -0.57081471
              ],
              [
                -80.04545936,
                -0.57073083
              ],
              [
                -80.04554298,
                -0.5706639
              ],
              [
                -80.04562083,
                -0.57060082
              ],
              [
                -80.04572988,
                -0.57057147
              ],
              [
                -80.04582424,
                -0.57062599
              ],
              [
                -80.04589554,
                -0.57070986
              ],
              [
                -80.04593958,
                -0.57090278
              ],
              [
                -80.04587656,
                -0.57111376
              ],
              [
                -80.0457954,
                -0.57120706
              ],
              [
                -80.04582863,
                -0.57134764
              ],
              [
                -80.04597177,
                -0.57147288
              ],
              [
                -80.04600245,
                -0.57151634
              ],
              [
                -80.0460459,
                -0.57164925
              ],
              [
                -80.04607146,
                -0.57172593
              ],
              [
                -80.04609447,
                -0.57181539
              ],
              [
                -80.04611236,
                -0.5718844
              ],
              [
                -80.04599733,
                -0.5720531
              ],
              [
                -80.0459002,
                -0.57211956
              ],
              [
                -80.04580307,
                -0.57214512
              ],
              [
                -80.04576728,
                -0.572094
              ],
              [
                -80.04577751,
                -0.57200453
              ],
              [
                -80.04571616,
                -0.57193552
              ],
              [
                -80.04572383,
                -0.57181795
              ],
              [
                -80.04572638,
                -0.57172593
              ]
            ]
          ]
        ]
      }
    },
    {
      "type": "Feature",
      "properties": {
        "Name": "Bamboo",
        "Date planted": null,
        "Area ": null,
        "Insights": null,
        "Past usage": null,
        "_rfi_source_fid": 9
      },
      "geometry": {
        "type": "MultiPolygon",
        "coordinates": [
          [
            [
              [
                -80.04300244,
                -0.57231474
              ],
              [
                -80.04313325,
                -0.57247556
              ],
              [
                -80.04328122,
                -0.57258921
              ],
              [
                -80.04334126,
                -0.57269643
              ],
              [
                -80.04351925,
                -0.57296018
              ],
              [
                -80.04360717,
                -0.57312315
              ],
              [
                -80.04361575,
                -0.57305024
              ],
              [
                -80.04353855,
                -0.57288298
              ],
              [
                -80.0434013,
                -0.57264711
              ],
              [
                -80.04333268,
                -0.57253775
              ],
              [
                -80.04319115,
                -0.57240909
              ],
              [
                -80.04318472,
                -0.57227614
              ],
              [
                -80.04308654,
                -0.5720383
              ],
              [
                -80.04288203,
                -0.57178472
              ],
              [
                -80.04287692,
                -0.5715649
              ],
              [
                -80.0428897,
                -0.57138342
              ],
              [
                -80.04297405,
                -0.57122942
              ],
              [
                -80.04301495,
                -0.57110162
              ],
              [
                -80.04312998,
                -0.57103516
              ],
              [
                -80.04325523,
                -0.57108628
              ],
              [
                -80.04335627,
                -0.57113321
              ],
              [
                -80.04343416,
                -0.57110761
              ],
              [
                -80.04346993,
                -0.57098955
              ],
              [
                -80.04327951,
                -0.57070991
              ],
              [
                -80.043222,
                -0.5706409
              ],
              [
                -80.04305329,
                -0.57054441
              ],
              [
                -80.04285391,
                -0.5705623
              ],
              [
                -80.04279512,
                -0.57064921
              ],
              [
                -80.04279768,
                -0.5707949
              ],
              [
                -80.04270821,
                -0.57095593
              ],
              [
                -80.04267498,
                -0.57104539
              ],
              [
                -80.04267243,
                -0.57126009
              ],
              [
                -80.04260597,
                -0.57148055
              ],
              [
                -80.04257018,
                -0.57180517
              ],
              [
                -80.04257811,
                -0.57203387
              ],
              [
                -80.04288485,
                -0.57218212
              ],
              [
                -80.04300244,
                -0.57231474
              ]
            ]
          ]
        ]
      }
    },
    {
      "type": "Feature",
      "properties": {
        "Name": "Bamboo",
        "Date planted": null,
        "Area ": null,
        "Insights": null,
        "Past usage": null,
        "_rfi_source_fid": 10
      },
      "geometry": {
        "type": "MultiPolygon",
        "coordinates": [
          [
            [
              [
                -80.04270694,
                -0.57346146
              ],
              [
                -80.04271333,
                -0.57352537
              ],
              [
                -80.04269799,
                -0.57356243
              ],
              [
                -80.04267371,
                -0.57357776
              ],
              [
                -80.04264175,
                -0.57357776
              ],
              [
                -80.04261875,
                -0.57356498
              ],
              [
                -80.04262386,
                -0.57351386
              ],
              [
                -80.04261236,
                -0.57348319
              ],
              [
                -80.0425574,
                -0.57346658
              ],
              [
                -80.04242193,
                -0.57346785
              ],
              [
                -80.04236825,
                -0.57338606
              ],
              [
                -80.04236058,
                -0.57330427
              ],
              [
                -80.04236569,
                -0.57318669
              ],
              [
                -80.04234013,
                -0.5731049
              ],
              [
                -80.04232479,
                -0.57305122
              ],
              [
                -80.0423887,
                -0.57281351
              ],
              [
                -80.04247049,
                -0.57270616
              ],
              [
                -80.04247305,
                -0.57260392
              ],
              [
                -80.0425574,
                -0.5725298
              ],
              [
                -80.04261619,
                -0.57252213
              ],
              [
                -80.04267754,
                -0.57254002
              ],
              [
                -80.04271844,
                -0.5725758
              ],
              [
                -80.04272099,
                -0.57261414
              ],
              [
                -80.0427031,
                -0.57277262
              ],
              [
                -80.04269543,
                -0.57285952
              ],
              [
                -80.04267754,
                -0.57292598
              ],
              [
                -80.04269288,
                -0.57301288
              ],
              [
                -80.04270566,
                -0.57305634
              ],
              [
                -80.04263153,
                -0.57312024
              ],
              [
                -80.04261364,
                -0.57318158
              ],
              [
                -80.04264687,
                -0.5732736
              ],
              [
                -80.04270694,
                -0.57346146
              ]
            ]
          ]
        ]
      }
    }
  ]
}
