{
  "type": "FeatureCollection",
  "name": "Conventional agriculture",
  "xy_coordinate_resolution": 1e-08,
  "features": [
    {
      "type": "Feature",
      "properties": {
        "Name": "Orange & Cacao",
        "Date created": null,
        "Area": null,
        "Landuse description": "Mixed orange and cacao",
        "Plant census": null,
        "Insights": null,
        "Past use history": "Pasture",
        "_rfi_source_fid": 1
      },
      "geometry": {
        "type": "MultiPolygon",
        "coordinates": [
          [
            [
              [
                -80.04300933,
                -0.57472839
              ],
              [
                -80.04297681,
                -0.57450961
              ],
              [
                -80.04270149,
                -0.5743544
              ],
              [
                -80.04260393,
                -0.57430858
              ],
              [
                -80.04256808,
                -0.57429416
              ],
              [
                -80.04247385,
                -0.5742598
              ],
              [
                -80.0423737,
                -0.57422395
              ],
              [
                -80.04230866,
                -0.57419143
              ],
              [
                -80.04219687,
                -0.57416297
              ],
              [
                -80.04217544,
                -0.57421379
              ],
              [
                -80.04219964,
                -0.57422617
              ],
              [
                -80.04220629,
                -0.57423966
              ],
              [
                -80.04221997,
                -0.57424635
              ],
              [
                -80.0422395,
                -0.57426453
              ],
              [
                -80.0422317,
                -0.57428109
              ],
              [
                -80.04222098,
                -0.57431102
              ],
              [
                -80.04220694,
                -0.57433837
              ],
              [
                -80.04218514,
                -0.57436904
              ],
              [
                -80.04214633,
                -0.57445367
              ],
              [
                -80.04213525,
                -0.57448471
              ],
              [
                -80.04213043,
                -0.57449674
              ],
              [
                -80.04209956,
                -0.57454549
              ],
              [
                -80.04207951,
                -0.57457802
              ],
              [
                -80.04207942,
                -0.57459065
              ],
              [
                -80.04207942,
                -0.57461774
              ],
              [
                -80.04207924,
                -0.574651
              ],
              [
                -80.04207933,
                -0.57467865
              ],
              [
                -80.04208993,
                -0.57469745
              ],
              [
                -80.04210587,
                -0.57472666
              ],
              [
                -80.04210384,
                -0.57474887
              ],
              [
                -80.04210089,
                -0.57477338
              ],
              [
                -80.04209776,
                -0.57480324
              ],
              [
                -80.04209481,
                -0.57482406
              ],
              [
                -80.04209297,
                -0.57484212
              ],
              [
                -80.04272209,
                -0.57510777
              ],
              [
                -80.04300665,
                -0.57474303
              ],
              [
                -80.04300933,
                -0.57472839
              ]
            ]
          ]
        ]
      }
    },
    {
      "type": "Feature",
      "properties": {
        "Name": "Mandarin-cacao",
        "Date created": null,
        "Area": null,
        "Landuse description": "Mixed mandarin and cacao",
        "Plant census": null,
        "Insights": null,
        "Past use history": "Pasture",
        "_rfi_source_fid": 2
      },
      "geometry": {
        "type": "MultiPolygon",
        "coordinates": [
          [
            [
              [
                -80.0434212,
                -0.57452688
              ],
              [
                -80.04372742,
                -0.57423844
              ],
              [
                -80.04381995,
                -0.57433554
              ],
              [
                -80.04390159,
                -0.57437103
              ],
              [
                -80.04402227,
                -0.57445621
              ],
              [
                -80.04418554,
                -0.57455559
              ],
              [
                -80.0443559,
                -0.57467271
              ],
              [
                -80.04405537,
                -0.57496547
              ],
              [
                -80.0434212,
                -0.57452688
              ]
            ]
          ]
        ]
      }
    },
    {
      "type": "Feature",
      "properties": {
        "Name": "Mandarin Cacao",
        "Date created": null,
        "Area": null,
        "Landuse description": "Mixed mandarin and cacao",
        "Plant census": null,
        "Insights": null,
        "Past use history": "Pasture",
        "_rfi_source_fid": 3
      },
      "geometry": {
        "type": "MultiPolygon",
        "coordinates": [
          [
            [
              [
                -80.04276749,
                -0.57403458
              ],
              [
                -80.04275654,
                -0.57397325
              ],
              [
                -80.04271273,
                -0.57392725
              ],
              [
                -80.04267769,
                -0.57388345
              ],
              [
                -80.04261855,
                -0.57379365
              ],
              [
                -80.04258789,
                -0.57369946
              ],
              [
                -80.0426076,
                -0.57357681
              ],
              [
                -80.04261636,
                -0.57351329
              ],
              [
                -80.04258351,
                -0.57348043
              ],
              [
                -80.04246085,
                -0.57347605
              ],
              [
                -80.04243676,
                -0.57349139
              ],
              [
                -80.04239514,
                -0.57352424
              ],
              [
                -80.04233162,
                -0.573579
              ],
              [
                -80.04228125,
                -0.57362718
              ],
              [
                -80.04226153,
                -0.57365785
              ],
              [
                -80.04223963,
                -0.57371041
              ],
              [
                -80.04223306,
                -0.5737586
              ],
              [
                -80.04228563,
                -0.57380679
              ],
              [
                -80.04234257,
                -0.57383745
              ],
              [
                -80.04236667,
                -0.57385497
              ],
              [
                -80.04238419,
                -0.57388564
              ],
              [
                -80.04235572,
                -0.5739163
              ],
              [
                -80.04234915,
                -0.57394259
              ],
              [
                -80.04232286,
                -0.57399515
              ],
              [
                -80.04231629,
                -0.57405648
              ],
              [
                -80.04231191,
                -0.57409372
              ],
              [
                -80.04235353,
                -0.57411562
              ],
              [
                -80.04242143,
                -0.57413533
              ],
              [
                -80.04250028,
                -0.57413971
              ],
              [
                -80.0425857,
                -0.57410467
              ],
              [
                -80.04262074,
                -0.57408495
              ],
              [
                -80.04264702,
                -0.57406743
              ],
              [
                -80.04265141,
                -0.57406086
              ],
              [
                -80.04276749,
                -0.57403458
              ]
            ]
          ]
        ]
      }
    }
  ]
}
