{"type":"FeatureCollection","crs":{"type":"name","properties":{"name":"EPSG:4326"}},"features":[{"type":"Feature","id":1,"geometry":{"type":"Point","coordinates":[-80.04581,-0.575969999999996]},"properties":{"Entry":1,"Date":"Wed, 08 Jul 2026 05:00:00 GMT","Initial_Time":"Fri, 24 Jul 2026 12:05:00 GMT","Transect":"T1","Lat":-0.57597,"Long":-80.04581,"Group_Size":1,"Group_Name":"NA","Confidence":"B","ObjectId":1}},{"type":"Feature","id":2,"geometry":{"type":"Point","coordinates":[-80.04695,-0.57498]},"properties":{"Entry":2,"Date":"Wed, 08 Jul 2026 05:00:00 GMT","Initial_Time":"Fri, 24 Jul 2026 13:19:00 GMT","Transect":"T1","Lat":-0.57498,"Long":-80.04695,"Group_Size":4,"Group_Name":"J","Confidence":"B","ObjectId":2}},{"type":"Feature","id":3,"geometry":{"type":"Point","coordinates":[-80.04583,-0.575789999999984]},"properties":{"Entry":3,"Date":"Thu, 09 Jul 2026 05:00:00 GMT","Initial_Time":"Fri, 24 Jul 2026 14:29:00 GMT","Transect":"T1","Lat":-0.57579,"Long":-80.04583,"Group_Size":8,"Group_Name":"NA","Confidence":"B","ObjectId":3}},{"type":"Feature","id":4,"geometry":{"type":"Point","coordinates":[-80.048205,-0.570920000000002]},"properties":{"Entry":4,"Date":"Thu, 09 Jul 2026 05:00:00 GMT","Initial_Time":"Fri, 24 Jul 2026 22:23:00 GMT","Transect":"T3","Lat":-0.57092,"Long":-80.048205,"Group_Size":3,"Group_Name":"NA","Confidence":"C","ObjectId":4}},{"type":"Feature","id":5,"geometry":{"type":"Point","coordinates":[-80.04592,-0.575810000000012]},"properties":{"Entry":5,"Date":"Mon, 13 Jul 2026 05:00:00 GMT","Initial_Time":"Fri, 24 Jul 2026 11:46:00 GMT","Transect":"T1","Lat":-0.57581,"Long":-80.04592,"Group_Size":11,"Group_Name":"NA","Confidence":"A","ObjectId":5}},{"type":"Feature","id":6,"geometry":{"type":"Point","coordinates":[-80.04602,-0.572189999999998]},"properties":{"Entry":6,"Date":"Mon, 13 Jul 2026 05:00:00 GMT","Initial_Time":"Fri, 24 Jul 2026 22:09:00 GMT","Transect":"T2","Lat":-0.57219,"Long":-80.04602,"Group_Size":6,"Group_Name":"NA","Confidence":"A","ObjectId":6}},{"type":"Feature","id":7,"geometry":{"type":"Point","coordinates":[-80.04693,-0.570900000000012]},"properties":{"Entry":7,"Date":"Tue, 14 Jul 2026 05:00:00 GMT","Initial_Time":"Fri, 24 Jul 2026 11:58:00 GMT","Transect":"T3","Lat":-0.5709,"Long":-80.04693,"Group_Size":4,"Group_Name":"NA","Confidence":"B","ObjectId":7}},{"type":"Feature","id":8,"geometry":{"type":"Point","coordinates":[-80.04664,-0.575510000000009]},"properties":{"Entry":8,"Date":"Tue, 14 Jul 2026 05:00:00 GMT","Initial_Time":"Fri, 24 Jul 2026 21:50:00 GMT","Transect":"T1","Lat":-0.57551,"Long":-80.04664,"Group_Size":7,"Group_Name":"NA","Confidence":"B","ObjectId":8}},{"type":"Feature","id":9,"geometry":{"type":"Point","coordinates":[-80.04625,-0.572140000000004]},"properties":{"Entry":9,"Date":"Mon, 16 Feb 2026 05:00:00 GMT","Initial_Time":"Fri, 24 Jul 2026 12:24:00 GMT","Transect":"T2","Lat":-0.57214,"Long":-80.04625,"Group_Size":5,"Group_Name":"NA","Confidence":"C","ObjectId":9}},{"type":"Feature","id":10,"geometry":{"type":"Point","coordinates":[-80.04671,-0.571280000000013]},"properties":{"Entry":10,"Date":"Tue, 21 Jul 2026 05:00:00 GMT","Initial_Time":"Fri, 24 Jul 2026 21:52:00 GMT","Transect":"T3","Lat":-0.57128,"Long":-80.04671,"Group_Size":4,"Group_Name":"NA","Confidence":"B","ObjectId":10}},{"type":"Feature","id":11,"geometry":{"type":"Point","coordinates":[-80.04611,-0.575619999999998]},"properties":{"Entry":11,"Date":"Wed, 22 Jul 2026 05:00:00 GMT","Initial_Time":"Fri, 24 Jul 2026 22:09:00 GMT","Transect":"T1","Lat":-0.57562,"Long":-80.04611,"Group_Size":10,"Group_Name":"NA","Confidence":"B","ObjectId":11}},{"type":"Feature","id":12,"geometry":{"type":"Point","coordinates":[-80.04585,-0.575920000000002]},"properties":{"Entry":12,"Date":"Thu, 23 Jul 2026 05:00:00 GMT","Initial_Time":"Fri, 24 Jul 2026 11:58:00 GMT","Transect":"T1","Lat":-0.57592,"Long":-80.04585,"Group_Size":11,"Group_Name":"NA","Confidence":"B","ObjectId":12}}]}