{
  "type": "FeatureCollection",
  "name": "Infrastructure",
  "xy_coordinate_resolution": 1e-08,
  "features": [
    {
      "type": "Feature",
      "properties": {
        "Name": "Water tank",
        "Usage": "250 Gallon water storage unit that provides irrigation to nearby syntropics",
        "Date added": null,
        "_rfi_source_fid": 1
      },
      "geometry": {
        "type": "MultiPolygon",
        "coordinates": [
          [
            [
              [
                -80.04363375,
                -0.57256489
              ],
              [
                -80.04361294,
                -0.57262622
              ],
              [
                -80.04355709,
                -0.57261417
              ],
              [
                -80.0435779,
                -0.57254737
              ],
              [
                -80.04363375,
                -0.57256489
              ]
            ]
          ]
        ]
      }
    },
    {
      "type": "Feature",
      "properties": {
        "Name": "Main road",
        "Usage": "Provides access to the main building, and is the main route to eduardos property ",
        "Date added": null,
        "_rfi_source_fid": 2
      },
      "geometry": {
        "type": "MultiPolygon",
        "coordinates": [
          [
            [
              [
                -80.04276486,
                -0.57516286
              ],
              [
                -80.04274502,
                -0.57514819
              ],
              [
                -80.04293313,
                -0.57491866
              ],
              [
                -80.04300907,
                -0.57481683
              ],
              [
                -80.0430246,
                -0.57477886
              ],
              [
                -80.04303064,
                -0.57475298
              ],
              [
                -80.04303323,
                -0.57472278
              ],
              [
                -80.04303409,
                -0.57470293
              ],
              [
                -80.04303668,
                -0.57466841
              ],
              [
                -80.04304359,
                -0.5746408
              ],
              [
                -80.04305826,
                -0.57460542
              ],
              [
                -80.04307551,
                -0.57457953
              ],
              [
                -80.04310485,
                -0.57455968
              ],
              [
                -80.04314023,
                -0.57452862
              ],
              [
                -80.04318769,
                -0.57449669
              ],
              [
                -80.04321272,
                -0.57448289
              ],
              [
                -80.04323256,
                -0.57447598
              ],
              [
                -80.04325845,
                -0.57446735
              ],
              [
                -80.04328175,
                -0.57446045
              ],
              [
                -80.04331972,
                -0.57445182
              ],
              [
                -80.0433387,
                -0.57445182
              ],
              [
                -80.04335855,
                -0.574457
              ],
              [
                -80.04338444,
                -0.57444837
              ],
              [
                -80.04342845,
                -0.57443197
              ],
              [
                -80.04345088,
                -0.57441989
              ],
              [
                -80.04348453,
                -0.57440263
              ],
              [
                -80.04352078,
                -0.57437416
              ],
              [
                -80.04354494,
                -0.57434266
              ],
              [
                -80.04360491,
                -0.5742801
              ],
              [
                -80.04367136,
                -0.57419985
              ],
              [
                -80.04370587,
                -0.57415412
              ],
              [
                -80.04373866,
                -0.57410924
              ],
              [
                -80.04378517,
                -0.57404936
              ],
              [
                -80.04385602,
                -0.57394788
              ],
              [
                -80.04393541,
                -0.57385382
              ],
              [
                -80.04400628,
                -0.57375706
              ],
              [
                -80.04405086,
                -0.57369396
              ],
              [
                -80.04408964,
                -0.57361409
              ],
              [
                -80.04412611,
                -0.57352591
              ],
              [
                -80.0441451,
                -0.57347155
              ],
              [
                -80.04416063,
                -0.57342495
              ],
              [
                -80.04417357,
                -0.57337749
              ],
              [
                -80.04426763,
                -0.57307892
              ],
              [
                -80.04431828,
                -0.5728842
              ],
              [
                -80.04434184,
                -0.57280193
              ],
              [
                -80.04437212,
                -0.57272444
              ],
              [
                -80.04440397,
                -0.57265351
              ],
              [
                -80.04444107,
                -0.57257843
              ],
              [
                -80.04451741,
                -0.57241073
              ],
              [
                -80.04457655,
                -0.57228116
              ],
              [
                -80.04460848,
                -0.57222076
              ],
              [
                -80.0446279,
                -0.57219055
              ],
              [
                -80.04468744,
                -0.57209477
              ],
              [
                -80.04472195,
                -0.572043
              ],
              [
                -80.04478322,
                -0.57194031
              ],
              [
                -80.04484532,
                -0.57183885
              ],
              [
                -80.04488418,
                -0.5717729
              ],
              [
                -80.04491611,
                -0.57168489
              ],
              [
                -80.04492301,
                -0.57162707
              ],
              [
                -80.04491956,
                -0.57158047
              ],
              [
                -80.04490871,
                -0.57153729
              ],
              [
                -80.04489684,
                -0.57151645
              ],
              [
                -80.0448557,
                -0.57146743
              ],
              [
                -80.04482477,
                -0.57143368
              ],
              [
                -80.04477632,
                -0.57136906
              ],
              [
                -80.04474094,
                -0.57131815
              ],
              [
                -80.04472023,
                -0.57126465
              ],
              [
                -80.04470958,
                -0.5712172
              ],
              [
                -80.044709,
                -0.57117987
              ],
              [
                -80.04471711,
                -0.57112488
              ],
              [
                -80.04472319,
                -0.57109218
              ],
              [
                -80.04478581,
                -0.57084182
              ],
              [
                -80.04484648,
                -0.57060742
              ],
              [
                -80.04487728,
                -0.57049838
              ],
              [
                -80.04490144,
                -0.57043107
              ],
              [
                -80.04493078,
                -0.57038275
              ],
              [
                -80.04495321,
                -0.57034823
              ],
              [
                -80.04498083,
                -0.57031717
              ],
              [
                -80.04501666,
                -0.57028868
              ],
              [
                -80.04505718,
                -0.57026167
              ],
              [
                -80.04511544,
                -0.57022052
              ],
              [
                -80.04516204,
                -0.57018601
              ],
              [
                -80.04519138,
                -0.57016184
              ],
              [
                -80.04520173,
                -0.57015839
              ],
              [
                -80.04521899,
                -0.57016875
              ],
              [
                -80.04521576,
                -0.57017544
              ],
              [
                -80.04519456,
                -0.57019414
              ],
              [
                -80.04516253,
                -0.57021729
              ],
              [
                -80.04512549,
                -0.57024315
              ],
              [
                -80.0450984,
                -0.57026302
              ],
              [
                -80.04506043,
                -0.57028891
              ],
              [
                -80.04503109,
                -0.5703135
              ],
              [
                -80.04498363,
                -0.57036269
              ],
              [
                -80.04496206,
                -0.5703903
              ],
              [
                -80.04493948,
                -0.57042644
              ],
              [
                -80.04492064,
                -0.57046537
              ],
              [
                -80.04491201,
                -0.57049558
              ],
              [
                -80.04490079,
                -0.57053096
              ],
              [
                -80.04485074,
                -0.57071907
              ],
              [
                -80.04477998,
                -0.57099866
              ],
              [
                -80.04476168,
                -0.57107047
              ],
              [
                -80.04474547,
                -0.57112982
              ],
              [
                -80.04473511,
                -0.57119195
              ],
              [
                -80.04474115,
                -0.57123682
              ],
              [
                -80.0447501,
                -0.57127393
              ],
              [
                -80.0447585,
                -0.57129332
              ],
              [
                -80.0447721,
                -0.57131936
              ],
              [
                -80.04477991,
                -0.57133499
              ],
              [
                -80.04479034,
                -0.57135072
              ],
              [
                -80.04481277,
                -0.57137747
              ],
              [
                -80.04485765,
                -0.57143356
              ],
              [
                -80.04491201,
                -0.57149699
              ],
              [
                -80.04492538,
                -0.57151554
              ],
              [
                -80.04493833,
                -0.57154488
              ],
              [
                -80.04494955,
                -0.57157983
              ],
              [
                -80.044953,
                -0.5716165
              ],
              [
                -80.04494825,
                -0.57165447
              ],
              [
                -80.04494351,
                -0.57168597
              ],
              [
                -80.04493099,
                -0.57172825
              ],
              [
                -80.04492366,
                -0.5717481
              ],
              [
                -80.04490511,
                -0.57178132
              ],
              [
                -80.04477239,
                -0.57200787
              ],
              [
                -80.04462897,
                -0.57223694
              ],
              [
                -80.04459381,
                -0.57230191
              ],
              [
                -80.04456512,
                -0.57236896
              ],
              [
                -80.04454182,
                -0.57241901
              ],
              [
                -80.04452888,
                -0.57244835
              ],
              [
                -80.04451075,
                -0.57248804
              ],
              [
                -80.04449194,
                -0.5725288
              ],
              [
                -80.04445812,
                -0.57260022
              ],
              [
                -80.04443568,
                -0.572652
              ],
              [
                -80.04442305,
                -0.57267756
              ],
              [
                -80.04438832,
                -0.57276207
              ],
              [
                -80.04436924,
                -0.57281552
              ],
              [
                -80.04436054,
                -0.57284889
              ],
              [
                -80.04434723,
                -0.57290052
              ],
              [
                -80.04430107,
                -0.57307655
              ],
              [
                -80.0442864,
                -0.57313221
              ],
              [
                -80.04419061,
                -0.57341007
              ],
              [
                -80.04416127,
                -0.57349981
              ],
              [
                -80.0441371,
                -0.57356431
              ],
              [
                -80.04410585,
                -0.57363956
              ],
              [
                -80.04407498,
                -0.57370346
              ],
              [
                -80.04402407,
                -0.57377163
              ],
              [
                -80.0439559,
                -0.57386569
              ],
              [
                -80.0438955,
                -0.57393558
              ],
              [
                -80.04380253,
                -0.57406325
              ],
              [
                -80.04371342,
                -0.5741772
              ],
              [
                -80.04366165,
                -0.57424278
              ],
              [
                -80.04361462,
                -0.57430146
              ],
              [
                -80.04358959,
                -0.5743308
              ],
              [
                -80.04353264,
                -0.57439508
              ],
              [
                -80.04350805,
                -0.57441579
              ],
              [
                -80.04348302,
                -0.57443262
              ],
              [
                -80.04344635,
                -0.57444729
              ],
              [
                -80.04342089,
                -0.57445765
              ],
              [
                -80.04337343,
                -0.57447404
              ],
              [
                -80.04333331,
                -0.57447792
              ],
              [
                -80.04331346,
                -0.57447318
              ],
              [
                -80.04330181,
                -0.57447706
              ],
              [
                -80.04328499,
                -0.57448396
              ],
              [
                -80.04326686,
                -0.57448828
              ],
              [
                -80.04324659,
                -0.57449475
              ],
              [
                -80.04323537,
                -0.5744982
              ],
              [
                -80.04320258,
                -0.57451028
              ],
              [
                -80.04318273,
                -0.5745228
              ],
              [
                -80.04314735,
                -0.57454868
              ],
              [
                -80.04311974,
                -0.57457371
              ],
              [
                -80.04309817,
                -0.57458924
              ],
              [
                -80.04307314,
                -0.57462462
              ],
              [
                -80.04306537,
                -0.57465137
              ],
              [
                -80.04306192,
                -0.57467035
              ],
              [
                -80.04306192,
                -0.57467985
              ],
              [
                -80.04306106,
                -0.57471177
              ],
              [
                -80.0430602,
                -0.57474802
              ],
              [
                -80.04305329,
                -0.57477218
              ],
              [
                -80.04304164,
                -0.57480583
              ],
              [
                -80.04302395,
                -0.57483862
              ],
              [
                -80.04300583,
                -0.57486796
              ],
              [
                -80.04276486,
                -0.57516286
              ]
            ]
          ]
        ]
      }
    },
    {
      "type": "Feature",
      "properties": {
        "Name": "Mirador",
        "Usage": "Planned to be an office structure, is currently an open air lookout for the forest and farm plots",
        "Date added": null,
        "_rfi_source_fid": 3
      },
      "geometry": {
        "type": "MultiPolygon",
        "coordinates": [
          [
            [
              [
                -80.04502289,
                -0.57157681
              ],
              [
                -80.04496249,
                -0.57157379
              ],
              [
                -80.04495731,
                -0.57162858
              ],
              [
                -80.04502117,
                -0.5716316
              ],
              [
                -80.04502289,
                -0.57157681
              ]
            ]
          ]
        ]
      }
    },
    {
      "type": "Feature",
      "properties": {
        "Name": "Main building",
        "Usage": "Residence of the kitchen staff and program guests, acts as both office space and dining area",
        "Date added": null,
        "_rfi_source_fid": 4
      },
      "geometry": {
        "type": "MultiPolygon",
        "coordinates": [
          [
            [
              [
                -80.04486843,
                -0.57250875
              ],
              [
                -80.04466133,
                -0.57255708
              ],
              [
                -80.04464062,
                -0.57246733
              ],
              [
                -80.04467255,
                -0.57245698
              ],
              [
                -80.04466651,
                -0.57240003
              ],
              [
                -80.04473986,
                -0.57236551
              ],
              [
                -80.04478214,
                -0.57236206
              ],
              [
                -80.04481407,
                -0.5723681
              ],
              [
                -80.04483909,
                -0.57237845
              ],
              [
                -80.04486843,
                -0.57250875
              ]
            ]
          ]
        ]
      }
    },
    {
      "type": "Feature",
      "properties": {
        "Name": "Massbu Microfactory",
        "Usage": "Contains all tools and processes required for the fabrication of massbu panels",
        "Date added": null,
        "_rfi_source_fid": 5
      },
      "geometry": {
        "type": "MultiPolygon",
        "coordinates": [
          [
            [
              [
                -80.04397482,
                -0.57422882
              ],
              [
                -80.04387141,
                -0.57414298
              ],
              [
                -80.04400796,
                -0.57398289
              ],
              [
                -80.04411096,
                -0.57406992
              ],
              [
                -80.04397482,
                -0.57422882
              ]
            ]
          ]
        ]
      }
    },
    {
      "type": "Feature",
      "properties": {
        "Name": "Farmkeepers house",
        "Usage": null,
        "Date added": null,
        "_rfi_source_fid": 6
      },
      "geometry": {
        "type": "MultiPolygon",
        "coordinates": [
          [
            [
              [
                -80.04380813,
                -0.57392279
              ],
              [
                -80.04373733,
                -0.57399858
              ],
              [
                -80.04363507,
                -0.57390133
              ],
              [
                -80.04368013,
                -0.57386058
              ],
              [
                -80.04369514,
                -0.57387488
              ],
              [
                -80.04372518,
                -0.57384556
              ],
              [
                -80.04380813,
                -0.57392279
              ]
            ]
          ]
        ]
      }
    },
    {
      "type": "Feature",
      "properties": {
        "Name": "Cow stables",
        "Usage": "Cow stables",
        "Date added": null,
        "_rfi_source_fid": 7
      },
      "geometry": {
        "type": "MultiPolygon",
        "coordinates": [
          [
            [
              [
                -80.04366654,
                -0.57400216
              ],
              [
                -80.04372589,
                -0.57406008
              ],
              [
                -80.04365295,
                -0.57414803
              ],
              [
                -80.04356642,
                -0.57407795
              ],
              [
                -80.04354819,
                -0.57409833
              ],
              [
                -80.04351565,
                -0.57406651
              ],
              [
                -80.04347346,
                -0.57410084
              ],
              [
                -80.04341053,
                -0.57403434
              ],
              [
                -80.04344307,
                -0.57399536
              ],
              [
                -80.04335654,
                -0.57390598
              ],
              [
                -80.04346238,
                -0.57380373
              ],
              [
                -80.04366654,
                -0.57400216
              ]
            ]
          ]
        ]
      }
    },
    {
      "type": "Feature",
      "properties": {
        "Name": "Cacao fermentation & storage facility",
        "Usage": "Multi stage fermentation process building with an attached storage component.",
        "Date added": null,
        "_rfi_source_fid": 8
      },
      "geometry": {
        "type": "MultiPolygon",
        "coordinates": [
          [
            [
              [
                -80.04445383,
                -0.57442565
              ],
              [
                -80.04434266,
                -0.57433642
              ],
              [
                -80.04431559,
                -0.57436348
              ],
              [
                -80.04422124,
                -0.57430497
              ],
              [
                -80.04415029,
                -0.57441468
              ],
              [
                -80.04424172,
                -0.57447831
              ],
              [
                -80.04429292,
                -0.57441688
              ],
              [
                -80.04441872,
                -0.57448489
              ],
              [
                -80.04445383,
                -0.57442565
              ]
            ]
          ]
        ]
      }
    },
    {
      "type": "Feature",
      "properties": {
        "Name": "Cabanas",
        "Usage": "New housing for long term program positions",
        "Date added": null,
        "_rfi_source_fid": 9
      },
      "geometry": {
        "type": "MultiPolygon",
        "coordinates": [
          [
            [
              [
                -80.04536658,
                -0.57169168
              ],
              [
                -80.04529807,
                -0.57185767
              ],
              [
                -80.04524897,
                -0.57184284
              ],
              [
                -80.04523061,
                -0.57182024
              ],
              [
                -80.04523025,
                -0.57178916
              ],
              [
                -80.04526204,
                -0.5716712
              ],
              [
                -80.04527476,
                -0.5716606
              ],
              [
                -80.04532067,
                -0.57166413
              ],
              [
                -80.04536658,
                -0.57169168
              ]
            ]
          ]
        ]
      }
    },
    {
      "type": "Feature",
      "properties": {
        "Name": "Stables",
        "Usage": "Stable for Sebastian the packmule",
        "Date added": null,
        "_rfi_source_fid": 10
      },
      "geometry": {
        "type": "MultiPolygon",
        "coordinates": [
          [
            [
              [
                -80.04530972,
                -0.57202543
              ],
              [
                -80.04529595,
                -0.57199223
              ],
              [
                -80.04524791,
                -0.5719834
              ],
              [
                -80.04522354,
                -0.57203108
              ],
              [
                -80.0452246,
                -0.57204026
              ],
              [
                -80.0452684,
                -0.57206816
              ],
              [
                -80.04528747,
                -0.57206286
              ],
              [
                -80.04530972,
                -0.57202543
              ]
            ]
          ]
        ]
      }
    },
    {
      "type": "Feature",
      "properties": {
        "Name": "Lucas oshun residence",
        "Usage": "Residence of the RFI founder and his family",
        "Date added": null,
        "_rfi_source_fid": 11
      },
      "geometry": {
        "type": "MultiPolygon",
        "coordinates": [
          [
            [
              [
                -80.0447092,
                -0.57268319
              ],
              [
                -80.04469657,
                -0.57265211
              ],
              [
                -80.04467423,
                -0.57261811
              ],
              [
                -80.044648,
                -0.57261228
              ],
              [
                -80.04463051,
                -0.57262588
              ],
              [
                -80.0445732,
                -0.57265891
              ],
              [
                -80.044546,
                -0.57267736
              ],
              [
                -80.04452851,
                -0.57269096
              ],
              [
                -80.04454406,
                -0.5727269
              ],
              [
                -80.04455183,
                -0.57273953
              ],
              [
                -80.04461206,
                -0.57270165
              ],
              [
                -80.04464217,
                -0.57272593
              ],
              [
                -80.0447092,
                -0.57268319
              ]
            ]
          ]
        ]
      }
    },
    {
      "type": "Feature",
      "properties": {
        "Name": "El Arbolito",
        "Usage": "Garden to provide edible produce for the kitchen staff",
        "Date added": "2026-07-25",
        "_rfi_source_fid": 12
      },
      "geometry": {
        "type": "MultiPolygon",
        "coordinates": [
          [
            [
              [-80.0449396, -0.5721187],
              [-80.0449897, -0.5720204],
              [-80.0450097, -0.5720053],
              [-80.0450413, -0.5719909],
              [-80.0450763, -0.5719833],
              [-80.0451148, -0.5719916],
              [-80.045145, -0.5720259],
              [-80.045145, -0.5720335],
              [-80.0451457, -0.572085],
              [-80.0451024, -0.5721276],
              [-80.0450165, -0.5721867],
              [-80.0450049, -0.572195],
              [-80.0449774, -0.5721902],
              [-80.0449499, -0.5721593],
              [-80.0449458, -0.5721462],
              [-80.0449396, -0.5721187]
            ]
          ]
        ]
      }
    }
  ]
}
