{
"type": "FeatureCollection",
"name": "LaF border",
"features": [
{ "type": "Feature", "properties": { "id": 1 }, "geometry": { "type": "MultiPolygon", "coordinates": [ [ [ [ -80.0472217, -0.5710131 ], [ -80.0461587, -0.5721078 ], [ -80.0458175, -0.5725571 ], [ -80.0452222, -0.5728125 ], [ -80.0451772, -0.5729835 ], [ -80.0452144, -0.5734601 ], [ -80.0449696, -0.5738373 ], [ -80.0447959, -0.5739434 ], [ -80.0450317, -0.5740737 ], [ -80.0451048, -0.5743562 ], [ -80.0454559, -0.5744237 ], [ -80.0464281, -0.5749413 ], [ -80.0469361, -0.5747683 ], [ -80.047079, -0.5748801 ], [ -80.0473676, -0.5750165 ], [ -80.0473955, -0.5751468 ], [ -80.0464337, -0.5756122 ], [ -80.0456917, -0.5759197 ], [ -80.0453984, -0.5757741 ], [ -80.0452889, -0.5756691 ], [ -80.0449348, -0.5751995 ], [ -80.0443548, -0.5750874 ], [ -80.0441372, -0.5750256 ], [ -80.0433992, -0.5745173 ], [ -80.0430584, -0.5746846 ], [ -80.0427256, -0.5751072 ], [ -80.0412533, -0.574491 ], [ -80.0410435, -0.5740661 ], [ -80.0411093, -0.5734117 ], [ -80.0411004, -0.5727013 ], [ -80.0412465, -0.5723797 ], [ -80.0417996, -0.5715997 ], [ -80.0420346, -0.5703012 ], [ -80.042047, -0.5694636 ], [ -80.042289, -0.5689145 ], [ -80.0472124, -0.5710116 ], [ -80.0472217, -0.5710131 ] ] ] ] } }
]
}
