{
  "type": "FeatureCollection",
  "name": "Pastures",
  "xy_coordinate_resolution": 1e-08,
  "features": [
    {
      "type": "Feature",
      "properties": {
        "Name": "Silvopasture",
        "Date created": null,
        "Area": null,
        "Landuse description": "Used in a grazing rotation for the cows and other stable animals on the farm",
        "Plant Census": null,
        "Insights": null,
        "Past use history": "Pasture",
        "_rfi_source_fid": 1
      },
      "geometry": {
        "type": "Polygon",
        "coordinates": [
          [
            [
              -80.04507787,
              -0.57010498
            ],
            [
              -80.04430174,
              -0.57088192
            ],
            [
              -80.04415318,
              -0.57100831
            ],
            [
              -80.04403086,
              -0.57098798
            ],
            [
              -80.04394808,
              -0.57106707
            ],
            [
              -80.04392479,
              -0.57112656
            ],
            [
              -80.04372302,
              -0.57108407
            ],
            [
              -80.0434284,
              -0.57072671
            ],
            [
              -80.04356421,
              -0.57051828
            ],
            [
              -80.04367655,
              -0.57049851
            ],
            [
              -80.04369632,
              -0.57026403
            ],
            [
              -80.04395353,
              -0.57012841
            ],
            [
              -80.04409987,
              -0.57020749
            ],
            [
              -80.04409248,
              -0.57002789
            ],
            [
              -80.04410948,
              -0.56990964
            ],
            [
              -80.04417963,
              -0.56983503
            ],
            [
              -80.04434634,
              -0.56979086
            ],
            [
              -80.04507787,
              -0.57010498
            ]
          ]
        ]
      }
    },
    {
      "type": "Feature",
      "properties": {
        "Name": "Semango Pasture",
        "Date created": null,
        "Area": null,
        "Landuse description": "Used in a grazing rotation for the cows and other stable animals on the farm",
        "Plant Census": null,
        "Insights": null,
        "Past use history": "Pasture",
        "_rfi_source_fid": 2
      },
      "geometry": {
        "type": "Polygon",
        "coordinates": [
          [
            [
              -80.04196457,
              -0.57068882
            ],
            [
              -80.04179979,
              -0.57159626
            ],
            [
              -80.04124735,
              -0.57237967
            ],
            [
              -80.04119151,
              -0.5725024
            ],
            [
              -80.04129498,
              -0.57255414
            ],
            [
              -80.04131158,
              -0.57256311
            ],
            [
              -80.04134683,
              -0.57256726
            ],
            [
              -80.04141811,
              -0.57257467
            ],
            [
              -80.04145709,
              -0.57255642
            ],
            [
              -80.04147264,
              -0.57254502
            ],
            [
              -80.04149006,
              -0.57253797
            ],
            [
              -80.0415027,
              -0.57254025
            ],
            [
              -80.04154283,
              -0.57254948
            ],
            [
              -80.04158264,
              -0.5725642
            ],
            [
              -80.04161229,
              -0.57258141
            ],
            [
              -80.04162019,
              -0.57258222
            ],
            [
              -80.04162314,
              -0.57258222
            ],
            [
              -80.0416261,
              -0.57258222
            ],
            [
              -80.04162906,
              -0.5725837
            ],
            [
              -80.04163201,
              -0.5725837
            ],
            [
              -80.04163497,
              -0.5725837
            ],
            [
              -80.04163793,
              -0.5725837
            ],
            [
              -80.04164384,
              -0.5725837
            ],
            [
              -80.04164679,
              -0.5725837
            ],
            [
              -80.04164975,
              -0.57258518
            ],
            [
              -80.04165271,
              -0.57258518
            ],
            [
              -80.04165566,
              -0.57258518
            ],
            [
              -80.04165862,
              -0.57258518
            ],
            [
              -80.04166158,
              -0.57258518
            ],
            [
              -80.04166453,
              -0.57258518
            ],
            [
              -80.04166749,
              -0.57258518
            ],
            [
              -80.04167045,
              -0.57258518
            ],
            [
              -80.0416734,
              -0.57258518
            ],
            [
              -80.04167636,
              -0.57258518
            ],
            [
              -80.04167932,
              -0.57258518
            ],
            [
              -80.04168227,
              -0.57258518
            ],
            [
              -80.04168523,
              -0.57258518
            ],
            [
              -80.04168818,
              -0.57258518
            ],
            [
              -80.04169114,
              -0.57258518
            ],
            [
              -80.0416941,
              -0.5725837
            ],
            [
              -80.04169705,
              -0.57258222
            ],
            [
              -80.04170001,
              -0.57258074
            ],
            [
              -80.04170297,
              -0.57258074
            ],
            [
              -80.04170592,
              -0.57257779
            ],
            [
              -80.04170888,
              -0.57257779
            ],
            [
              -80.04171184,
              -0.57257631
            ],
            [
              -80.04171479,
              -0.57257631
            ],
            [
              -80.04171775,
              -0.57257483
            ],
            [
              -80.0417207,
              -0.57257483
            ],
            [
              -80.04172366,
              -0.57257335
            ],
            [
              -80.04172662,
              -0.57257188
            ],
            [
              -80.04172957,
              -0.5725704
            ],
            [
              -80.04173253,
              -0.57256892
            ],
            [
              -80.04173549,
              -0.57256892
            ],
            [
              -80.04173844,
              -0.57256744
            ],
            [
              -80.0417414,
              -0.57256596
            ],
            [
              -80.04174436,
              -0.57256448
            ],
            [
              -80.04174731,
              -0.57256301
            ],
            [
              -80.04175027,
              -0.57256301
            ],
            [
              -80.04175323,
              -0.57256005
            ],
            [
              -80.04182048,
              -0.57256227
            ],
            [
              -80.04182196,
              -0.57256227
            ],
            [
              -80.04182966,
              -0.57256253
            ],
            [
              -80.04184376,
              -0.5725629
            ],
            [
              -80.04185153,
              -0.57256227
            ],
            [
              -80.041853,
              -0.57256227
            ],
            [
              -80.04185448,
              -0.57256227
            ],
            [
              -80.04186237,
              -0.57256133
            ],
            [
              -80.04187491,
              -0.57255903
            ],
            [
              -80.04187795,
              -0.57255801
            ],
            [
              -80.04189297,
              -0.57255285
            ],
            [
              -80.04189859,
              -0.57255083
            ],
            [
              -80.04190587,
              -0.57254023
            ],
            [
              -80.04190771,
              -0.57252696
            ],
            [
              -80.04190919,
              -0.57251959
            ],
            [
              -80.04190735,
              -0.57250226
            ],
            [
              -80.04190513,
              -0.5724971
            ],
            [
              -80.04190329,
              -0.57249065
            ],
            [
              -80.04190034,
              -0.57248273
            ],
            [
              -80.04189554,
              -0.57246832
            ],
            [
              -80.04189513,
              -0.57246694
            ],
            [
              -80.04189433,
              -0.57246476
            ],
            [
              -80.04189361,
              -0.57246272
            ],
            [
              -80.04189299,
              -0.57243853
            ],
            [
              -80.04188621,
              -0.57242278
            ],
            [
              -80.04186811,
              -0.57241697
            ],
            [
              -80.04186617,
              -0.57239845
            ],
            [
              -80.04187225,
              -0.57238297
            ],
            [
              -80.04188193,
              -0.57237523
            ],
            [
              -80.04190377,
              -0.57236445
            ],
            [
              -80.04191179,
              -0.57235449
            ],
            [
              -80.04192727,
              -0.57234122
            ],
            [
              -80.04206495,
              -0.57228649
            ],
            [
              -80.04208872,
              -0.57226354
            ],
            [
              -80.04211195,
              -0.57225801
            ],
            [
              -80.04211278,
              -0.57224806
            ],
            [
              -80.04209951,
              -0.57220687
            ],
            [
              -80.04207822,
              -0.57216595
            ],
            [
              -80.0420691,
              -0.57213389
            ],
            [
              -80.04205776,
              -0.57211288
            ],
            [
              -80.04205113,
              -0.57208523
            ],
            [
              -80.04203785,
              -0.57204763
            ],
            [
              -80.04202956,
              -0.57199594
            ],
            [
              -80.04205195,
              -0.57195917
            ],
            [
              -80.04209951,
              -0.57193871
            ],
            [
              -80.04211084,
              -0.57192434
            ],
            [
              -80.04211278,
              -0.57191798
            ],
            [
              -80.04214499,
              -0.57184029
            ],
            [
              -80.04217765,
              -0.57176644
            ],
            [
              -80.04218549,
              -0.57174478
            ],
            [
              -80.04219378,
              -0.57169364
            ],
            [
              -80.04220537,
              -0.57164486
            ],
            [
              -80.0422098,
              -0.57163968
            ],
            [
              -80.04221054,
              -0.57163821
            ],
            [
              -80.04221202,
              -0.57163525
            ],
            [
              -80.04221276,
              -0.57163229
            ],
            [
              -80.0422135,
              -0.57163082
            ],
            [
              -80.04221498,
              -0.57162934
            ],
            [
              -80.04221572,
              -0.57162712
            ],
            [
              -80.04221646,
              -0.57162564
            ],
            [
              -80.0422172,
              -0.57162416
            ],
            [
              -80.04221867,
              -0.57162269
            ],
            [
              -80.04222015,
              -0.57162047
            ],
            [
              -80.04222089,
              -0.57161825
            ],
            [
              -80.04222163,
              -0.57161677
            ],
            [
              -80.04222311,
              -0.57161529
            ],
            [
              -80.04222385,
              -0.57161382
            ],
            [
              -80.04222459,
              -0.57161234
            ],
            [
              -80.04222533,
              -0.57161086
            ],
            [
              -80.04222606,
              -0.57160938
            ],
            [
              -80.04222754,
              -0.57160938
            ],
            [
              -80.04222754,
              -0.5716079
            ],
            [
              -80.04222902,
              -0.57160643
            ],
            [
              -80.0422305,
              -0.57160569
            ],
            [
              -80.04223124,
              -0.57160347
            ],
            [
              -80.04223272,
              -0.57160273
            ],
            [
              -80.04223493,
              -0.57160051
            ],
            [
              -80.04223641,
              -0.57159977
            ],
            [
              -80.04223789,
              -0.57159903
            ],
            [
              -80.04223863,
              -0.57159756
            ],
            [
              -80.04224011,
              -0.57159756
            ],
            [
              -80.04224159,
              -0.57159756
            ],
            [
              -80.04224306,
              -0.57159756
            ],
            [
              -80.04224454,
              -0.57159756
            ],
            [
              -80.04224676,
              -0.57159608
            ],
            [
              -80.04224824,
              -0.57159608
            ],
            [
              -80.04225119,
              -0.57159608
            ],
            [
              -80.04225341,
              -0.57159608
            ],
            [
              -80.04225711,
              -0.57159534
            ],
            [
              -80.04226006,
              -0.57159534
            ],
            [
              -80.04226302,
              -0.5715946
            ],
            [
              -80.0422645,
              -0.5715946
            ],
            [
              -80.04226598,
              -0.5715946
            ],
            [
              -80.04226819,
              -0.5715946
            ],
            [
              -80.04227041,
              -0.5715946
            ],
            [
              -80.04227337,
              -0.5715946
            ],
            [
              -80.04227485,
              -0.5715946
            ],
            [
              -80.0422778,
              -0.5715946
            ],
            [
              -80.04228076,
              -0.5715946
            ],
            [
              -80.04228224,
              -0.5715946
            ],
            [
              -80.04228371,
              -0.5715946
            ],
            [
              -80.04228519,
              -0.5715946
            ],
            [
              -80.04228667,
              -0.5715946
            ],
            [
              -80.04228815,
              -0.57159534
            ],
            [
              -80.04228963,
              -0.57159608
            ],
            [
              -80.04229184,
              -0.57159756
            ],
            [
              -80.04229406,
              -0.5715983
            ],
            [
              -80.04229628,
              -0.57159903
            ],
            [
              -80.0422985,
              -0.57159977
            ],
            [
              -80.04229997,
              -0.57160051
            ],
            [
              -80.04230145,
              -0.57160051
            ],
            [
              -80.04230367,
              -0.57160199
            ],
            [
              -80.04230515,
              -0.57160273
            ],
            [
              -80.04230663,
              -0.57160421
            ],
            [
              -80.04230884,
              -0.57160495
            ],
            [
              -80.04231032,
              -0.57160495
            ],
            [
              -80.04231106,
              -0.57160643
            ],
            [
              -80.04231328,
              -0.5716079
            ],
            [
              -80.04231476,
              -0.57160938
            ],
            [
              -80.04231624,
              -0.57161012
            ],
            [
              -80.04231771,
              -0.5716116
            ],
            [
              -80.04231919,
              -0.57161234
            ],
            [
              -80.04231993,
              -0.57161382
            ],
            [
              -80.04232141,
              -0.57161529
            ],
            [
              -80.04232363,
              -0.57161677
            ],
            [
              -80.0423251,
              -0.57161825
            ],
            [
              -80.04232658,
              -0.57161973
            ],
            [
              -80.04232806,
              -0.57162195
            ],
            [
              -80.04232954,
              -0.57162416
            ],
            [
              -80.04233102,
              -0.57162564
            ],
            [
              -80.0423325,
              -0.57162638
            ],
            [
              -80.04233323,
              -0.57162786
            ],
            [
              -80.04233471,
              -0.5716286
            ],
            [
              -80.04233545,
              -0.57163008
            ],
            [
              -80.04233619,
              -0.57163155
            ],
            [
              -80.04233693,
              -0.57163303
            ],
            [
              -80.04233989,
              -0.57163673
            ],
            [
              -80.04234284,
              -0.57164042
            ],
            [
              -80.04234358,
              -0.57164264
            ],
            [
              -80.0423458,
              -0.57164486
            ],
            [
              -80.04234802,
              -0.57164929
            ],
            [
              -80.04234949,
              -0.57165225
            ],
            [
              -80.04235097,
              -0.57165373
            ],
            [
              -80.04235245,
              -0.57165668
            ],
            [
              -80.04235319,
              -0.57165816
            ],
            [
              -80.04235467,
              -0.57165964
            ],
            [
              -80.04235615,
              -0.57166038
            ],
            [
              -80.04235615,
              -0.57166186
            ],
            [
              -80.04235762,
              -0.57166334
            ],
            [
              -80.0423591,
              -0.57166408
            ],
            [
              -80.0423591,
              -0.57166629
            ],
            [
              -80.04236058,
              -0.57166703
            ],
            [
              -80.04236206,
              -0.57166999
            ],
            [
              -80.04236354,
              -0.57167221
            ],
            [
              -80.04236575,
              -0.57167516
            ],
            [
              -80.04236797,
              -0.57167886
            ],
            [
              -80.04236945,
              -0.57168034
            ],
            [
              -80.04237093,
              -0.57168107
            ],
            [
              -80.04237241,
              -0.57168181
            ],
            [
              -80.04237388,
              -0.57168181
            ],
            [
              -80.04237536,
              -0.57168181
            ],
            [
              -80.04237684,
              -0.57168181
            ],
            [
              -80.04237832,
              -0.57168329
            ],
            [
              -80.0423798,
              -0.57168403
            ],
            [
              -80.04238275,
              -0.57168551
            ],
            [
              -80.04238645,
              -0.57168699
            ],
            [
              -80.04238867,
              -0.57168773
            ],
            [
              -80.04239606,
              -0.57168994
            ],
            [
              -80.04240345,
              -0.57169216
            ],
            [
              -80.04240936,
              -0.57169364
            ],
            [
              -80.04241158,
              -0.57169512
            ],
            [
              -80.04241306,
              -0.57169512
            ],
            [
              -80.04241454,
              -0.57169586
            ],
            [
              -80.04241527,
              -0.57169733
            ],
            [
              -80.04241527,
              -0.57169881
            ],
            [
              -80.04241454,
              -0.57170029
            ],
            [
              -80.04241306,
              -0.57170177
            ],
            [
              -80.04241232,
              -0.57170325
            ],
            [
              -80.04241158,
              -0.57170473
            ],
            [
              -80.04241084,
              -0.5717062
            ],
            [
              -80.04241084,
              -0.57170768
            ],
            [
              -80.04241084,
              -0.57170916
            ],
            [
              -80.04241084,
              -0.57171138
            ],
            [
              -80.04241084,
              -0.57171286
            ],
            [
              -80.04241084,
              -0.57171433
            ],
            [
              -80.04241084,
              -0.57171655
            ],
            [
              -80.04241084,
              -0.57171803
            ],
            [
              -80.04241084,
              -0.57171951
            ],
            [
              -80.0424101,
              -0.57172173
            ],
            [
              -80.0424101,
              -0.57172394
            ],
            [
              -80.0424101,
              -0.5717269
            ],
            [
              -80.04240936,
              -0.57172838
            ],
            [
              -80.04240936,
              -0.57173059
            ],
            [
              -80.04240936,
              -0.57173207
            ],
            [
              -80.04240862,
              -0.57173355
            ],
            [
              -80.04240788,
              -0.57173503
            ],
            [
              -80.04240521,
              -0.57174903
            ],
            [
              -80.04248324,
              -0.57181745
            ],
            [
              -80.04249658,
              -0.57181411
            ],
            [
              -80.04249658,
              -0.5718119
            ],
            [
              -80.04249731,
              -0.57181042
            ],
            [
              -80.04249731,
              -0.57180894
            ],
            [
              -80.04249731,
              -0.57180746
            ],
            [
              -80.04249731,
              -0.57180598
            ],
            [
              -80.04249731,
              -0.5718045
            ],
            [
              -80.04249805,
              -0.57180303
            ],
            [
              -80.04249805,
              -0.57180155
            ],
            [
              -80.04249805,
              -0.57179933
            ],
            [
              -80.04249805,
              -0.57179785
            ],
            [
              -80.04249805,
              -0.57179637
            ],
            [
              -80.04249805,
              -0.5717949
            ],
            [
              -80.04249805,
              -0.57179342
            ],
            [
              -80.04249805,
              -0.57179194
            ],
            [
              -80.04249805,
              -0.57179046
            ],
            [
              -80.04249879,
              -0.57178898
            ],
            [
              -80.04249879,
              -0.57178751
            ],
            [
              -80.04249953,
              -0.57178603
            ],
            [
              -80.0425557,
              -0.571398
            ],
            [
              -80.04261188,
              -0.57126792
            ],
            [
              -80.0426444,
              -0.57114966
            ],
            [
              -80.04265622,
              -0.57100184
            ],
            [
              -80.04270648,
              -0.57091906
            ],
            [
              -80.04270648,
              -0.57091315
            ],
            [
              -80.04270944,
              -0.57090724
            ],
            [
              -80.04271239,
              -0.57090132
            ],
            [
              -80.04271535,
              -0.57089541
            ],
            [
              -80.04271535,
              -0.5708895
            ],
            [
              -80.04271831,
              -0.57088359
            ],
            [
              -80.04271831,
              -0.57087767
            ],
            [
              -80.04272126,
              -0.57087176
            ],
            [
              -80.04272422,
              -0.57086585
            ],
            [
              -80.04272422,
              -0.57085993
            ],
            [
              -80.04272717,
              -0.57085402
            ],
            [
              -80.04272717,
              -0.57084811
            ],
            [
              -80.04272717,
              -0.5708422
            ],
            [
              -80.04272717,
              -0.57083628
            ],
            [
              -80.04272717,
              -0.57083037
            ],
            [
              -80.04272717,
              -0.57082446
            ],
            [
              -80.04272422,
              -0.57081854
            ],
            [
              -80.04272422,
              -0.57081263
            ],
            [
              -80.04271831,
              -0.57080672
            ],
            [
              -80.04271535,
              -0.57080081
            ],
            [
              -80.04270944,
              -0.57079785
            ],
            [
              -80.04270133,
              -0.57079271
            ],
            [
              -80.04269599,
              -0.57079271
            ],
            [
              -80.04268972,
              -0.57079326
            ],
            [
              -80.04268391,
              -0.57079317
            ],
            [
              -80.04267875,
              -0.5707928
            ],
            [
              -80.04267184,
              -0.57079243
            ],
            [
              -80.04266668,
              -0.57079216
            ],
            [
              -80.04266097,
              -0.5707916
            ],
            [
              -80.04265101,
              -0.57079096
            ],
            [
              -80.0426476,
              -0.57078856
            ],
            [
              -80.0426444,
              -0.57078602
            ],
            [
              -80.04263913,
              -0.57078294
            ],
            [
              -80.0426312,
              -0.57077686
            ],
            [
              -80.04262429,
              -0.57077511
            ],
            [
              -80.04261517,
              -0.5707729
            ],
            [
              -80.04257935,
              -0.57077124
            ],
            [
              -80.04257344,
              -0.57077124
            ],
            [
              -80.04256753,
              -0.57077124
            ],
            [
              -80.04256162,
              -0.57077124
            ],
            [
              -80.0425557,
              -0.57077124
            ],
            [
              -80.04254979,
              -0.57077124
            ],
            [
              -80.04254388,
              -0.57077124
            ],
            [
              -80.04253797,
              -0.57077124
            ],
            [
              -80.04253205,
              -0.57077124
            ],
            [
              -80.04252614,
              -0.57077124
            ],
            [
              -80.04252023,
              -0.57077124
            ],
            [
              -80.04251431,
              -0.57077124
            ],
            [
              -80.04250544,
              -0.57077124
            ],
            [
              -80.04249953,
              -0.57077124
            ],
            [
              -80.04248771,
              -0.57076829
            ],
            [
              -80.04246997,
              -0.57076533
            ],
            [
              -80.04246406,
              -0.57076237
            ],
            [
              -80.04245814,
              -0.57075942
            ],
            [
              -80.04245223,
              -0.57075646
            ],
            [
              -80.04244632,
              -0.5707535
            ],
            [
              -80.04244336,
              -0.57074759
            ],
            [
              -80.04244016,
              -0.57074286
            ],
            [
              -80.04243745,
              -0.57073872
            ],
            [
              -80.04243449,
              -0.57073281
            ],
            [
              -80.04243003,
              -0.57072756
            ],
            [
              -80.04242321,
              -0.57072019
            ],
            [
              -80.0424116,
              -0.570713
            ],
            [
              -80.0423739,
              -0.57070443
            ],
            [
              -80.04235171,
              -0.57070029
            ],
            [
              -80.04233397,
              -0.57069733
            ],
            [
              -80.04232806,
              -0.57069733
            ],
            [
              -80.04232215,
              -0.57069733
            ],
            [
              -80.04231328,
              -0.57069733
            ],
            [
              -80.04230737,
              -0.57069733
            ],
            [
              -80.04230145,
              -0.57069733
            ],
            [
              -80.04228963,
              -0.57069733
            ],
            [
              -80.04228371,
              -0.57069438
            ],
            [
              -80.0422778,
              -0.57069438
            ],
            [
              -80.04227189,
              -0.57069438
            ],
            [
              -80.04226598,
              -0.57069142
            ],
            [
              -80.04226006,
              -0.57068846
            ],
            [
              -80.04225415,
              -0.57068846
            ],
            [
              -80.04224232,
              -0.57068846
            ],
            [
              -80.0422305,
              -0.57068846
            ],
            [
              -80.04222163,
              -0.57068846
            ],
            [
              -80.04221276,
              -0.57068846
            ],
            [
              -80.04196457,
              -0.57068882
            ]
          ]
        ]
      }
    },
    {
      "type": "Feature",
      "properties": {
        "Name": "Pasture SE",
        "Date created": null,
        "Area": null,
        "Landuse description": "Used in a grazing rotation for the cows and other stable animals on the farm",
        "Plant Census": null,
        "Insights": null,
        "Past use history": "Pasture",
        "_rfi_source_fid": 3
      },
      "geometry": {
        "type": "Polygon",
        "coordinates": [
          [
            [
              -80.04119169,
              -0.57250388
            ],
            [
              -80.04131217,
              -0.57256338
            ],
            [
              -80.04131291,
              -0.57256338
            ],
            [
              -80.04131381,
              -0.57256337
            ],
            [
              -80.0413446,
              -0.57256725
            ],
            [
              -80.04134652,
              -0.57256752
            ],
            [
              -80.0413469,
              -0.57256855
            ],
            [
              -80.04138164,
              -0.57271267
            ],
            [
              -80.04138386,
              -0.57281984
            ],
            [
              -80.04136169,
              -0.57288267
            ],
            [
              -80.04136612,
              -0.5730231
            ],
            [
              -80.04136612,
              -0.57302605
            ],
            [
              -80.04136612,
              -0.57302901
            ],
            [
              -80.0413676,
              -0.57303197
            ],
            [
              -80.04136908,
              -0.57303492
            ],
            [
              -80.04136908,
              -0.57303788
            ],
            [
              -80.04136908,
              -0.57304083
            ],
            [
              -80.04137203,
              -0.57304379
            ],
            [
              -80.04137203,
              -0.57304675
            ],
            [
              -80.04137203,
              -0.5730497
            ],
            [
              -80.04137351,
              -0.57305266
            ],
            [
              -80.04137351,
              -0.57305562
            ],
            [
              -80.04137351,
              -0.57305857
            ],
            [
              -80.04137499,
              -0.57306153
            ],
            [
              -80.04137499,
              -0.57306449
            ],
            [
              -80.04137499,
              -0.57306744
            ],
            [
              -80.04137499,
              -0.5730704
            ],
            [
              -80.04137647,
              -0.57307335
            ],
            [
              -80.04137647,
              -0.57307631
            ],
            [
              -80.04137795,
              -0.57307927
            ],
            [
              -80.04137795,
              -0.57308222
            ],
            [
              -80.04137795,
              -0.57308518
            ],
            [
              -80.04137795,
              -0.57308814
            ],
            [
              -80.04137943,
              -0.57309109
            ],
            [
              -80.04137943,
              -0.57309405
            ],
            [
              -80.0413809,
              -0.57309701
            ],
            [
              -80.0413809,
              -0.57309996
            ],
            [
              -80.0413809,
              -0.57310292
            ],
            [
              -80.0413809,
              -0.57310588
            ],
            [
              -80.0413809,
              -0.57310883
            ],
            [
              -80.0413809,
              -0.57311179
            ],
            [
              -80.04138238,
              -0.57311474
            ],
            [
              -80.04138238,
              -0.5731177
            ],
            [
              -80.04138386,
              -0.57312066
            ],
            [
              -80.04138386,
              -0.57312361
            ],
            [
              -80.04138386,
              -0.57312657
            ],
            [
              -80.04138386,
              -0.57312953
            ],
            [
              -80.04138386,
              -0.57313248
            ],
            [
              -80.04138386,
              -0.57313544
            ],
            [
              -80.04138386,
              -0.5731384
            ],
            [
              -80.04138386,
              -0.57314135
            ],
            [
              -80.04138386,
              -0.57314431
            ],
            [
              -80.04138386,
              -0.57314726
            ],
            [
              -80.04138386,
              -0.57315022
            ],
            [
              -80.04138534,
              -0.57315318
            ],
            [
              -80.04138534,
              -0.57315613
            ],
            [
              -80.04138534,
              -0.57315909
            ],
            [
              -80.04138534,
              -0.57316205
            ],
            [
              -80.04138682,
              -0.57316796
            ],
            [
              -80.04138682,
              -0.57317239
            ],
            [
              -80.04138682,
              -0.57317683
            ],
            [
              -80.04138682,
              -0.57318126
            ],
            [
              -80.04138682,
              -0.5731857
            ],
            [
              -80.04138682,
              -0.57318865
            ],
            [
              -80.04138682,
              -0.57319161
            ],
            [
              -80.04138829,
              -0.57319457
            ],
            [
              -80.04138829,
              -0.57319752
            ],
            [
              -80.04138977,
              -0.57320048
            ],
            [
              -80.04138977,
              -0.57320344
            ],
            [
              -80.04138977,
              -0.57320639
            ],
            [
              -80.04139125,
              -0.57320935
            ],
            [
              -80.04139273,
              -0.57321231
            ],
            [
              -80.04139273,
              -0.57321526
            ],
            [
              -80.04139273,
              -0.57321822
            ],
            [
              -80.04139273,
              -0.57322117
            ],
            [
              -80.04139273,
              -0.57322413
            ],
            [
              -80.04139569,
              -0.57322413
            ],
            [
              -80.04139569,
              -0.57322709
            ],
            [
              -80.04139864,
              -0.57323004
            ],
            [
              -80.04140012,
              -0.573233
            ],
            [
              -80.0414016,
              -0.57323596
            ],
            [
              -80.04140455,
              -0.57323744
            ],
            [
              -80.04140455,
              -0.57324039
            ],
            [
              -80.04140603,
              -0.57324335
            ],
            [
              -80.04140751,
              -0.5732463
            ],
            [
              -80.04141047,
              -0.57324778
            ],
            [
              -80.04141047,
              -0.57325074
            ],
            [
              -80.04141342,
              -0.57325222
            ],
            [
              -80.04141638,
              -0.5732537
            ],
            [
              -80.04141786,
              -0.57325665
            ],
            [
              -80.04141934,
              -0.57325961
            ],
            [
              -80.04142229,
              -0.57325961
            ],
            [
              -80.04142525,
              -0.57326404
            ],
            [
              -80.04142821,
              -0.57326552
            ],
            [
              -80.04142968,
              -0.57326848
            ],
            [
              -80.04143264,
              -0.57326996
            ],
            [
              -80.0414356,
              -0.57327143
            ],
            [
              -80.04143708,
              -0.57327439
            ],
            [
              -80.04144003,
              -0.57327587
            ],
            [
              -80.04144299,
              -0.57327587
            ],
            [
              -80.04144594,
              -0.57327882
            ],
            [
              -80.0414489,
              -0.5732803
            ],
            [
              -80.04145186,
              -0.57328326
            ],
            [
              -80.04145481,
              -0.57328622
            ],
            [
              -80.04145777,
              -0.57328622
            ],
            [
              -80.04145925,
              -0.57328917
            ],
            [
              -80.0414622,
              -0.57329065
            ],
            [
              -80.04146664,
              -0.57329361
            ],
            [
              -80.0414696,
              -0.57329656
            ],
            [
              -80.04147255,
              -0.57329656
            ],
            [
              -80.04147551,
              -0.57329804
            ],
            [
              -80.04147699,
              -0.573301
            ],
            [
              -80.04147994,
              -0.57330248
            ],
            [
              -80.0414829,
              -0.57330395
            ],
            [
              -80.04148733,
              -0.57330543
            ],
            [
              -80.04149029,
              -0.57330691
            ],
            [
              -80.04149325,
              -0.57330839
            ],
            [
              -80.0414962,
              -0.57330987
            ],
            [
              -80.04149916,
              -0.57331135
            ],
            [
              -80.04150212,
              -0.57331282
            ],
            [
              -80.04150507,
              -0.57331282
            ],
            [
              -80.04150803,
              -0.57331578
            ],
            [
              -80.04151099,
              -0.57331578
            ],
            [
              -80.04151394,
              -0.57331726
            ],
            [
              -80.0415169,
              -0.57331874
            ],
            [
              -80.04151985,
              -0.57331874
            ],
            [
              -80.04152281,
              -0.57332021
            ],
            [
              -80.04152577,
              -0.57332169
            ],
            [
              -80.04152872,
              -0.57332317
            ],
            [
              -80.04153168,
              -0.57332465
            ],
            [
              -80.04153464,
              -0.57332465
            ],
            [
              -80.04153759,
              -0.57332613
            ],
            [
              -80.04154055,
              -0.57332761
            ],
            [
              -80.04154351,
              -0.57332761
            ],
            [
              -80.04154646,
              -0.57332761
            ],
            [
              -80.04154942,
              -0.57332908
            ],
            [
              -80.04155237,
              -0.57333056
            ],
            [
              -80.04155533,
              -0.57333056
            ],
            [
              -80.04155829,
              -0.57333056
            ],
            [
              -80.04156124,
              -0.57333056
            ],
            [
              -80.0415642,
              -0.57333204
            ],
            [
              -80.04156716,
              -0.57333352
            ],
            [
              -80.04157011,
              -0.57333352
            ],
            [
              -80.04157307,
              -0.57333352
            ],
            [
              -80.04157603,
              -0.57333352
            ],
            [
              -80.04157898,
              -0.573335
            ],
            [
              -80.04158194,
              -0.573335
            ],
            [
              -80.04185688,
              -0.57333647
            ],
            [
              -80.0418628,
              -0.57333943
            ],
            [
              -80.04186575,
              -0.57334091
            ],
            [
              -80.04186871,
              -0.57334091
            ],
            [
              -80.04187167,
              -0.57334239
            ],
            [
              -80.04187462,
              -0.57334387
            ],
            [
              -80.04187758,
              -0.57334387
            ],
            [
              -80.04187906,
              -0.57334682
            ],
            [
              -80.04188201,
              -0.57334682
            ],
            [
              -80.04188349,
              -0.57334978
            ],
            [
              -80.04188645,
              -0.57335273
            ],
            [
              -80.0418894,
              -0.57335273
            ],
            [
              -80.04189088,
              -0.57335569
            ],
            [
              -80.04189384,
              -0.57335865
            ],
            [
              -80.04189827,
              -0.5733616
            ],
            [
              -80.04189827,
              -0.57336456
            ],
            [
              -80.04190123,
              -0.57336752
            ],
            [
              -80.04190123,
              -0.57337047
            ],
            [
              -80.04190419,
              -0.57337047
            ],
            [
              -80.04190419,
              -0.57337343
            ],
            [
              -80.04190419,
              -0.57337639
            ],
            [
              -80.04190714,
              -0.57337934
            ],
            [
              -80.04190714,
              -0.5733823
            ],
            [
              -80.04190862,
              -0.57338526
            ],
            [
              -80.0419101,
              -0.57338821
            ],
            [
              -80.0419101,
              -0.57339117
            ],
            [
              -80.0419101,
              -0.57339412
            ],
            [
              -80.0419101,
              -0.57339708
            ],
            [
              -80.0419101,
              -0.57340004
            ],
            [
              -80.0419101,
              -0.57340299
            ],
            [
              -80.04190862,
              -0.57340595
            ],
            [
              -80.04190714,
              -0.57340891
            ],
            [
              -80.04190566,
              -0.57341186
            ],
            [
              -80.04190419,
              -0.57341482
            ],
            [
              -80.04190419,
              -0.57341778
            ],
            [
              -80.04190271,
              -0.57342073
            ],
            [
              -80.04190123,
              -0.57342369
            ],
            [
              -80.04189975,
              -0.57342664
            ],
            [
              -80.0418968,
              -0.57342812
            ],
            [
              -80.04189532,
              -0.57343108
            ],
            [
              -80.04189236,
              -0.57343256
            ],
            [
              -80.0418894,
              -0.57343404
            ],
            [
              -80.04188645,
              -0.57343699
            ],
            [
              -80.04188349,
              -0.57343847
            ],
            [
              -80.04188054,
              -0.57343995
            ],
            [
              -80.04187906,
              -0.57344291
            ],
            [
              -80.0418761,
              -0.57344438
            ],
            [
              -80.04187462,
              -0.57344734
            ],
            [
              -80.04187314,
              -0.5734503
            ],
            [
              -80.04187167,
              -0.57345325
            ],
            [
              -80.04187019,
              -0.57345621
            ],
            [
              -80.04186871,
              -0.57345917
            ],
            [
              -80.04186871,
              -0.57346212
            ],
            [
              -80.04186742,
              -0.57347696
            ],
            [
              -80.04186613,
              -0.57350639
            ],
            [
              -80.04186575,
              -0.57350647
            ],
            [
              -80.04186575,
              -0.57350942
            ],
            [
              -80.04186575,
              -0.57351829
            ],
            [
              -80.04186575,
              -0.57352421
            ],
            [
              -80.04186575,
              -0.57352716
            ],
            [
              -80.04186575,
              -0.57353455
            ],
            [
              -80.04186575,
              -0.57353751
            ],
            [
              -80.04186575,
              -0.57354047
            ],
            [
              -80.04186723,
              -0.57354638
            ],
            [
              -80.04187314,
              -0.57355968
            ],
            [
              -80.04187758,
              -0.57356855
            ],
            [
              -80.04188201,
              -0.57357446
            ],
            [
              -80.04188645,
              -0.57357742
            ],
            [
              -80.04189507,
              -0.57358422
            ],
            [
              -80.04191306,
              -0.57359516
            ],
            [
              -80.04205873,
              -0.57367527
            ],
            [
              -80.04215568,
              -0.57367859
            ],
            [
              -80.04216435,
              -0.57369937
            ],
            [
              -80.04217174,
              -0.57369937
            ],
            [
              -80.04217248,
              -0.57370085
            ],
            [
              -80.0421747,
              -0.57370159
            ],
            [
              -80.04217618,
              -0.57370233
            ],
            [
              -80.04217765,
              -0.57370233
            ],
            [
              -80.04217913,
              -0.57370307
            ],
            [
              -80.04218061,
              -0.57370307
            ],
            [
              -80.04218209,
              -0.57370381
            ],
            [
              -80.04218431,
              -0.57370381
            ],
            [
              -80.04218652,
              -0.57370529
            ],
            [
              -80.042188,
              -0.57370602
            ],
            [
              -80.04218948,
              -0.57370676
            ],
            [
              -80.04219096,
              -0.57370676
            ],
            [
              -80.04219244,
              -0.5737075
            ],
            [
              -80.04219391,
              -0.57370824
            ],
            [
              -80.04219539,
              -0.57370898
            ],
            [
              -80.04219687,
              -0.5737112
            ],
            [
              -80.04219835,
              -0.5737112
            ],
            [
              -80.04219835,
              -0.57371268
            ],
            [
              -80.04219983,
              -0.57371342
            ],
            [
              -80.0422013,
              -0.57371415
            ],
            [
              -80.04220204,
              -0.57371563
            ],
            [
              -80.04220278,
              -0.57371711
            ],
            [
              -80.042205,
              -0.57371859
            ],
            [
              -80.04220574,
              -0.57372007
            ],
            [
              -80.04220722,
              -0.57372155
            ],
            [
              -80.0422087,
              -0.57372302
            ],
            [
              -80.04221017,
              -0.5737245
            ],
            [
              -80.04221165,
              -0.57372598
            ],
            [
              -80.04221165,
              -0.57372746
            ],
            [
              -80.04221313,
              -0.57372894
            ],
            [
              -80.04221461,
              -0.57373042
            ],
            [
              -80.04221461,
              -0.57373263
            ],
            [
              -80.04221609,
              -0.57373337
            ],
            [
              -80.04221683,
              -0.57373633
            ],
            [
              -80.0422183,
              -0.57373781
            ],
            [
              -80.04221904,
              -0.57373928
            ],
            [
              -80.04222052,
              -0.57374224
            ],
            [
              -80.04222348,
              -0.57374668
            ],
            [
              -80.04222496,
              -0.57374963
            ],
            [
              -80.04222643,
              -0.57375259
            ],
            [
              -80.04222643,
              -0.57375481
            ],
            [
              -80.04222791,
              -0.57375628
            ],
            [
              -80.04222865,
              -0.57375776
            ],
            [
              -80.04222939,
              -0.57375998
            ],
            [
              -80.04223087,
              -0.57376146
            ],
            [
              -80.04223087,
              -0.57376367
            ],
            [
              -80.04223087,
              -0.57376589
            ],
            [
              -80.04223235,
              -0.57376737
            ],
            [
              -80.04223235,
              -0.57376885
            ],
            [
              -80.04223235,
              -0.57377107
            ],
            [
              -80.04223309,
              -0.57377328
            ],
            [
              -80.04223383,
              -0.57377476
            ],
            [
              -80.04223456,
              -0.57377624
            ],
            [
              -80.0422353,
              -0.57377772
            ],
            [
              -80.0422353,
              -0.5737792
            ],
            [
              -80.04223678,
              -0.57377993
            ],
            [
              -80.04223752,
              -0.57378215
            ],
            [
              -80.04223826,
              -0.57378363
            ],
            [
              -80.04223826,
              -0.57378511
            ],
            [
              -80.04223974,
              -0.57378659
            ],
            [
              -80.04223974,
              -0.57378806
            ],
            [
              -80.04224122,
              -0.57379102
            ],
            [
              -80.04224122,
              -0.5737925
            ],
            [
              -80.04224269,
              -0.57379472
            ],
            [
              -80.04224269,
              -0.57379619
            ],
            [
              -80.04224269,
              -0.57379841
            ],
            [
              -80.04224343,
              -0.57379989
            ],
            [
              -80.04224417,
              -0.57380137
            ],
            [
              -80.04224417,
              -0.57380359
            ],
            [
              -80.04224491,
              -0.57380728
            ],
            [
              -80.04224565,
              -0.57380876
            ],
            [
              -80.04224565,
              -0.57381098
            ],
            [
              -80.04224565,
              -0.57381246
            ],
            [
              -80.04224639,
              -0.57381467
            ],
            [
              -80.04224713,
              -0.57381689
            ],
            [
              -80.04224713,
              -0.57381837
            ],
            [
              -80.04224713,
              -0.57382059
            ],
            [
              -80.04224713,
              -0.57382206
            ],
            [
              -80.04224787,
              -0.57382354
            ],
            [
              -80.04224787,
              -0.57382576
            ],
            [
              -80.04224787,
              -0.57382798
            ],
            [
              -80.04224787,
              -0.57383019
            ],
            [
              -80.04224787,
              -0.57383241
            ],
            [
              -80.04224787,
              -0.57383463
            ],
            [
              -80.04224787,
              -0.57383611
            ],
            [
              -80.04224787,
              -0.57383758
            ],
            [
              -80.04224787,
              -0.5738398
            ],
            [
              -80.04224787,
              -0.57384128
            ],
            [
              -80.04224787,
              -0.57384276
            ],
            [
              -80.04224787,
              -0.57384424
            ],
            [
              -80.04224787,
              -0.57384571
            ],
            [
              -80.04224787,
              -0.57384719
            ],
            [
              -80.04224787,
              -0.57384867
            ],
            [
              -80.04224787,
              -0.57385015
            ],
            [
              -80.04224787,
              -0.57385163
            ],
            [
              -80.04224787,
              -0.57385311
            ],
            [
              -80.04224787,
              -0.57385458
            ],
            [
              -80.04224787,
              -0.57385606
            ],
            [
              -80.04224713,
              -0.57385754
            ],
            [
              -80.04224713,
              -0.5738605
            ],
            [
              -80.04224713,
              -0.57386345
            ],
            [
              -80.04224713,
              -0.57386493
            ],
            [
              -80.04224713,
              -0.57386789
            ],
            [
              -80.04224639,
              -0.57387084
            ],
            [
              -80.04224639,
              -0.57387232
            ],
            [
              -80.04224639,
              -0.5738738
            ],
            [
              -80.04224639,
              -0.57387528
            ],
            [
              -80.04224565,
              -0.57387676
            ],
            [
              -80.04224565,
              -0.57387897
            ],
            [
              -80.04224565,
              -0.57388045
            ],
            [
              -80.04224565,
              -0.57388267
            ],
            [
              -80.04224565,
              -0.57388489
            ],
            [
              -80.04224565,
              -0.57388637
            ],
            [
              -80.04224565,
              -0.57388858
            ],
            [
              -80.04224565,
              -0.57389006
            ],
            [
              -80.04224565,
              -0.57389154
            ],
            [
              -80.04224417,
              -0.57393958
            ],
            [
              -80.04224417,
              -0.57394254
            ],
            [
              -80.04224417,
              -0.57394549
            ],
            [
              -80.04224417,
              -0.57394845
            ],
            [
              -80.04224417,
              -0.57395141
            ],
            [
              -80.04224417,
              -0.57395436
            ],
            [
              -80.04224269,
              -0.57395732
            ],
            [
              -80.04224269,
              -0.57396028
            ],
            [
              -80.04223974,
              -0.57396471
            ],
            [
              -80.04223678,
              -0.57396767
            ],
            [
              -80.04223678,
              -0.57397062
            ],
            [
              -80.04223383,
              -0.5739721
            ],
            [
              -80.04223383,
              -0.57397506
            ],
            [
              -80.04223087,
              -0.57397654
            ],
            [
              -80.04223087,
              -0.57397949
            ],
            [
              -80.04223087,
              -0.57398245
            ],
            [
              -80.04222939,
              -0.5739854
            ],
            [
              -80.04222939,
              -0.57398836
            ],
            [
              -80.04222791,
              -0.5739928
            ],
            [
              -80.04222791,
              -0.57399575
            ],
            [
              -80.04222643,
              -0.57399871
            ],
            [
              -80.04222496,
              -0.57400166
            ],
            [
              -80.04222348,
              -0.5740061
            ],
            [
              -80.042222,
              -0.57400906
            ],
            [
              -80.04222052,
              -0.57401201
            ],
            [
              -80.04221904,
              -0.57401645
            ],
            [
              -80.04221609,
              -0.57402088
            ],
            [
              -80.04221461,
              -0.57402532
            ],
            [
              -80.04221313,
              -0.57402827
            ],
            [
              -80.04221017,
              -0.57403123
            ],
            [
              -80.04221017,
              -0.57403419
            ],
            [
              -80.0422087,
              -0.57403714
            ],
            [
              -80.04220722,
              -0.5740401
            ],
            [
              -80.04220574,
              -0.57404305
            ],
            [
              -80.04220426,
              -0.57404601
            ],
            [
              -80.04220278,
              -0.57404897
            ],
            [
              -80.0422013,
              -0.57405192
            ],
            [
              -80.04219835,
              -0.57405488
            ],
            [
              -80.04219539,
              -0.57405784
            ],
            [
              -80.04219539,
              -0.57406079
            ],
            [
              -80.04219244,
              -0.57406227
            ],
            [
              -80.04219096,
              -0.57406523
            ],
            [
              -80.04218948,
              -0.57406818
            ],
            [
              -80.04218652,
              -0.57407114
            ],
            [
              -80.04218357,
              -0.57407557
            ],
            [
              -80.04218209,
              -0.57407853
            ],
            [
              -80.04217913,
              -0.57408149
            ],
            [
              -80.04217765,
              -0.57408444
            ],
            [
              -80.04217618,
              -0.5740874
            ],
            [
              -80.0421747,
              -0.57409036
            ],
            [
              -80.0421747,
              -0.57409331
            ],
            [
              -80.04217174,
              -0.57409627
            ],
            [
              -80.04217174,
              -0.57409923
            ],
            [
              -80.04216878,
              -0.57410218
            ],
            [
              -80.04216878,
              -0.57410514
            ],
            [
              -80.04216878,
              -0.5741081
            ],
            [
              -80.04216583,
              -0.57411105
            ],
            [
              -80.04216583,
              -0.57411401
            ],
            [
              -80.04216435,
              -0.57411696
            ],
            [
              -80.04216435,
              -0.57411992
            ],
            [
              -80.04216435,
              -0.57412288
            ],
            [
              -80.04216287,
              -0.57412583
            ],
            [
              -80.04216287,
              -0.57412879
            ],
            [
              -80.04216287,
              -0.57413175
            ],
            [
              -80.04216287,
              -0.5741347
            ],
            [
              -80.04216287,
              -0.57413766
            ],
            [
              -80.04216287,
              -0.57414062
            ],
            [
              -80.04216287,
              -0.57414357
            ],
            [
              -80.04216287,
              -0.57414653
            ],
            [
              -80.04216287,
              -0.57414948
            ],
            [
              -80.04216287,
              -0.5741554
            ],
            [
              -80.04216287,
              -0.57415835
            ],
            [
              -80.04216287,
              -0.57416131
            ],
            [
              -80.04216287,
              -0.57416427
            ],
            [
              -80.04216287,
              -0.57416722
            ],
            [
              -80.04216287,
              -0.57417018
            ],
            [
              -80.04216287,
              -0.57417314
            ],
            [
              -80.04216287,
              -0.57417609
            ],
            [
              -80.04216287,
              -0.57417905
            ],
            [
              -80.04216435,
              -0.57418496
            ],
            [
              -80.04216583,
              -0.57418792
            ],
            [
              -80.04216583,
              -0.57419087
            ],
            [
              -80.04216583,
              -0.57419383
            ],
            [
              -80.04216583,
              -0.57419679
            ],
            [
              -80.04216731,
              -0.57419974
            ],
            [
              -80.04216731,
              -0.5742027
            ],
            [
              -80.04216878,
              -0.57420566
            ],
            [
              -80.04216878,
              -0.57420861
            ],
            [
              -80.04217174,
              -0.57421157
            ],
            [
              -80.0421731,
              -0.57421209
            ],
            [
              -80.04217531,
              -0.57421412
            ],
            [
              -80.04219945,
              -0.57422628
            ],
            [
              -80.04220627,
              -0.57423964
            ],
            [
              -80.04221761,
              -0.57424545
            ],
            [
              -80.04222037,
              -0.57424683
            ],
            [
              -80.0422248,
              -0.57425126
            ],
            [
              -80.0422394,
              -0.57426448
            ],
            [
              -80.04222848,
              -0.57428904
            ],
            [
              -80.0422248,
              -0.5743001
            ],
            [
              -80.04222056,
              -0.57431134
            ],
            [
              -80.0422071,
              -0.57433825
            ],
            [
              -80.0421966,
              -0.57435262
            ],
            [
              -80.04218867,
              -0.57436414
            ],
            [
              -80.04218535,
              -0.5743681
            ],
            [
              -80.04217337,
              -0.57439409
            ],
            [
              -80.04216932,
              -0.57440224
            ],
            [
              -80.04216582,
              -0.57441095
            ],
            [
              -80.04216416,
              -0.57441455
            ],
            [
              -80.04216162,
              -0.57441989
            ],
            [
              -80.04215393,
              -0.57443671
            ],
            [
              -80.04214729,
              -0.57445154
            ],
            [
              -80.04214499,
              -0.57445689
            ],
            [
              -80.04214278,
              -0.57446297
            ],
            [
              -80.04213845,
              -0.57447546
            ],
            [
              -80.0421352,
              -0.57448476
            ],
            [
              -80.04213025,
              -0.57449693
            ],
            [
              -80.04207935,
              -0.57457816
            ],
            [
              -80.04207935,
              -0.57467868
            ],
            [
              -80.04210596,
              -0.57472672
            ],
            [
              -80.04209266,
              -0.57484276
            ],
            [
              -80.04122791,
              -0.57449095
            ],
            [
              -80.04104498,
              -0.57406412
            ],
            [
              -80.04110984,
              -0.57339412
            ],
            [
              -80.0411006,
              -0.57269567
            ],
            [
              -80.04119169,
              -0.57250388
            ]
          ]
        ]
      }
    },
    {
      "type": "Feature",
      "properties": {
        "Name": "Pasture terrazas",
        "Date created": null,
        "Area": null,
        "Landuse description": "Used in a grazing rotation for the cows and other stable animals on the farm",
        "Plant Census": null,
        "Insights": null,
        "Past use history": "Pasture",
        "_rfi_source_fid": 4
      },
      "geometry": {
        "type": "Polygon",
        "coordinates": [
          [
            [
              -80.04442075,
              -0.57182175
            ],
            [
              -80.04438716,
              -0.57185378
            ],
            [
              -80.04434144,
              -0.57189592
            ],
            [
              -80.04432262,
              -0.57190821
            ],
            [
              -80.0443178,
              -0.57191147
            ],
            [
              -80.04431018,
              -0.57191645
            ],
            [
              -80.04429401,
              -0.57192485
            ],
            [
              -80.04427644,
              -0.57193697
            ],
            [
              -80.04425638,
              -0.57195377
            ],
            [
              -80.04423289,
              -0.5719743
            ],
            [
              -80.0442105,
              -0.57199202
            ],
            [
              -80.04417053,
              -0.57199638
            ],
            [
              -80.04415607,
              -0.57199342
            ],
            [
              -80.04412093,
              -0.57199715
            ],
            [
              -80.04408174,
              -0.57202266
            ],
            [
              -80.04406626,
              -0.57202927
            ],
            [
              -80.04403392,
              -0.57202844
            ],
            [
              -80.04401378,
              -0.5720281
            ],
            [
              -80.04400484,
              -0.57201753
            ],
            [
              -80.04399286,
              -0.57200501
            ],
            [
              -80.04398221,
              -0.57199949
            ],
            [
              -80.04397503,
              -0.57197992
            ],
            [
              -80.04397379,
              -0.57196499
            ],
            [
              -80.04396886,
              -0.57195824
            ],
            [
              -80.04395926,
              -0.57195602
            ],
            [
              -80.04393339,
              -0.57196008
            ],
            [
              -80.04386095,
              -0.5719708
            ],
            [
              -80.04381439,
              -0.57198078
            ],
            [
              -80.04375674,
              -0.57200628
            ],
            [
              -80.04373198,
              -0.5720218
            ],
            [
              -80.04371166,
              -0.57205395
            ],
            [
              -80.04370648,
              -0.57206873
            ],
            [
              -80.04367951,
              -0.57210273
            ],
            [
              -80.04365992,
              -0.57212934
            ],
            [
              -80.0436529,
              -0.57214153
            ],
            [
              -80.04365105,
              -0.57216482
            ],
            [
              -80.04365585,
              -0.57218921
            ],
            [
              -80.04366472,
              -0.57220473
            ],
            [
              -80.04368283,
              -0.5722136
            ],
            [
              -80.04370464,
              -0.57222025
            ],
            [
              -80.04372053,
              -0.57222025
            ],
            [
              -80.04373383,
              -0.57221581
            ],
            [
              -80.04375748,
              -0.57221471
            ],
            [
              -80.04376118,
              -0.57221064
            ],
            [
              -80.04378594,
              -0.57218403
            ],
            [
              -80.04390937,
              -0.5721674
            ],
            [
              -80.04391343,
              -0.57224944
            ],
            [
              -80.04390234,
              -0.57226201
            ],
            [
              -80.04389089,
              -0.57228233
            ],
            [
              -80.04387795,
              -0.57230192
            ],
            [
              -80.04386724,
              -0.57232483
            ],
            [
              -80.04385135,
              -0.57235144
            ],
            [
              -80.04371757,
              -0.5722949
            ],
            [
              -80.04370057,
              -0.57228529
            ],
            [
              -80.0436747,
              -0.57227162
            ],
            [
              -80.0436481,
              -0.57226945
            ],
            [
              -80.04364711,
              -0.57229654
            ],
            [
              -80.04364115,
              -0.57235668
            ],
            [
              -80.04362773,
              -0.57238973
            ],
            [
              -80.04358573,
              -0.57240141
            ],
            [
              -80.0435323,
              -0.57239519
            ],
            [
              -80.04350124,
              -0.5723942
            ],
            [
              -80.0434739,
              -0.57240016
            ],
            [
              -80.04345824,
              -0.57240513
            ],
            [
              -80.04343961,
              -0.57241135
            ],
            [
              -80.04339724,
              -0.57242079
            ],
            [
              -80.04335835,
              -0.57242054
            ],
            [
              -80.04336158,
              -0.57242365
            ],
            [
              -80.04337906,
              -0.57244937
            ],
            [
              -80.0434138,
              -0.5725085
            ],
            [
              -80.04343893,
              -0.57252624
            ],
            [
              -80.04345667,
              -0.57253806
            ],
            [
              -80.04346258,
              -0.57254324
            ],
            [
              -80.0434818,
              -0.5725425
            ],
            [
              -80.04349658,
              -0.57253363
            ],
            [
              -80.04350545,
              -0.57252328
            ],
            [
              -80.04351801,
              -0.57250258
            ],
            [
              -80.04352836,
              -0.57249224
            ],
            [
              -80.04356679,
              -0.57247302
            ],
            [
              -80.04359562,
              -0.57246341
            ],
            [
              -80.04363257,
              -0.57245528
            ],
            [
              -80.04366731,
              -0.5724575
            ],
            [
              -80.04369909,
              -0.57246193
            ],
            [
              -80.04373087,
              -0.57247154
            ],
            [
              -80.04375231,
              -0.57247967
            ],
            [
              -80.04376561,
              -0.57249667
            ],
            [
              -80.04378557,
              -0.57252476
            ],
            [
              -80.04379517,
              -0.57255063
            ],
            [
              -80.04380035,
              -0.57257576
            ],
            [
              -80.04380109,
              -0.57259941
            ],
            [
              -80.04380109,
              -0.57261345
            ],
            [
              -80.04379961,
              -0.57264227
            ],
            [
              -80.04379739,
              -0.57265853
            ],
            [
              -80.04379074,
              -0.57268219
            ],
            [
              -80.04378335,
              -0.57270584
            ],
            [
              -80.04376339,
              -0.57274057
            ],
            [
              -80.04373568,
              -0.57276977
            ],
            [
              -80.04371461,
              -0.57278529
            ],
            [
              -80.04368764,
              -0.57280155
            ],
            [
              -80.04366657,
              -0.57281375
            ],
            [
              -80.04364366,
              -0.57282483
            ],
            [
              -80.04363109,
              -0.57284553
            ],
            [
              -80.04362888,
              -0.57286253
            ],
            [
              -80.04363405,
              -0.57288766
            ],
            [
              -80.04363922,
              -0.57290466
            ],
            [
              -80.04364809,
              -0.57292461
            ],
            [
              -80.04365696,
              -0.57294161
            ],
            [
              -80.04368061,
              -0.57297413
            ],
            [
              -80.04369614,
              -0.57300074
            ],
            [
              -80.04371387,
              -0.57302332
            ],
            [
              -80.04391604,
              -0.5730171
            ],
            [
              -80.04391728,
              -0.57296672
            ],
            [
              -80.04392288,
              -0.57294448
            ],
            [
              -80.04392972,
              -0.57291805
            ],
            [
              -80.04393999,
              -0.57288322
            ],
            [
              -80.04395118,
              -0.57285771
            ],
            [
              -80.04397171,
              -0.5728064
            ],
            [
              -80.04400966,
              -0.57275477
            ],
            [
              -80.04403516,
              -0.57272802
            ],
            [
              -80.04404263,
              -0.57271931
            ],
            [
              -80.0440574,
              -0.57267888
            ],
            [
              -80.04406362,
              -0.57266147
            ],
            [
              -80.0440829,
              -0.57262384
            ],
            [
              -80.04409845,
              -0.57260735
            ],
            [
              -80.04412795,
              -0.57255802
            ],
            [
              -80.04419814,
              -0.57247712
            ],
            [
              -80.04415158,
              -0.57241905
            ],
            [
              -80.04412142,
              -0.57238464
            ],
            [
              -80.04412847,
              -0.57234898
            ],
            [
              -80.04415667,
              -0.57232908
            ],
            [
              -80.0441774,
              -0.57231954
            ],
            [
              -80.04419772,
              -0.57230793
            ],
            [
              -80.04423131,
              -0.57228305
            ],
            [
              -80.04426781,
              -0.57224863
            ],
            [
              -80.04428896,
              -0.57222157
            ],
            [
              -80.04430751,
              -0.57218912
            ],
            [
              -80.04433841,
              -0.57214662
            ],
            [
              -80.04435748,
              -0.57212381
            ],
            [
              -80.04437532,
              -0.57210225
            ],
            [
              -80.04439481,
              -0.57208276
            ],
            [
              -80.04441679,
              -0.5720585
            ],
            [
              -80.04443483,
              -0.5720414
            ],
            [
              -80.04445644,
              -0.57201216
            ],
            [
              -80.04446251,
              -0.5720047
            ],
            [
              -80.04447868,
              -0.5719879
            ],
            [
              -80.04449236,
              -0.57195633
            ],
            [
              -80.04450667,
              -0.57193114
            ],
            [
              -80.04453249,
              -0.57188542
            ],
            [
              -80.04454182,
              -0.57186956
            ],
            [
              -80.0445583,
              -0.57183411
            ],
            [
              -80.04456546,
              -0.57180518
            ],
            [
              -80.04456328,
              -0.5717694
            ],
            [
              -80.04455663,
              -0.57174944
            ],
            [
              -80.04454702,
              -0.57174057
            ],
            [
              -80.04453852,
              -0.57173614
            ],
            [
              -80.04452411,
              -0.57173762
            ],
            [
              -80.04450729,
              -0.57174547
            ],
            [
              -80.04448677,
              -0.57175667
            ],
            [
              -80.04446523,
              -0.57177167
            ],
            [
              -80.04445325,
              -0.57178536
            ],
            [
              -80.04443638,
              -0.57180612
            ],
            [
              -80.04442853,
              -0.5718149
            ],
            [
              -80.04442075,
              -0.57182175
            ]
          ]
        ]
      }
    },
    {
      "type": "Feature",
      "properties": {
        "Name": "Pasture",
        "Date created": null,
        "Area": null,
        "Landuse description": "Used in a grazing rotation for the cows and other stable animals on the farm",
        "Plant Census": null,
        "Insights": null,
        "Past use history": "Pasture",
        "_rfi_source_fid": 5
      },
      "geometry": {
        "type": "Polygon",
        "coordinates": [
          [
            [
              -80.04376352,
              -0.57185798
            ],
            [
              -80.0437022,
              -0.57186455
            ],
            [
              -80.04364087,
              -0.57187988
            ],
            [
              -80.04360363,
              -0.57185798
            ],
            [
              -80.04355326,
              -0.57180979
            ],
            [
              -80.04348755,
              -0.57177037
            ],
            [
              -80.04339118,
              -0.57172875
            ],
            [
              -80.04334518,
              -0.57175284
            ],
            [
              -80.04330356,
              -0.57179665
            ],
            [
              -80.04325319,
              -0.57182293
            ],
            [
              -80.04320062,
              -0.57183826
            ],
            [
              -80.0431831,
              -0.57147468
            ],
            [
              -80.04314805,
              -0.57142211
            ],
            [
              -80.04314805,
              -0.57136735
            ],
            [
              -80.04320062,
              -0.57133888
            ],
            [
              -80.04323128,
              -0.5713345
            ],
            [
              -80.04325319,
              -0.57132574
            ],
            [
              -80.04329699,
              -0.5713126
            ],
            [
              -80.04330137,
              -0.57129288
            ],
            [
              -80.04351383,
              -0.57150972
            ],
            [
              -80.04355983,
              -0.57152286
            ],
            [
              -80.04359049,
              -0.57150534
            ],
            [
              -80.0439278,
              -0.57151629
            ],
            [
              -80.04376352,
              -0.57185798
            ]
          ]
        ]
      }
    },
    {
      "type": "Feature",
      "properties": {
        "Name": "Pasture",
        "Date created": null,
        "Area": null,
        "Landuse description": "Used in a grazing rotation for the cows and other stable animals on the farm",
        "Plant Census": null,
        "Insights": null,
        "Past use history": "Pasture",
        "_rfi_source_fid": 6
      },
      "geometry": {
        "type": "Polygon",
        "coordinates": [
          [
            [
              -80.04300742,
              -0.56932813
            ],
            [
              -80.04355508,
              -0.56956622
            ],
            [
              -80.04372939,
              -0.5696387
            ],
            [
              -80.04369487,
              -0.56965078
            ],
            [
              -80.04368969,
              -0.56968357
            ],
            [
              -80.04369573,
              -0.56972586
            ],
            [
              -80.04369573,
              -0.56976383
            ],
            [
              -80.04368797,
              -0.5697785
            ],
            [
              -80.0436569,
              -0.56978626
            ],
            [
              -80.04362497,
              -0.56977332
            ],
            [
              -80.04359305,
              -0.56976383
            ],
            [
              -80.04356888,
              -0.56971809
            ],
            [
              -80.04354731,
              -0.56968789
            ],
            [
              -80.0435266,
              -0.56966459
            ],
            [
              -80.04348777,
              -0.5696387
            ],
            [
              -80.0434429,
              -0.56961713
            ],
            [
              -80.04340234,
              -0.5696016
            ],
            [
              -80.04332727,
              -0.56960505
            ],
            [
              -80.04327636,
              -0.56962662
            ],
            [
              -80.04322286,
              -0.56965941
            ],
            [
              -80.04319438,
              -0.56968444
            ],
            [
              -80.04316677,
              -0.56973966
            ],
            [
              -80.04314692,
              -0.56976124
            ],
            [
              -80.04310377,
              -0.56976037
            ],
            [
              -80.0430356,
              -0.56972586
            ],
            [
              -80.04300281,
              -0.56969997
            ],
            [
              -80.04298383,
              -0.56968444
            ],
            [
              -80.04296139,
              -0.56965855
            ],
            [
              -80.04294155,
              -0.56962921
            ],
            [
              -80.04293292,
              -0.56959728
            ],
            [
              -80.04293464,
              -0.56957053
            ],
            [
              -80.04294759,
              -0.56953429
            ],
            [
              -80.04294759,
              -0.5695084
            ],
            [
              -80.04294155,
              -0.56948856
            ],
            [
              -80.04291048,
              -0.56942729
            ],
            [
              -80.04290444,
              -0.56940744
            ],
            [
              -80.04292688,
              -0.56938328
            ],
            [
              -80.04296312,
              -0.56936516
            ],
            [
              -80.0429916,
              -0.56934618
            ],
            [
              -80.04300519,
              -0.56933064
            ],
            [
              -80.04300742,
              -0.56932813
            ]
          ]
        ]
      }
    }
  ]
}
