{
"type": "FeatureCollection",
"name": "riparian 10m",
"xy_coordinate_resolution": 1e-08,
"features": [
{ "type": "Feature", "properties": { "Subbasin": 1, "SubbasinR": 0, "AreaC": 63.0, "Len2": 143.2, "Slo2": 0.0, "Wid2": 0.97976374426253199, "Dep2": 0.108217572675959, "MinEl": 48.0, "MaxEl": 48.0, "Shape_Len": 143.2, "HydroID": 200001, "OutletID": 100001 }, "geometry": { "type": "MultiPolygon", "coordinates": [ [ [ [ -80.0468287, -0.57530658 ], [ -80.0468578, -0.57528709 ], [ -80.04689209, -0.57528025 ], [ -80.04702373, -0.57528027 ], [ -80.04703259, -0.57528205 ], [ -80.04703259, -0.57527184 ], [ -80.04703568, -0.57524836 ], [ -80.04704472, -0.57522648 ], [ -80.04705908, -0.57520772 ], [ -80.04712491, -0.57514181 ], [ -80.04715401, -0.57512232 ], [ -80.0471883, -0.57511548 ], [ -80.04722121, -0.57511549 ], [ -80.04725549, -0.57512233 ], [ -80.04727057, -0.57513244 ], [ -80.04728565, -0.57512234 ], [ -80.04731471, -0.57511654 ], [ -80.04732237, -0.57510887 ], [ -80.04735147, -0.57508939 ], [ -80.04738053, -0.57508359 ], [ -80.04742111, -0.57504296 ], [ -80.04745021, -0.57502347 ], [ -80.04747927, -0.57501768 ], [ -80.04748693, -0.57501001 ], [ -80.04751603, -0.57499052 ], [ -80.04755032, -0.57498368 ], [ -80.04758323, -0.57498369 ], [ -80.04761099, -0.57498812 ], [ -80.04763604, -0.57500097 ], [ -80.04765592, -0.57502099 ], [ -80.04766868, -0.57504621 ], [ -80.04767307, -0.57507416 ], [ -80.04766867, -0.57510212 ], [ -80.0476559, -0.57512733 ], [ -80.04763602, -0.57514734 ], [ -80.04761097, -0.57516019 ], [ -80.04758817, -0.57516382 ], [ -80.04758076, -0.57517124 ], [ -80.04755166, -0.57519073 ], [ -80.04752259, -0.57519652 ], [ -80.04748202, -0.57523715 ], [ -80.04745292, -0.57525664 ], [ -80.04742386, -0.57526243 ], [ -80.0474162, -0.5752701 ], [ -80.0473871, -0.57528959 ], [ -80.04735803, -0.57529539 ], [ -80.04735037, -0.57530306 ], [ -80.04732127, -0.57532254 ], [ -80.04728699, -0.57532938 ], [ -80.04725408, -0.57532938 ], [ -80.0472198, -0.57532253 ], [ -80.04721231, -0.57531751 ], [ -80.04721229, -0.57540373 ], [ -80.04721117, -0.57541087 ], [ -80.04721115, -0.5754181 ], [ -80.04720898, -0.57542476 ], [ -80.04720789, -0.57543168 ], [ -80.04720463, -0.57543813 ], [ -80.04720239, -0.575445 ], [ -80.04719828, -0.57545066 ], [ -80.04719512, -0.5754569 ], [ -80.04719004, -0.57546201 ], [ -80.0471858, -0.57546785 ], [ -80.04715289, -0.57550081 ], [ -80.04713018, -0.57551734 ], [ -80.04710352, -0.57552603 ], [ -80.04707549, -0.57552603 ], [ -80.04704883, -0.57551733 ], [ -80.04702613, -0.57550079 ], [ -80.04698661, -0.57546119 ], [ -80.04692915, -0.57546118 ], [ -80.04692253, -0.57546781 ], [ -80.04689343, -0.57548729 ], [ -80.04688319, -0.57548934 ], [ -80.04688318, -0.57553553 ], [ -80.0468801, -0.57555902 ], [ -80.04687106, -0.57558089 ], [ -80.04685669, -0.57559965 ], [ -80.04682378, -0.57563261 ], [ -80.04679468, -0.5756521 ], [ -80.04676039, -0.57565894 ], [ -80.04672748, -0.57565893 ], [ -80.0466932, -0.57565208 ], [ -80.04666411, -0.57563258 ], [ -80.04665749, -0.57562595 ], [ -80.04662876, -0.57562595 ], [ -80.04659448, -0.5756191 ], [ -80.04658218, -0.57561086 ], [ -80.04656051, -0.57563257 ], [ -80.04653141, -0.57565205 ], [ -80.04649712, -0.57565889 ], [ -80.04645183, -0.57565888 ], [ -80.04644323, -0.57567971 ], [ -80.04642886, -0.57569847 ], [ -80.04636303, -0.57576439 ], [ -80.04633012, -0.57579735 ], [ -80.04632298, -0.57580449 ], [ -80.0463206, -0.57582264 ], [ -80.04631156, -0.57584451 ], [ -80.0462972, -0.57586327 ], [ -80.04626428, -0.57589623 ], [ -80.04623518, -0.57591572 ], [ -80.0462009, -0.57592256 ], [ -80.04613508, -0.57592255 ], [ -80.04610217, -0.57591597 ], [ -80.04606926, -0.57592253 ], [ -80.04606039, -0.57592253 ], [ -80.04606038, -0.57599689 ], [ -80.0460573, -0.57602038 ], [ -80.04604826, -0.57604225 ], [ -80.04603389, -0.57606101 ], [ -80.04600098, -0.57609397 ], [ -80.04596806, -0.57612693 ], [ -80.04593896, -0.57614642 ], [ -80.04590468, -0.57615326 ], [ -80.04571141, -0.57615322 ], [ -80.04570479, -0.57615985 ], [ -80.04567569, -0.57617934 ], [ -80.0456414, -0.57618618 ], [ -80.04560849, -0.57618617 ], [ -80.04557421, -0.57617932 ], [ -80.04554511, -0.57615982 ], [ -80.0455385, -0.57615319 ], [ -80.04547686, -0.57615318 ], [ -80.04544258, -0.57614634 ], [ -80.04541348, -0.57612684 ], [ -80.04540583, -0.57611917 ], [ -80.04537677, -0.57611336 ], [ -80.04534767, -0.57609386 ], [ -80.04531477, -0.57606089 ], [ -80.04529815, -0.57603795 ], [ -80.04528941, -0.57601096 ], [ -80.04528942, -0.57598257 ], [ -80.04529816, -0.57595558 ], [ -80.04530386, -0.57594772 ], [ -80.04530042, -0.57594323 ], [ -80.0452914, -0.57592136 ], [ -80.04528832, -0.57589787 ], [ -80.04528832, -0.57586954 ], [ -80.04528189, -0.5758631 ], [ -80.04526753, -0.57584433 ], [ -80.0452585, -0.57582246 ], [ -80.04525543, -0.57579897 ], [ -80.04525543, -0.57577065 ], [ -80.045249, -0.5757642 ], [ -80.04523464, -0.57574544 ], [ -80.04522604, -0.57572461 ], [ -80.04518075, -0.5757246 ], [ -80.04514647, -0.57571775 ], [ -80.04511738, -0.57569825 ], [ -80.04508447, -0.57566528 ], [ -80.04507011, -0.57564652 ], [ -80.04506108, -0.57562464 ], [ -80.04505801, -0.57560115 ], [ -80.04505803, -0.5754693 ], [ -80.04506111, -0.57544581 ], [ -80.04507015, -0.57542394 ], [ -80.04507518, -0.57541736 ], [ -80.04505161, -0.57540156 ], [ -80.0450187, -0.57536859 ], [ -80.0449529, -0.57530265 ], [ -80.04493854, -0.57528389 ], [ -80.04492951, -0.57526201 ], [ -80.04492873, -0.57525606 ], [ -80.04491512, -0.57526968 ], [ -80.04488602, -0.57528917 ], [ -80.04485174, -0.57529601 ], [ -80.0447201, -0.57529599 ], [ -80.04468582, -0.57528914 ], [ -80.04465672, -0.57526964 ], [ -80.04459092, -0.5752037 ], [ -80.04457655, -0.57518493 ], [ -80.04456753, -0.57516306 ], [ -80.04456515, -0.57514491 ], [ -80.04455802, -0.57513777 ], [ -80.04452511, -0.5751048 ], [ -80.04445269, -0.57503223 ], [ -80.04442396, -0.57503222 ], [ -80.04438968, -0.57502537 ], [ -80.04436059, -0.57500587 ], [ -80.04435397, -0.57499925 ], [ -80.04422652, -0.57499922 ], [ -80.04419223, -0.57499238 ], [ -80.04416314, -0.57497288 ], [ -80.04413024, -0.57493991 ], [ -80.04412812, -0.57493714 ], [ -80.04412536, -0.57493991 ], [ -80.04409245, -0.57497287 ], [ -80.04402662, -0.57503878 ], [ -80.04399371, -0.57507174 ], [ -80.04396079, -0.5751047 ], [ -80.04393169, -0.57512419 ], [ -80.04390263, -0.57512998 ], [ -80.04389497, -0.57513765 ], [ -80.04386587, -0.57515714 ], [ -80.0438368, -0.57516294 ], [ -80.04382914, -0.57517061 ], [ -80.04380004, -0.57519009 ], [ -80.04377098, -0.57519589 ], [ -80.04376332, -0.57520356 ], [ -80.04373422, -0.57522305 ], [ -80.04370516, -0.57522884 ], [ -80.04369107, -0.57524295 ], [ -80.04369106, -0.57530424 ], [ -80.04369105, -0.57536554 ], [ -80.04369748, -0.57537198 ], [ -80.04371184, -0.57539074 ], [ -80.04372087, -0.57541262 ], [ -80.04372324, -0.57543077 ], [ -80.04373037, -0.57543791 ], [ -80.04374473, -0.57545668 ], [ -80.04375376, -0.57547856 ], [ -80.04375684, -0.57550204 ], [ -80.04375684, -0.57553501 ], [ -80.04375375, -0.57555849 ], [ -80.04374471, -0.57558036 ], [ -80.04373035, -0.57559913 ], [ -80.04372321, -0.57560627 ], [ -80.04372083, -0.57562441 ], [ -80.04371179, -0.57564629 ], [ -80.04369743, -0.57566505 ], [ -80.04369029, -0.57567219 ], [ -80.04368791, -0.57569034 ], [ -80.04367887, -0.57571221 ], [ -80.04366451, -0.57573097 ], [ -80.04364431, -0.57575119 ], [ -80.04364596, -0.57575334 ], [ -80.04365499, -0.57577522 ], [ -80.04365806, -0.5757987 ], [ -80.04365804, -0.57596352 ], [ -80.04365495, -0.57598701 ], [ -80.04364592, -0.57600888 ], [ -80.04363155, -0.57602764 ], [ -80.04359863, -0.5760606 ], [ -80.04356953, -0.57608009 ], [ -80.04354047, -0.57608589 ], [ -80.04352568, -0.5761007 ], [ -80.04352329, -0.57611884 ], [ -80.04351426, -0.57614072 ], [ -80.04349989, -0.57615948 ], [ -80.04340115, -0.57625835 ], [ -80.04336823, -0.57629131 ], [ -80.04333913, -0.5763108 ], [ -80.04330485, -0.57631764 ], [ -80.04324321, -0.57631763 ], [ -80.04323659, -0.57632426 ], [ -80.0432138, -0.57634083 ], [ -80.04318704, -0.5763495 ], [ -80.04315893, -0.57634943 ], [ -80.04313221, -0.57634061 ], [ -80.04310951, -0.57632391 ], [ -80.04309305, -0.57630097 ], [ -80.04308443, -0.57627403 ], [ -80.04308451, -0.57624573 ], [ -80.04309327, -0.57621884 ], [ -80.04310985, -0.57619599 ], [ -80.04314277, -0.57616303 ], [ -80.04317187, -0.57614354 ], [ -80.04320615, -0.5761367 ], [ -80.04326779, -0.57613671 ], [ -80.04327441, -0.57613008 ], [ -80.04334737, -0.57605702 ], [ -80.04334975, -0.57603888 ], [ -80.04335879, -0.57601701 ], [ -80.04337315, -0.57599824 ], [ -80.04343898, -0.57593233 ], [ -80.04346808, -0.57591284 ], [ -80.04347833, -0.5759108 ], [ -80.04347834, -0.57583627 ], [ -80.04347191, -0.57582983 ], [ -80.04345755, -0.57581106 ], [ -80.04344852, -0.57578919 ], [ -80.04344544, -0.5757657 ], [ -80.04344545, -0.57573274 ], [ -80.04344853, -0.57570925 ], [ -80.04345757, -0.57568738 ], [ -80.04347194, -0.57566862 ], [ -80.04350485, -0.57563566 ], [ -80.04351198, -0.57562852 ], [ -80.04351437, -0.57561037 ], [ -80.0435234, -0.5755885 ], [ -80.04353777, -0.57556974 ], [ -80.0435449, -0.57556259 ], [ -80.04354729, -0.57554445 ], [ -80.04355632, -0.57552258 ], [ -80.04355945, -0.57551849 ], [ -80.04355632, -0.5755144 ], [ -80.0435473, -0.57549253 ], [ -80.04354492, -0.57547438 ], [ -80.04353779, -0.57546724 ], [ -80.04352343, -0.57544847 ], [ -80.0435144, -0.57542659 ], [ -80.04351132, -0.57540311 ], [ -80.04351133, -0.57534182 ], [ -80.0435049, -0.57533537 ], [ -80.043472, -0.5753024 ], [ -80.04345764, -0.57528364 ], [ -80.04344861, -0.57526176 ], [ -80.04344623, -0.57524361 ], [ -80.0434062, -0.5752035 ], [ -80.04339184, -0.57518473 ], [ -80.04339082, -0.57518228 ], [ -80.04337329, -0.57517053 ], [ -80.04334039, -0.57513756 ], [ -80.04324168, -0.57503865 ], [ -80.04322732, -0.57501988 ], [ -80.04321829, -0.57499801 ], [ -80.04321591, -0.57497986 ], [ -80.04320878, -0.57497272 ], [ -80.04319442, -0.57495395 ], [ -80.04318539, -0.57493207 ], [ -80.04318301, -0.57491393 ], [ -80.04317588, -0.57490678 ], [ -80.04314298, -0.57487381 ], [ -80.04312862, -0.57485505 ], [ -80.04311959, -0.57483317 ], [ -80.04311651, -0.57480968 ], [ -80.04311652, -0.57474839 ], [ -80.04311009, -0.57474195 ], [ -80.04309573, -0.57472318 ], [ -80.0430867, -0.57470131 ], [ -80.04308363, -0.57467782 ], [ -80.04308364, -0.57461653 ], [ -80.0430443, -0.57457712 ], [ -80.04302994, -0.57455835 ], [ -80.04302091, -0.57453647 ], [ -80.04301854, -0.57451833 ], [ -80.0430114, -0.57451118 ], [ -80.04299704, -0.57449242 ], [ -80.04298802, -0.57447054 ], [ -80.04298564, -0.57445239 ], [ -80.04297851, -0.57444525 ], [ -80.04296415, -0.57442648 ], [ -80.04295512, -0.57440461 ], [ -80.04295204, -0.57438112 ], [ -80.04295204, -0.57435279 ], [ -80.04287981, -0.57428041 ], [ -80.0428469, -0.57424744 ], [ -80.04268239, -0.57408259 ], [ -80.04266803, -0.57406383 ], [ -80.042659, -0.57404195 ], [ -80.04265592, -0.57401846 ], [ -80.04265593, -0.57399014 ], [ -80.0426495, -0.57398369 ], [ -80.04263513, -0.57396493 ], [ -80.04262611, -0.57394305 ], [ -80.04262303, -0.57391957 ], [ -80.04262304, -0.57385828 ], [ -80.04261661, -0.57385183 ], [ -80.04260225, -0.57383307 ], [ -80.04259322, -0.57381119 ], [ -80.04259014, -0.5737877 ], [ -80.04259015, -0.57375938 ], [ -80.04258372, -0.57375293 ], [ -80.04256935, -0.57373417 ], [ -80.04256033, -0.57371229 ], [ -80.04255725, -0.57368881 ], [ -80.04255727, -0.57356159 ], [ -80.04255084, -0.57355514 ], [ -80.04253648, -0.57353638 ], [ -80.04252745, -0.5735145 ], [ -80.04252507, -0.57349635 ], [ -80.04251794, -0.57348921 ], [ -80.04250358, -0.57347044 ], [ -80.04249455, -0.57344857 ], [ -80.04249217, -0.57343042 ], [ -80.04248504, -0.57342328 ], [ -80.04247068, -0.57340451 ], [ -80.04246165, -0.57338263 ], [ -80.04245858, -0.57335915 ], [ -80.04245858, -0.57333082 ], [ -80.04245215, -0.57332438 ], [ -80.04243779, -0.57330561 ], [ -80.04242876, -0.57328373 ], [ -80.04242568, -0.57326025 ], [ -80.04242572, -0.57306246 ], [ -80.0424288, -0.57303898 ], [ -80.04243784, -0.5730171 ], [ -80.04245221, -0.57299834 ], [ -80.04246223, -0.5729883 ], [ -80.04246172, -0.57298706 ], [ -80.04245864, -0.57296358 ], [ -80.04245865, -0.57289765 ], [ -80.04246174, -0.57287416 ], [ -80.04247077, -0.57285229 ], [ -80.04248514, -0.57283353 ], [ -80.04249157, -0.57282709 ], [ -80.04249159, -0.57273283 ], [ -80.04249467, -0.57270935 ], [ -80.04249859, -0.57269987 ], [ -80.04249468, -0.57269039 ], [ -80.0424916, -0.5726669 ], [ -80.04249161, -0.57263394 ], [ -80.04249469, -0.57261045 ], [ -80.04250373, -0.57258858 ], [ -80.04251809, -0.57256982 ], [ -80.04252453, -0.57256338 ], [ -80.04252453, -0.57253505 ], [ -80.04252762, -0.57251157 ], [ -80.04253665, -0.57248969 ], [ -80.04255102, -0.57247093 ], [ -80.04255745, -0.57246449 ], [ -80.04255747, -0.57233727 ], [ -80.04256056, -0.57231379 ], [ -80.04256959, -0.57229191 ], [ -80.04258396, -0.57227315 ], [ -80.04258576, -0.57227135 ], [ -80.04258396, -0.57226954 ], [ -80.0425696, -0.57225078 ], [ -80.04256057, -0.5722289 ], [ -80.04255749, -0.57220541 ], [ -80.0425575, -0.57217245 ], [ -80.04256059, -0.57214897 ], [ -80.04256962, -0.57212709 ], [ -80.04258399, -0.57210833 ], [ -80.04259042, -0.57210189 ], [ -80.04259045, -0.57194171 ], [ -80.04259353, -0.57191822 ], [ -80.04260257, -0.57189635 ], [ -80.04261694, -0.57187759 ], [ -80.04262337, -0.57187115 ], [ -80.04262337, -0.57184282 ], [ -80.04262646, -0.57181933 ], [ -80.04263549, -0.57179746 ], [ -80.04263862, -0.57179338 ], [ -80.0426355, -0.57178929 ], [ -80.04262647, -0.57176741 ], [ -80.04262339, -0.57174393 ], [ -80.04262339, -0.57171096 ], [ -80.04262648, -0.57168748 ], [ -80.0426304, -0.571678 ], [ -80.04262648, -0.57166852 ], [ -80.04262341, -0.57164503 ], [ -80.04262341, -0.57161207 ], [ -80.0426265, -0.57158858 ], [ -80.04263553, -0.57156671 ], [ -80.0426499, -0.57154795 ], [ -80.04265633, -0.57154151 ], [ -80.04265636, -0.57138133 ], [ -80.04265944, -0.57135784 ], [ -80.04266848, -0.57133597 ], [ -80.04268285, -0.57131721 ], [ -80.04268998, -0.57131006 ], [ -80.04269236, -0.57129192 ], [ -80.0427014, -0.57127004 ], [ -80.04270453, -0.57126596 ], [ -80.0427014, -0.57126187 ], [ -80.04269237, -0.57124 ], [ -80.04268929, -0.57121651 ], [ -80.04268932, -0.57105169 ], [ -80.04269241, -0.5710282 ], [ -80.04270144, -0.57100633 ], [ -80.04271581, -0.57098757 ], [ -80.04272294, -0.57098043 ], [ -80.04272533, -0.57096228 ], [ -80.04273436, -0.57094041 ], [ -80.04274873, -0.57092165 ], [ -80.04278878, -0.57088154 ], [ -80.04279116, -0.5708634 ], [ -80.0428002, -0.57084153 ], [ -80.04281456, -0.57082276 ], [ -80.042821, -0.57081632 ], [ -80.042821, -0.570788 ], [ -80.04282409, -0.57076451 ], [ -80.04282811, -0.57075477 ], [ -80.04282212, -0.57073626 ], [ -80.04282213, -0.57070787 ], [ -80.04283087, -0.57068088 ], [ -80.0428475, -0.57065795 ], [ -80.04288041, -0.57062499 ], [ -80.04290951, -0.5706055 ], [ -80.0429438, -0.57059866 ], [ -80.04297671, -0.57059867 ], [ -80.04301099, -0.57060552 ], [ -80.04304009, -0.57062502 ], [ -80.0430467, -0.57063165 ], [ -80.04307125, -0.57063165 ], [ -80.04311078, -0.57059206 ], [ -80.04312081, -0.57058202 ], [ -80.0431203, -0.57058078 ], [ -80.04311722, -0.5705573 ], [ -80.04311722, -0.57052433 ], [ -80.04312031, -0.57050085 ], [ -80.04312934, -0.57047897 ], [ -80.04314371, -0.57046021 ], [ -80.04317663, -0.57042725 ], [ -80.04318665, -0.57041721 ], [ -80.04318614, -0.57041597 ], [ -80.04318306, -0.57039249 ], [ -80.04318309, -0.57019934 ], [ -80.04317666, -0.5701929 ], [ -80.0431623, -0.57017413 ], [ -80.04315328, -0.57015225 ], [ -80.0431509, -0.57013411 ], [ -80.04313715, -0.57012033 ], [ -80.04310842, -0.57012033 ], [ -80.04307414, -0.57011348 ], [ -80.04304505, -0.57009398 ], [ -80.04301214, -0.57006101 ], [ -80.04297924, -0.57002804 ], [ -80.04288053, -0.56992913 ], [ -80.04284763, -0.56989616 ], [ -80.04278182, -0.56983022 ], [ -80.04274892, -0.56979725 ], [ -80.04274151, -0.56978983 ], [ -80.04271871, -0.56978619 ], [ -80.04269367, -0.56977334 ], [ -80.04267379, -0.56975332 ], [ -80.04266103, -0.5697281 ], [ -80.04265664, -0.56970015 ], [ -80.04265665, -0.56963422 ], [ -80.04265973, -0.56961074 ], [ -80.04266877, -0.56958886 ], [ -80.04267041, -0.56958671 ], [ -80.04265023, -0.56956649 ], [ -80.04263587, -0.56954772 ], [ -80.04262684, -0.56952584 ], [ -80.04262376, -0.56950236 ], [ -80.04262378, -0.5693705 ], [ -80.04262818, -0.56934255 ], [ -80.04264095, -0.56931733 ], [ -80.04266083, -0.56929732 ], [ -80.04268589, -0.56928448 ], [ -80.04271366, -0.56928006 ], [ -80.04274142, -0.56928449 ], [ -80.04276647, -0.56929734 ], [ -80.04278635, -0.56931736 ], [ -80.04279911, -0.56934258 ], [ -80.0428035, -0.56937053 ], [ -80.04280348, -0.56946479 ], [ -80.04280991, -0.56947123 ], [ -80.04284282, -0.5695042 ], [ -80.04285718, -0.56952297 ], [ -80.04286621, -0.56954484 ], [ -80.04286928, -0.56956833 ], [ -80.04286928, -0.56960129 ], [ -80.04286619, -0.56962478 ], [ -80.04285716, -0.56964665 ], [ -80.04285551, -0.5696488 ], [ -80.0428757, -0.56966903 ], [ -80.0429086, -0.569702 ], [ -80.04297441, -0.56976793 ], [ -80.04300731, -0.5698009 ], [ -80.04310602, -0.56989981 ], [ -80.04313893, -0.56993278 ], [ -80.04314554, -0.56993941 ], [ -80.04317427, -0.56993942 ], [ -80.04320855, -0.56994627 ], [ -80.04323765, -0.56996576 ], [ -80.04330345, -0.5700317 ], [ -80.04331782, -0.57005047 ], [ -80.04332684, -0.57007235 ], [ -80.04332922, -0.57009049 ], [ -80.04333635, -0.57009764 ], [ -80.04335071, -0.5701164 ], [ -80.04335974, -0.57013828 ], [ -80.04336282, -0.57016177 ], [ -80.04336281, -0.57024426 ], [ -80.04337411, -0.5702295 ], [ -80.04338124, -0.57022236 ], [ -80.04338363, -0.57020421 ], [ -80.04339266, -0.57018234 ], [ -80.04340703, -0.57016358 ], [ -80.04341416, -0.57015644 ], [ -80.04341655, -0.57013829 ], [ -80.04342558, -0.57011642 ], [ -80.04343995, -0.57009765 ], [ -80.04347287, -0.5700647 ], [ -80.04350197, -0.57004521 ], [ -80.04353103, -0.57003941 ], [ -80.04353869, -0.57003174 ], [ -80.04356779, -0.57001225 ], [ -80.04359685, -0.57000646 ], [ -80.04363743, -0.56996583 ], [ -80.04366653, -0.56994634 ], [ -80.04369559, -0.56994055 ], [ -80.04370325, -0.56993288 ], [ -80.04373235, -0.56991339 ], [ -80.04376664, -0.56990655 ], [ -80.04379954, -0.56990656 ], [ -80.0438235, -0.56991134 ], [ -80.04383489, -0.56989994 ], [ -80.04384202, -0.56989279 ], [ -80.04384441, -0.56987465 ], [ -80.04385344, -0.56985277 ], [ -80.04385688, -0.56984829 ], [ -80.04385119, -0.56984043 ], [ -80.04384245, -0.56981344 ], [ -80.04384245, -0.56978504 ], [ -80.0438512, -0.56975805 ], [ -80.04386783, -0.56973512 ], [ -80.04390074, -0.56970216 ], [ -80.04393365, -0.5696692 ], [ -80.04396276, -0.56964971 ], [ -80.04399704, -0.56964288 ], [ -80.04405868, -0.56964289 ], [ -80.04419695, -0.56950442 ], [ -80.04421974, -0.56948785 ], [ -80.0442465, -0.56947918 ], [ -80.04427462, -0.56947925 ], [ -80.04430133, -0.56948807 ], [ -80.04432403, -0.56950476 ], [ -80.0443405, -0.56952771 ], [ -80.04434911, -0.56955465 ], [ -80.04434904, -0.56958295 ], [ -80.04434028, -0.56960984 ], [ -80.04432369, -0.56963269 ], [ -80.04415912, -0.56979749 ], [ -80.04413002, -0.56981698 ], [ -80.04409574, -0.56982381 ], [ -80.04405285, -0.56982381 ], [ -80.04405396, -0.56983224 ], [ -80.04405395, -0.5698652 ], [ -80.04405087, -0.56988869 ], [ -80.04404183, -0.56991056 ], [ -80.04402747, -0.56992932 ], [ -80.04402033, -0.56993647 ], [ -80.04401795, -0.56995461 ], [ -80.04400891, -0.56997648 ], [ -80.04399455, -0.56999525 ], [ -80.04396163, -0.57002821 ], [ -80.04392872, -0.57006116 ], [ -80.0438958, -0.57009412 ], [ -80.04387309, -0.57011066 ], [ -80.04384643, -0.57011934 ], [ -80.0438184, -0.57011934 ], [ -80.04379174, -0.57011064 ], [ -80.04378247, -0.57010389 ], [ -80.04376798, -0.57011359 ], [ -80.04373891, -0.57011939 ], [ -80.04369834, -0.57016002 ], [ -80.04366924, -0.57017951 ], [ -80.04364018, -0.5701853 ], [ -80.04363252, -0.57019297 ], [ -80.04360342, -0.57021246 ], [ -80.04359051, -0.57021503 ], [ -80.04359009, -0.57021825 ], [ -80.04358106, -0.57024013 ], [ -80.04356669, -0.57025889 ], [ -80.04355956, -0.57026603 ], [ -80.04355717, -0.57028418 ], [ -80.04354814, -0.57030605 ], [ -80.04353377, -0.57032481 ], [ -80.04352734, -0.57033125 ], [ -80.04352733, -0.57035958 ], [ -80.04352425, -0.57038306 ], [ -80.04351521, -0.57040494 ], [ -80.04350084, -0.5704237 ], [ -80.04346793, -0.57045666 ], [ -80.04343883, -0.57047615 ], [ -80.04340976, -0.57048194 ], [ -80.04340211, -0.57048961 ], [ -80.043373, -0.5705091 ], [ -80.04334394, -0.5705149 ], [ -80.04333628, -0.57052256 ], [ -80.0433157, -0.57054318 ], [ -80.04331999, -0.57054911 ], [ -80.04332873, -0.5705761 ], [ -80.04332872, -0.57060449 ], [ -80.04331998, -0.57063148 ], [ -80.04330335, -0.57065442 ], [ -80.04327044, -0.57068737 ], [ -80.04323752, -0.57072033 ], [ -80.04323109, -0.57072677 ], [ -80.04323109, -0.57075046 ], [ -80.04327042, -0.57078988 ], [ -80.04327704, -0.57079651 ], [ -80.0434374, -0.57079653 ], [ -80.04346517, -0.57080096 ], [ -80.04349021, -0.57081382 ], [ -80.04351009, -0.57083383 ], [ -80.04352285, -0.57085905 ], [ -80.04352724, -0.57088701 ], [ -80.04352284, -0.57091496 ], [ -80.04351007, -0.57094018 ], [ -80.04349019, -0.57096019 ], [ -80.04346514, -0.57097303 ], [ -80.04343737, -0.57097745 ], [ -80.04323992, -0.57097742 ], [ -80.04320563, -0.57097057 ], [ -80.04317654, -0.57095107 ], [ -80.04314364, -0.5709181 ], [ -80.04307783, -0.57085216 ], [ -80.04306347, -0.5708334 ], [ -80.04305487, -0.57081257 ], [ -80.04301195, -0.57081256 ], [ -80.04300714, -0.57081919 ], [ -80.04300071, -0.57082563 ], [ -80.04300071, -0.57085395 ], [ -80.04299762, -0.57087744 ], [ -80.04298859, -0.57089931 ], [ -80.04297422, -0.57091807 ], [ -80.04296709, -0.57092522 ], [ -80.0429647, -0.57094336 ], [ -80.04295567, -0.57096524 ], [ -80.0429413, -0.570984 ], [ -80.04290125, -0.5710241 ], [ -80.04289887, -0.57104224 ], [ -80.04288983, -0.57106412 ], [ -80.04287547, -0.57108288 ], [ -80.04286903, -0.57108932 ], [ -80.04286902, -0.57117894 ], [ -80.04287545, -0.57118538 ], [ -80.04288981, -0.57120415 ], [ -80.04289884, -0.57122602 ], [ -80.04290192, -0.57124951 ], [ -80.04290191, -0.57128247 ], [ -80.04289883, -0.57130596 ], [ -80.04288979, -0.57132783 ], [ -80.04287542, -0.57134659 ], [ -80.04286829, -0.57135374 ], [ -80.04286591, -0.57137188 ], [ -80.04285687, -0.57139375 ], [ -80.0428425, -0.57141252 ], [ -80.04283607, -0.57141896 ], [ -80.04283604, -0.57157914 ], [ -80.04283296, -0.57160263 ], [ -80.04282392, -0.5716245 ], [ -80.04282049, -0.57162899 ], [ -80.04282618, -0.57163684 ], [ -80.04283492, -0.57166384 ], [ -80.04283491, -0.57169223 ], [ -80.04282617, -0.57171922 ], [ -80.04282047, -0.57172708 ], [ -80.0428239, -0.57173156 ], [ -80.04283293, -0.57175344 ], [ -80.04283601, -0.57177693 ], [ -80.04283601, -0.57180989 ], [ -80.04283292, -0.57183338 ], [ -80.04282388, -0.57185525 ], [ -80.04280952, -0.57187401 ], [ -80.04280309, -0.57188045 ], [ -80.04280308, -0.57190878 ], [ -80.0428, -0.57193226 ], [ -80.04279096, -0.57195414 ], [ -80.04277659, -0.5719729 ], [ -80.04277016, -0.57197934 ], [ -80.04277013, -0.57213952 ], [ -80.04276705, -0.57216301 ], [ -80.04275801, -0.57218488 ], [ -80.04275488, -0.57218897 ], [ -80.04275801, -0.57219305 ], [ -80.04276704, -0.57221493 ], [ -80.04277012, -0.57223841 ], [ -80.04277011, -0.57230434 ], [ -80.04276702, -0.57232783 ], [ -80.04275798, -0.5723497 ], [ -80.04274362, -0.57236846 ], [ -80.04273719, -0.5723749 ], [ -80.04273716, -0.57250212 ], [ -80.04273408, -0.57252561 ], [ -80.04272504, -0.57254748 ], [ -80.04271068, -0.57256624 ], [ -80.04270424, -0.57257268 ], [ -80.04270424, -0.57260101 ], [ -80.04270115, -0.57262449 ], [ -80.04269212, -0.57264637 ], [ -80.04268868, -0.57265086 ], [ -80.04269437, -0.57265871 ], [ -80.04270311, -0.57268571 ], [ -80.04270311, -0.5727141 ], [ -80.04269436, -0.57274109 ], [ -80.04267773, -0.57276402 ], [ -80.0426713, -0.57277046 ], [ -80.04267129, -0.57286472 ], [ -80.0426682, -0.5728882 ], [ -80.04265917, -0.57291008 ], [ -80.0426448, -0.57292884 ], [ -80.042643, -0.57293064 ], [ -80.0426448, -0.57293245 ], [ -80.04266142, -0.57295539 ], [ -80.04267015, -0.57298238 ], [ -80.04267015, -0.57301077 ], [ -80.0426614, -0.57303776 ], [ -80.04264478, -0.5730607 ], [ -80.04260543, -0.57310009 ], [ -80.04260541, -0.57322268 ], [ -80.04261184, -0.57322912 ], [ -80.0426262, -0.57324789 ], [ -80.04263523, -0.57326976 ], [ -80.04263831, -0.57329325 ], [ -80.0426383, -0.57332157 ], [ -80.04264473, -0.57332802 ], [ -80.04265909, -0.57334678 ], [ -80.04266812, -0.57336866 ], [ -80.0426705, -0.57338681 ], [ -80.04267763, -0.57339395 ], [ -80.04269199, -0.57341272 ], [ -80.04270102, -0.57343459 ], [ -80.0427034, -0.57345274 ], [ -80.04271053, -0.57345989 ], [ -80.04272489, -0.57347865 ], [ -80.04273392, -0.57350053 ], [ -80.04273699, -0.57352401 ], [ -80.04273697, -0.57365123 ], [ -80.0427434, -0.57365768 ], [ -80.04275776, -0.57367644 ], [ -80.04276679, -0.57369832 ], [ -80.04276987, -0.57372181 ], [ -80.04276987, -0.57375013 ], [ -80.0427763, -0.57375657 ], [ -80.04279066, -0.57377534 ], [ -80.04279969, -0.57379722 ], [ -80.04280276, -0.5738207 ], [ -80.04280275, -0.57388199 ], [ -80.04280918, -0.57388844 ], [ -80.04282354, -0.5739072 ], [ -80.04283257, -0.57392908 ], [ -80.04283565, -0.57395257 ], [ -80.04283565, -0.57398089 ], [ -80.04297369, -0.57411921 ], [ -80.04300659, -0.57415218 ], [ -80.0431053, -0.57425109 ], [ -80.04311966, -0.57426986 ], [ -80.04312869, -0.57429174 ], [ -80.04313177, -0.57431522 ], [ -80.04313176, -0.57434355 ], [ -80.04313819, -0.57434999 ], [ -80.04315256, -0.57436876 ], [ -80.04316158, -0.57439064 ], [ -80.04316396, -0.57440878 ], [ -80.04317109, -0.57441593 ], [ -80.04318545, -0.57443469 ], [ -80.04319448, -0.57445657 ], [ -80.04319686, -0.57447472 ], [ -80.04323689, -0.57451483 ], [ -80.04325126, -0.5745336 ], [ -80.04326028, -0.57455547 ], [ -80.04326336, -0.57457896 ], [ -80.04326335, -0.57464025 ], [ -80.04326978, -0.57464669 ], [ -80.04328414, -0.57466546 ], [ -80.04329317, -0.57468734 ], [ -80.04329625, -0.57471082 ], [ -80.04329624, -0.57477211 ], [ -80.04330267, -0.57477856 ], [ -80.04333557, -0.57481152 ], [ -80.04334993, -0.57483029 ], [ -80.04335896, -0.57485217 ], [ -80.04336134, -0.57487031 ], [ -80.04336847, -0.57487746 ], [ -80.04338283, -0.57489623 ], [ -80.04339186, -0.5749181 ], [ -80.04339424, -0.57493625 ], [ -80.04344557, -0.57498769 ], [ -80.04344559, -0.57487567 ], [ -80.04344868, -0.57485218 ], [ -80.04345771, -0.57483031 ], [ -80.04347208, -0.57481155 ], [ -80.04350499, -0.57477859 ], [ -80.04351143, -0.57477215 ], [ -80.04351144, -0.57468099 ], [ -80.0434957, -0.57466513 ], [ -80.04348294, -0.57463991 ], [ -80.04347854, -0.57461196 ], [ -80.04347855, -0.57454603 ], [ -80.04348164, -0.57452255 ], [ -80.04349068, -0.57450067 ], [ -80.04350504, -0.57448191 ], [ -80.04350684, -0.57448011 ], [ -80.04350504, -0.5744783 ], [ -80.04349068, -0.57445954 ], [ -80.04348165, -0.57443766 ], [ -80.04347928, -0.57441951 ], [ -80.04347215, -0.57441237 ], [ -80.04345778, -0.5743936 ], [ -80.04344876, -0.57437173 ], [ -80.04344568, -0.57434824 ], [ -80.04344568, -0.57431528 ], [ -80.04345009, -0.57428732 ], [ -80.04346285, -0.57426211 ], [ -80.04348274, -0.5742421 ], [ -80.04350779, -0.57422925 ], [ -80.04353556, -0.57422483 ], [ -80.04356333, -0.57422926 ], [ -80.04358837, -0.57424212 ], [ -80.04360825, -0.57426213 ], [ -80.04362101, -0.57428735 ], [ -80.04362454, -0.5743098 ], [ -80.04363183, -0.57431711 ], [ -80.04364619, -0.57433588 ], [ -80.04365522, -0.57435775 ], [ -80.0436576, -0.5743759 ], [ -80.04366473, -0.57438305 ], [ -80.04369763, -0.57441601 ], [ -80.04371425, -0.57443895 ], [ -80.04372299, -0.57446595 ], [ -80.04372299, -0.57449434 ], [ -80.04371424, -0.57452133 ], [ -80.04369761, -0.57454426 ], [ -80.04367706, -0.57456484 ], [ -80.04368678, -0.57458404 ], [ -80.04369117, -0.574612 ], [ -80.04369114, -0.57480978 ], [ -80.04368805, -0.57483327 ], [ -80.04367902, -0.57485514 ], [ -80.04366465, -0.5748739 ], [ -80.04363174, -0.57490686 ], [ -80.0436253, -0.5749133 ], [ -80.04362529, -0.57496995 ], [ -80.04363172, -0.5749764 ], [ -80.04364608, -0.57499516 ], [ -80.04365511, -0.57501704 ], [ -80.04365819, -0.57504052 ], [ -80.04365819, -0.57505073 ], [ -80.04366184, -0.57505 ], [ -80.04366949, -0.57504233 ], [ -80.04367514, -0.57503823 ], [ -80.04368006, -0.57503327 ], [ -80.04368646, -0.57502999 ], [ -80.04369228, -0.57502576 ], [ -80.04369891, -0.57502361 ], [ -80.04370511, -0.57502043 ], [ -80.04371221, -0.5750193 ], [ -80.04371904, -0.57501708 ], [ -80.043726, -0.5750171 ], [ -80.04372791, -0.5750168 ], [ -80.04373532, -0.57500938 ], [ -80.04376442, -0.57498989 ], [ -80.04379348, -0.57498409 ], [ -80.04380114, -0.57497642 ], [ -80.04383024, -0.57495694 ], [ -80.0438593, -0.57495114 ], [ -80.04386696, -0.57494347 ], [ -80.04389988, -0.57491051 ], [ -80.04396571, -0.5748446 ], [ -80.04399862, -0.57481164 ], [ -80.04403154, -0.57477868 ], [ -80.04406064, -0.57475919 ], [ -80.04409492, -0.57475235 ], [ -80.04419365, -0.57475237 ], [ -80.04422142, -0.5747568 ], [ -80.04424646, -0.57476965 ], [ -80.04426634, -0.57478967 ], [ -80.0442791, -0.57481489 ], [ -80.04427964, -0.57481831 ], [ -80.04438845, -0.57481833 ], [ -80.04439353, -0.5748117 ], [ -80.04440066, -0.57480456 ], [ -80.04440304, -0.57478642 ], [ -80.04441208, -0.57476454 ], [ -80.04442645, -0.57474578 ], [ -80.04452519, -0.5746469 ], [ -80.04455429, -0.57462742 ], [ -80.04458336, -0.57462162 ], [ -80.04459101, -0.57461395 ], [ -80.04462393, -0.57458099 ], [ -80.04465303, -0.5745615 ], [ -80.04466593, -0.57455893 ], [ -80.04466635, -0.57455571 ], [ -80.04467539, -0.57453384 ], [ -80.04468976, -0.57451507 ], [ -80.04482141, -0.57438324 ], [ -80.04482855, -0.5743761 ], [ -80.04483093, -0.57435795 ], [ -80.04483997, -0.57433608 ], [ -80.04485433, -0.57431732 ], [ -80.04486077, -0.57431088 ], [ -80.04486077, -0.57428255 ], [ -80.04486386, -0.57425906 ], [ -80.04487289, -0.57423719 ], [ -80.04488726, -0.57421843 ], [ -80.04492198, -0.57418367 ], [ -80.04492017, -0.57418186 ], [ -80.04490581, -0.5741631 ], [ -80.04489678, -0.57414122 ], [ -80.04489636, -0.574138 ], [ -80.04488346, -0.57413542 ], [ -80.04485437, -0.57411592 ], [ -80.04482146, -0.57408295 ], [ -80.04478856, -0.57404998 ], [ -80.0447742, -0.57403122 ], [ -80.04476517, -0.57400934 ], [ -80.04476209, -0.57398585 ], [ -80.0447621, -0.57395289 ], [ -80.04476518, -0.57392941 ], [ -80.04477422, -0.57390753 ], [ -80.04478859, -0.57388877 ], [ -80.0448215, -0.57385581 ], [ -80.0448506, -0.57383632 ], [ -80.04487967, -0.57383053 ], [ -80.04488733, -0.57382286 ], [ -80.04492024, -0.5737899 ], [ -80.04494934, -0.57377041 ], [ -80.04498363, -0.57376357 ], [ -80.04501653, -0.57376358 ], [ -80.04502831, -0.57376593 ], [ -80.04502848, -0.57376463 ], [ -80.04503752, -0.57374276 ], [ -80.04505189, -0.57372399 ], [ -80.0450848, -0.57369103 ], [ -80.04509123, -0.57368459 ], [ -80.04509126, -0.57352441 ], [ -80.04509434, -0.57350093 ], [ -80.04510338, -0.57347905 ], [ -80.04511775, -0.57346029 ], [ -80.04512418, -0.57345385 ], [ -80.04512418, -0.57342552 ], [ -80.04512727, -0.57340204 ], [ -80.04513631, -0.57338016 ], [ -80.04515067, -0.5733614 ], [ -80.0451571, -0.57335496 ], [ -80.04515711, -0.57333127 ], [ -80.04515068, -0.57332483 ], [ -80.04513632, -0.57330606 ], [ -80.04512729, -0.57328419 ], [ -80.04512491, -0.57326604 ], [ -80.04511778, -0.5732589 ], [ -80.04510342, -0.57324013 ], [ -80.04509439, -0.57321825 ], [ -80.04509131, -0.57319477 ], [ -80.04509134, -0.57302995 ], [ -80.04509443, -0.57300646 ], [ -80.04510346, -0.57298459 ], [ -80.04511783, -0.57296583 ], [ -80.04512426, -0.57295939 ], [ -80.04512427, -0.57289809 ], [ -80.04512736, -0.57287461 ], [ -80.04513639, -0.57285274 ], [ -80.04515076, -0.57283397 ], [ -80.04515719, -0.57282753 ], [ -80.0451572, -0.57279921 ], [ -80.04516028, -0.57277572 ], [ -80.04516932, -0.57275385 ], [ -80.04518369, -0.57273509 ], [ -80.0452166, -0.57270213 ], [ -80.04524951, -0.57266917 ], [ -80.04531534, -0.57260325 ], [ -80.04532264, -0.57259594 ], [ -80.04532618, -0.5725735 ], [ -80.04533894, -0.57254828 ], [ -80.04535883, -0.57252827 ], [ -80.04538388, -0.57251543 ], [ -80.04541165, -0.572511 ], [ -80.04543643, -0.57251496 ], [ -80.04547991, -0.57247142 ], [ -80.04550901, -0.57245193 ], [ -80.04553807, -0.57244614 ], [ -80.04554573, -0.57243847 ], [ -80.04557483, -0.57241898 ], [ -80.0456039, -0.57241319 ], [ -80.04561156, -0.57240552 ], [ -80.04564066, -0.57238603 ], [ -80.04567494, -0.57237919 ], [ -80.04573658, -0.5723792 ], [ -80.0457432, -0.57237257 ], [ -80.0457723, -0.57235309 ], [ -80.04580658, -0.57234625 ], [ -80.04581896, -0.57234625 ], [ -80.04582757, -0.57232542 ], [ -80.04584193, -0.57230666 ], [ -80.04584907, -0.57229952 ], [ -80.04585145, -0.57228137 ], [ -80.04586049, -0.5722595 ], [ -80.04586213, -0.57225735 ], [ -80.04584195, -0.57223713 ], [ -80.04582758, -0.57221836 ], [ -80.04581856, -0.57219648 ], [ -80.04581548, -0.572173 ], [ -80.04581549, -0.57210707 ], [ -80.04581857, -0.57208358 ], [ -80.04582761, -0.57206171 ], [ -80.04584198, -0.57204295 ], [ -80.04587489, -0.57200999 ], [ -80.04588132, -0.57200355 ], [ -80.04588133, -0.57194226 ], [ -80.04588442, -0.57191877 ], [ -80.04588601, -0.57191493 ], [ -80.04587491, -0.57190749 ], [ -80.0458091, -0.57184155 ], [ -80.04579474, -0.57182278 ], [ -80.04578571, -0.57180091 ], [ -80.04578263, -0.57177742 ], [ -80.04578264, -0.57174909 ], [ -80.04577621, -0.57174265 ], [ -80.04576185, -0.57172388 ], [ -80.04575282, -0.57170201 ], [ -80.04575044, -0.57168386 ], [ -80.04573192, -0.57166531 ], [ -80.04570797, -0.57167008 ], [ -80.04551051, -0.57167005 ], [ -80.04547623, -0.5716632 ], [ -80.04544714, -0.5716437 ], [ -80.04544052, -0.57163707 ], [ -80.04531307, -0.57163705 ], [ -80.04527878, -0.5716302 ], [ -80.04524969, -0.57161071 ], [ -80.04524307, -0.57160408 ], [ -80.04518144, -0.57160407 ], [ -80.04514715, -0.57159722 ], [ -80.04511806, -0.57157772 ], [ -80.0451104, -0.57157005 ], [ -80.04508134, -0.57156424 ], [ -80.04505225, -0.57154474 ], [ -80.04497982, -0.57147217 ], [ -80.04488528, -0.57147216 ], [ -80.04485751, -0.57146773 ], [ -80.04483246, -0.57145487 ], [ -80.04481259, -0.57143486 ], [ -80.04479983, -0.57140964 ], [ -80.04479543, -0.57138168 ], [ -80.04479984, -0.57135373 ], [ -80.0448126, -0.57132852 ], [ -80.04483249, -0.57130851 ], [ -80.04485754, -0.57129566 ], [ -80.04488531, -0.57129124 ], [ -80.04501694, -0.57129126 ], [ -80.04505123, -0.57129811 ], [ -80.04508032, -0.57131761 ], [ -80.04515378, -0.57139122 ], [ -80.04518285, -0.57139702 ], [ -80.04521194, -0.57141652 ], [ -80.04521856, -0.57142315 ], [ -80.04528019, -0.57142316 ], [ -80.04531448, -0.57143001 ], [ -80.04534357, -0.57144951 ], [ -80.04535019, -0.57145614 ], [ -80.04547764, -0.57145616 ], [ -80.04551192, -0.57146301 ], [ -80.04554102, -0.57148251 ], [ -80.04554763, -0.57148913 ], [ -80.04562861, -0.57148915 ], [ -80.04562122, -0.57147124 ], [ -80.04561884, -0.57145309 ], [ -80.04561171, -0.57144594 ], [ -80.04559735, -0.57142718 ], [ -80.04558832, -0.5714053 ], [ -80.04558525, -0.57138182 ], [ -80.04558528, -0.57115107 ], [ -80.04558837, -0.57112758 ], [ -80.04559741, -0.57110571 ], [ -80.04561177, -0.57108695 ], [ -80.04564469, -0.57105399 ], [ -80.04565112, -0.57104755 ], [ -80.04565113, -0.57095329 ], [ -80.04565554, -0.57092534 ], [ -80.04566831, -0.57090012 ], [ -80.04568819, -0.57088011 ], [ -80.04571324, -0.57086727 ], [ -80.04574101, -0.57086285 ], [ -80.04576878, -0.57086728 ], [ -80.04579382, -0.57088013 ], [ -80.0458137, -0.57090015 ], [ -80.04582646, -0.57092537 ], [ -80.04583085, -0.57095332 ], [ -80.04583083, -0.57108518 ], [ -80.04582775, -0.57110866 ], [ -80.04581871, -0.57113054 ], [ -80.04580434, -0.5711493 ], [ -80.04577143, -0.57118226 ], [ -80.045765, -0.5711887 ], [ -80.04576497, -0.57134424 ], [ -80.0457714, -0.57135069 ], [ -80.04578576, -0.57136945 ], [ -80.04579479, -0.57139133 ], [ -80.04579717, -0.57140948 ], [ -80.0458043, -0.57141662 ], [ -80.04581866, -0.57143539 ], [ -80.04582769, -0.57145726 ], [ -80.04583007, -0.57147541 ], [ -80.0458372, -0.57148255 ], [ -80.04585156, -0.57150132 ], [ -80.04586059, -0.5715232 ], [ -80.04586297, -0.57154134 ], [ -80.045903, -0.57158146 ], [ -80.04591736, -0.57160023 ], [ -80.04592639, -0.5716221 ], [ -80.04592877, -0.57164025 ], [ -80.0459359, -0.57164739 ], [ -80.04595026, -0.57166616 ], [ -80.04595929, -0.57168804 ], [ -80.04596236, -0.57171152 ], [ -80.04596236, -0.57173985 ], [ -80.04597645, -0.57175396 ], [ -80.04600551, -0.57175977 ], [ -80.0460346, -0.57177927 ], [ -80.04606751, -0.57181224 ], [ -80.04608187, -0.571831 ], [ -80.0460909, -0.57185288 ], [ -80.04609397, -0.57187636 ], [ -80.04609397, -0.57189666 ], [ -80.04610146, -0.57189164 ], [ -80.04613053, -0.57188585 ], [ -80.04617823, -0.57183808 ], [ -80.04618062, -0.57181993 ], [ -80.04618965, -0.57179806 ], [ -80.04620402, -0.57177929 ], [ -80.04621115, -0.57177215 ], [ -80.04621354, -0.57175401 ], [ -80.04622257, -0.57173213 ], [ -80.04623694, -0.57171337 ], [ -80.04626985, -0.57168041 ], [ -80.04627988, -0.57167037 ], [ -80.04627937, -0.57166913 ], [ -80.04627629, -0.57164565 ], [ -80.0462763, -0.57157972 ], [ -80.04627939, -0.57155623 ], [ -80.04628842, -0.57153436 ], [ -80.04630279, -0.5715156 ], [ -80.0463357, -0.57148264 ], [ -80.04634284, -0.5714755 ], [ -80.04634522, -0.57145735 ], [ -80.04635426, -0.57143548 ], [ -80.04636862, -0.57141672 ], [ -80.04644088, -0.57134436 ], [ -80.04644089, -0.57128307 ], [ -80.0464453, -0.57125511 ], [ -80.04645806, -0.5712299 ], [ -80.04647795, -0.57120989 ], [ -80.046503, -0.57119704 ], [ -80.04653077, -0.57119262 ], [ -80.04655854, -0.57119705 ], [ -80.04658358, -0.57120991 ], [ -80.04660346, -0.57122992 ], [ -80.04661622, -0.57125514 ], [ -80.04662061, -0.5712831 ], [ -80.0466206, -0.57138199 ], [ -80.04661751, -0.57140547 ], [ -80.04660848, -0.57142735 ], [ -80.04659411, -0.57144611 ], [ -80.04658389, -0.57145634 ], [ -80.04659236, -0.57145634 ], [ -80.04659898, -0.57144972 ], [ -80.04663903, -0.57140962 ], [ -80.04664141, -0.57139147 ], [ -80.04665045, -0.5713696 ], [ -80.04666481, -0.57135084 ], [ -80.04667195, -0.57134369 ], [ -80.04667433, -0.57132555 ], [ -80.04668337, -0.57130367 ], [ -80.04669773, -0.57128491 ], [ -80.04673065, -0.57125195 ], [ -80.04676356, -0.571219 ], [ -80.04679266, -0.57119951 ], [ -80.04682173, -0.57119371 ], [ -80.04683652, -0.5711789 ], [ -80.0468389, -0.57116075 ], [ -80.04684794, -0.57113888 ], [ -80.0468623, -0.57112012 ], [ -80.04689522, -0.57108716 ], [ -80.04692813, -0.5710542 ], [ -80.04696105, -0.57102124 ], [ -80.04700039, -0.57098184 ], [ -80.0470004, -0.57092055 ], [ -80.04700481, -0.5708926 ], [ -80.04701757, -0.57086738 ], [ -80.04703746, -0.57084737 ], [ -80.04706251, -0.57083453 ], [ -80.04709028, -0.57083011 ], [ -80.04711805, -0.57083454 ], [ -80.04714309, -0.57084739 ], [ -80.04716297, -0.57086741 ], [ -80.04717573, -0.57089263 ], [ -80.04718012, -0.57092058 ], [ -80.04718011, -0.57101948 ], [ -80.04717702, -0.57104296 ], [ -80.04716799, -0.57106483 ], [ -80.04715362, -0.5710836 ], [ -80.04708779, -0.57114951 ], [ -80.04705488, -0.57118247 ], [ -80.04702196, -0.57121543 ], [ -80.04701483, -0.57122257 ], [ -80.04701244, -0.57124072 ], [ -80.04700341, -0.57126259 ], [ -80.04698904, -0.57128135 ], [ -80.04692321, -0.57134727 ], [ -80.04689411, -0.57136676 ], [ -80.04686505, -0.57137256 ], [ -80.04685739, -0.57138022 ], [ -80.04685026, -0.57138737 ], [ -80.04684787, -0.57140551 ], [ -80.04683884, -0.57142739 ], [ -80.04682447, -0.57144615 ], [ -80.04681734, -0.57145329 ], [ -80.04681495, -0.57147144 ], [ -80.04680592, -0.57149331 ], [ -80.04679155, -0.57151207 ], [ -80.04672572, -0.57157799 ], [ -80.04669281, -0.57161095 ], [ -80.04666371, -0.57163043 ], [ -80.04662942, -0.57163727 ], [ -80.04661704, -0.57163727 ], [ -80.04660844, -0.5716581 ], [ -80.04659407, -0.57167686 ], [ -80.04652824, -0.57174278 ], [ -80.04649914, -0.57176226 ], [ -80.04646486, -0.5717691 ], [ -80.04643613, -0.5717691 ], [ -80.04639659, -0.57180868 ], [ -80.04638946, -0.57181583 ], [ -80.04638708, -0.57183397 ], [ -80.04637804, -0.57185584 ], [ -80.04636367, -0.57187461 ], [ -80.04635654, -0.57188175 ], [ -80.04635416, -0.57189989 ], [ -80.04634512, -0.57192177 ], [ -80.04633076, -0.57194053 ], [ -80.04624304, -0.57202836 ], [ -80.04626492, -0.57204302 ], [ -80.04630444, -0.57208262 ], [ -80.04636608, -0.57208263 ], [ -80.04639384, -0.57208706 ], [ -80.04641889, -0.57209991 ], [ -80.04643877, -0.57211993 ], [ -80.04645153, -0.57214515 ], [ -80.04645592, -0.5721731 ], [ -80.04645152, -0.57220106 ], [ -80.04643875, -0.57222627 ], [ -80.04641887, -0.57224628 ], [ -80.04639382, -0.57225913 ], [ -80.04636605, -0.57226355 ], [ -80.04626732, -0.57226353 ], [ -80.04623304, -0.57225668 ], [ -80.04620394, -0.57223719 ], [ -80.04618227, -0.57221547 ], [ -80.04616998, -0.57222371 ], [ -80.04613569, -0.57223055 ], [ -80.04610696, -0.57223054 ], [ -80.04610034, -0.57223717 ], [ -80.04610034, -0.57223717 ], [ -80.04610034, -0.57223717 ], [ -80.04606743, -0.57227013 ], [ -80.0460603, -0.57227727 ], [ -80.04605791, -0.57229542 ], [ -80.04604888, -0.57231729 ], [ -80.04603451, -0.57233605 ], [ -80.04602738, -0.57234319 ], [ -80.04602499, -0.57236134 ], [ -80.04601596, -0.57238321 ], [ -80.04600159, -0.57240197 ], [ -80.04599446, -0.57240912 ], [ -80.04599207, -0.57242726 ], [ -80.04598304, -0.57244913 ], [ -80.04596867, -0.5724679 ], [ -80.04593576, -0.57250086 ], [ -80.04590666, -0.57252034 ], [ -80.04587237, -0.57252718 ], [ -80.04584364, -0.57252718 ], [ -80.04583702, -0.5725338 ], [ -80.04580792, -0.57255329 ], [ -80.04577364, -0.57256013 ], [ -80.045712, -0.57256012 ], [ -80.04570538, -0.57256675 ], [ -80.04567628, -0.57258623 ], [ -80.04564722, -0.57259203 ], [ -80.04563956, -0.5725997 ], [ -80.04561046, -0.57261919 ], [ -80.0455814, -0.57262498 ], [ -80.04550791, -0.57269857 ], [ -80.04547881, -0.57271806 ], [ -80.04544974, -0.57272385 ], [ -80.04544208, -0.57273152 ], [ -80.04537626, -0.57279744 ], [ -80.04534334, -0.5728304 ], [ -80.04533691, -0.57283684 ], [ -80.0453369, -0.57286517 ], [ -80.04533382, -0.57288865 ], [ -80.04532478, -0.57291052 ], [ -80.04531042, -0.57292929 ], [ -80.04530398, -0.57293573 ], [ -80.04530397, -0.57299702 ], [ -80.04530089, -0.5730205 ], [ -80.04529185, -0.57304238 ], [ -80.04527749, -0.57306114 ], [ -80.04527105, -0.57306758 ], [ -80.04527104, -0.5731572 ], [ -80.04527747, -0.57316364 ], [ -80.04529183, -0.57318241 ], [ -80.04530086, -0.57320428 ], [ -80.04530324, -0.57322243 ], [ -80.04531037, -0.57322957 ], [ -80.04532473, -0.57324834 ], [ -80.04533376, -0.57327022 ], [ -80.04533683, -0.5732937 ], [ -80.04533682, -0.57339259 ], [ -80.04533373, -0.57341608 ], [ -80.0453247, -0.57343795 ], [ -80.04531033, -0.57345671 ], [ -80.0453039, -0.57346316 ], [ -80.04530389, -0.57349148 ], [ -80.04530081, -0.57351497 ], [ -80.04529177, -0.57353684 ], [ -80.0452774, -0.5735556 ], [ -80.04527097, -0.57356204 ], [ -80.04527095, -0.57372223 ], [ -80.04526786, -0.57374571 ], [ -80.04525882, -0.57376758 ], [ -80.04524446, -0.57378635 ], [ -80.04521154, -0.5738193 ], [ -80.04520511, -0.57382575 ], [ -80.04520511, -0.57385407 ], [ -80.04520202, -0.57387756 ], [ -80.04519298, -0.57389943 ], [ -80.04517862, -0.57391819 ], [ -80.0451457, -0.57395115 ], [ -80.0451166, -0.57397064 ], [ -80.04508232, -0.57397748 ], [ -80.04504941, -0.57397747 ], [ -80.04501512, -0.57397062 ], [ -80.04500283, -0.57396238 ], [ -80.04499218, -0.57397304 ], [ -80.04501406, -0.5739877 ], [ -80.04504696, -0.57402067 ], [ -80.04506133, -0.57403944 ], [ -80.04507035, -0.57406131 ], [ -80.04507273, -0.57407946 ], [ -80.04507986, -0.5740866 ], [ -80.04509422, -0.57410537 ], [ -80.04510325, -0.57412725 ], [ -80.04510633, -0.57415073 ], [ -80.04510632, -0.57421666 ], [ -80.04510323, -0.57424015 ], [ -80.0450942, -0.57426202 ], [ -80.04507983, -0.57428078 ], [ -80.04504048, -0.57432018 ], [ -80.04504048, -0.57434851 ], [ -80.04503739, -0.57437199 ], [ -80.04502836, -0.57439387 ], [ -80.04501399, -0.57441263 ], [ -80.04500686, -0.57441977 ], [ -80.04500447, -0.57443792 ], [ -80.04499544, -0.57445979 ], [ -80.04498107, -0.57447855 ], [ -80.04494816, -0.57451151 ], [ -80.04484228, -0.57461753 ], [ -80.0448399, -0.57463567 ], [ -80.04483086, -0.57465755 ], [ -80.04481649, -0.57467631 ], [ -80.04478358, -0.57470927 ], [ -80.0447683, -0.5747195 ], [ -80.04481892, -0.57471951 ], [ -80.04485321, -0.57472636 ], [ -80.0448823, -0.57474586 ], [ -80.04494811, -0.5748118 ], [ -80.04498101, -0.57484477 ], [ -80.04498763, -0.5748514 ], [ -80.04511508, -0.57485142 ], [ -80.04514936, -0.57485827 ], [ -80.04517846, -0.57487776 ], [ -80.04518507, -0.57488439 ], [ -80.0452138, -0.5748844 ], [ -80.04524808, -0.57489125 ], [ -80.04527718, -0.57491074 ], [ -80.04527961, -0.57491319 ], [ -80.04528205, -0.57491075 ], [ -80.04531115, -0.57489126 ], [ -80.04534544, -0.57488442 ], [ -80.04537835, -0.57488443 ], [ -80.04541263, -0.57489127 ], [ -80.04544172, -0.57491077 ], [ -80.04551519, -0.57498438 ], [ -80.04554425, -0.57499019 ], [ -80.04557334, -0.57500969 ], [ -80.04560625, -0.57504266 ], [ -80.04567205, -0.5751086 ], [ -80.04568641, -0.57512736 ], [ -80.04569544, -0.57514924 ], [ -80.04569782, -0.57516739 ], [ -80.04570495, -0.57517453 ], [ -80.04577076, -0.57524047 ], [ -80.04577737, -0.5752471 ], [ -80.04583483, -0.57524711 ], [ -80.04584145, -0.57524048 ], [ -80.04587055, -0.57522099 ], [ -80.04590483, -0.57521416 ], [ -80.04600098, -0.57521417 ], [ -80.04601656, -0.57519849 ], [ -80.04604161, -0.57518564 ], [ -80.04606938, -0.57518122 ], [ -80.0464272, -0.57518128 ], [ -80.04643382, -0.57517465 ], [ -80.04646292, -0.57515517 ], [ -80.0464972, -0.57514833 ], [ -80.0465754, -0.57514834 ], [ -80.04658401, -0.57512751 ], [ -80.04659837, -0.57510875 ], [ -80.04663842, -0.57506865 ], [ -80.04664081, -0.57505051 ], [ -80.04664984, -0.57502863 ], [ -80.04666421, -0.57500987 ], [ -80.04676938, -0.57490455 ], [ -80.04676942, -0.57471141 ], [ -80.04677382, -0.57468345 ], [ -80.04678659, -0.57465824 ], [ -80.04680647, -0.57463823 ], [ -80.04683152, -0.57462538 ], [ -80.04685929, -0.57462096 ], [ -80.04688706, -0.57462539 ], [ -80.04691211, -0.57463825 ], [ -80.04693198, -0.57465826 ], [ -80.04694474, -0.57468348 ], [ -80.04694913, -0.57471144 ], [ -80.0469491, -0.57494219 ], [ -80.04694601, -0.57496567 ], [ -80.04693698, -0.57498754 ], [ -80.04692261, -0.57500631 ], [ -80.04681673, -0.57511232 ], [ -80.04681435, -0.57513047 ], [ -80.04680531, -0.57515234 ], [ -80.04679095, -0.57517111 ], [ -80.0467516, -0.57521051 ], [ -80.04675159, -0.57523883 ], [ -80.04674719, -0.57526678 ], [ -80.04673442, -0.575292 ], [ -80.04671454, -0.57531201 ], [ -80.04668949, -0.57532485 ], [ -80.04666172, -0.57532928 ], [ -80.04653426, -0.57532926 ], [ -80.04652765, -0.57533588 ], [ -80.04649855, -0.57535537 ], [ -80.04646426, -0.57536221 ], [ -80.04613776, -0.57536215 ], [ -80.04612217, -0.57537784 ], [ -80.04609712, -0.57539068 ], [ -80.04606935, -0.57539511 ], [ -80.04594189, -0.57539508 ], [ -80.04593528, -0.57540171 ], [ -80.04590617, -0.5754212 ], [ -80.04587189, -0.57542804 ], [ -80.04574025, -0.57542801 ], [ -80.04570597, -0.57542117 ], [ -80.04567688, -0.57540167 ], [ -80.04564397, -0.5753687 ], [ -80.04557817, -0.57530276 ], [ -80.04554526, -0.57526979 ], [ -80.0455309, -0.57525102 ], [ -80.04552187, -0.57522915 ], [ -80.0455195, -0.575211 ], [ -80.04547946, -0.57517088 ], [ -80.04547181, -0.57516321 ], [ -80.04544274, -0.57515741 ], [ -80.04541365, -0.57513791 ], [ -80.04537763, -0.57510182 ], [ -80.04536038, -0.57511736 ], [ -80.04533261, -0.57512897 ], [ -80.04530259, -0.57513071 ], [ -80.04527367, -0.57512238 ], [ -80.04524911, -0.57510492 ], [ -80.04524145, -0.57509725 ], [ -80.04521239, -0.57509144 ], [ -80.0451833, -0.57507194 ], [ -80.04517668, -0.57506531 ], [ -80.04514795, -0.57506531 ], [ -80.04511367, -0.57505846 ], [ -80.04508458, -0.57503896 ], [ -80.04507796, -0.57503233 ], [ -80.04506949, -0.57503233 ], [ -80.0450797, -0.57504257 ], [ -80.04511261, -0.57507554 ], [ -80.04512697, -0.5750943 ], [ -80.045136, -0.57511618 ], [ -80.04513907, -0.57513967 ], [ -80.04513907, -0.57517263 ], [ -80.04513598, -0.57519612 ], [ -80.04512695, -0.57521799 ], [ -80.0451253, -0.57522014 ], [ -80.04514549, -0.57524037 ], [ -80.04515314, -0.57524804 ], [ -80.04518221, -0.57525384 ], [ -80.0452113, -0.57527334 ], [ -80.0452442, -0.57530631 ], [ -80.04525857, -0.57532508 ], [ -80.04526759, -0.57534695 ], [ -80.04527067, -0.57537044 ], [ -80.04527066, -0.57543637 ], [ -80.04526758, -0.57545985 ], [ -80.04525854, -0.57548173 ], [ -80.04524417, -0.57550049 ], [ -80.04523774, -0.57550693 ], [ -80.04523773, -0.57554369 ], [ -80.04527951, -0.57554369 ], [ -80.04531379, -0.57555054 ], [ -80.04534289, -0.57557004 ], [ -80.04537579, -0.57560301 ], [ -80.04539015, -0.57562178 ], [ -80.04539918, -0.57564365 ], [ -80.04540156, -0.5756618 ], [ -80.04540869, -0.57566895 ], [ -80.04542305, -0.57568771 ], [ -80.04543208, -0.57570959 ], [ -80.04543516, -0.57573307 ], [ -80.04543515, -0.5757614 ], [ -80.04544158, -0.57576784 ], [ -80.04545594, -0.57578661 ], [ -80.04546497, -0.57580849 ], [ -80.04546805, -0.57583197 ], [ -80.04546804, -0.5758603 ], [ -80.04547447, -0.57586674 ], [ -80.04548883, -0.57588551 ], [ -80.04549786, -0.57590738 ], [ -80.04550094, -0.57593087 ], [ -80.04550094, -0.57596133 ], [ -80.04550737, -0.57596564 ], [ -80.04551398, -0.57597227 ], [ -80.04557562, -0.57597228 ], [ -80.0456099, -0.57597913 ], [ -80.04562498, -0.57598923 ], [ -80.04564006, -0.57597913 ], [ -80.04567435, -0.5759723 ], [ -80.04586762, -0.57597233 ], [ -80.04587424, -0.5759657 ], [ -80.04588067, -0.57595926 ], [ -80.04588068, -0.57586501 ], [ -80.04588377, -0.57584152 ], [ -80.04589281, -0.57581965 ], [ -80.04590717, -0.57580089 ], [ -80.04594009, -0.57576793 ], [ -80.04596919, -0.57574844 ], [ -80.04600347, -0.5757416 ], [ -80.0460322, -0.57574161 ], [ -80.04603882, -0.57573498 ], [ -80.04606153, -0.57571845 ], [ -80.04608819, -0.57570976 ], [ -80.04611622, -0.57570976 ], [ -80.04614288, -0.57571846 ], [ -80.04615378, -0.5757264 ], [ -80.04615609, -0.5757208 ], [ -80.04617046, -0.57570204 ], [ -80.04620337, -0.57566908 ], [ -80.04623629, -0.57563612 ], [ -80.04627634, -0.57559602 ], [ -80.04627872, -0.57557787 ], [ -80.04628776, -0.575556 ], [ -80.04630212, -0.57553724 ], [ -80.04633504, -0.57550428 ], [ -80.04636414, -0.57548479 ], [ -80.04639842, -0.57547795 ], [ -80.04646006, -0.57547796 ], [ -80.04646668, -0.57547134 ], [ -80.04649959, -0.57543838 ], [ -80.04652869, -0.57541889 ], [ -80.04656298, -0.57541205 ], [ -80.04659589, -0.57541206 ], [ -80.04663017, -0.57541891 ], [ -80.04665927, -0.57543841 ], [ -80.04666588, -0.57544504 ], [ -80.04669461, -0.57544504 ], [ -80.04670348, -0.57544681 ], [ -80.04670348, -0.57543661 ], [ -80.04670656, -0.57541312 ], [ -80.0467156, -0.57539125 ], [ -80.04672997, -0.57537249 ], [ -80.04676288, -0.57533953 ], [ -80.04679198, -0.57532004 ], [ -80.04682105, -0.57531425 ], [ -80.0468287, -0.57530658 ] ], [ [ -80.04480693, -0.57509425 ], [ -80.0448213, -0.57507549 ], [ -80.04485421, -0.57504253 ], [ -80.04488331, -0.57502304 ], [ -80.04490589, -0.57501854 ], [ -80.04488713, -0.57500596 ], [ -80.04485423, -0.57497299 ], [ -80.04482132, -0.57494002 ], [ -80.0447818, -0.57490042 ], [ -80.04472435, -0.57490042 ], [ -80.04471773, -0.57490704 ], [ -80.04468863, -0.57492653 ], [ -80.04465434, -0.57493337 ], [ -80.04462561, -0.57493336 ], [ -80.044619, -0.57493999 ], [ -80.04461684, -0.57494144 ], [ -80.0446519, -0.57497657 ], [ -80.0446848, -0.57500954 ], [ -80.04471771, -0.57504251 ], [ -80.04473207, -0.57506127 ], [ -80.0447411, -0.57508315 ], [ -80.04474347, -0.5751013 ], [ -80.04475722, -0.57511507 ], [ -80.04479833, -0.57511508 ], [ -80.04480693, -0.57509425 ] ] ] ] } }
]
}
