{
  "type": "FeatureCollection",
  "name": "Secondary forest",
  "xy_coordinate_resolution": 1e-08,
  "features": [
    {
      "type": "Feature",
      "properties": {
        "Name": "Secondary forest",
        "Date planted": null,
        "Area": null,
        "Landuse description": "Forest regenerated through largely natural processes after human disturbances.",
        "Plant census": null,
        "Insights": null,
        "Past use history": "Pasture",
        "_rfi_source_fid": 1
      },
      "geometry": {
        "type": "MultiPolygon",
        "coordinates": [
          [
            [
              [
                -80.04445014,
                -0.57307137
              ],
              [
                -80.04460387,
                -0.57279369
              ],
              [
                -80.04473173,
                -0.57270881
              ],
              [
                -80.04487636,
                -0.57264418
              ],
              [
                -80.04488696,
                -0.57258908
              ],
              [
                -80.04498586,
                -0.57243627
              ],
              [
                -80.04502038,
                -0.57233962
              ],
              [
                -80.04507768,
                -0.5723009
              ],
              [
                -80.04514867,
                -0.57224263
              ],
              [
                -80.04523449,
                -0.57213244
              ],
              [
                -80.04529383,
                -0.57209853
              ],
              [
                -80.04534257,
                -0.5720053
              ],
              [
                -80.04528323,
                -0.57197775
              ],
              [
                -80.04534239,
                -0.57184431
              ],
              [
                -80.04539416,
                -0.57176492
              ],
              [
                -80.04543558,
                -0.57177528
              ],
              [
                -80.04553223,
                -0.57177528
              ],
              [
                -80.04560299,
                -0.57171315
              ],
              [
                -80.04565994,
                -0.57161823
              ],
              [
                -80.04567892,
                -0.57155265
              ],
              [
                -80.04565821,
                -0.57150605
              ],
              [
                -80.04563923,
                -0.57146981
              ],
              [
                -80.04563233,
                -0.57144047
              ],
              [
                -80.04563578,
                -0.57132311
              ],
              [
                -80.04565304,
                -0.57123337
              ],
              [
                -80.04562542,
                -0.57117124
              ],
              [
                -80.04553223,
                -0.57111256
              ],
              [
                -80.04541832,
                -0.57104353
              ],
              [
                -80.04532858,
                -0.57101246
              ],
              [
                -80.04519742,
                -0.5709952
              ],
              [
                -80.0450559,
                -0.57097104
              ],
              [
                -80.04504209,
                -0.5707881
              ],
              [
                -80.04507834,
                -0.57061897
              ],
              [
                -80.04511285,
                -0.57047918
              ],
              [
                -80.04520087,
                -0.57035147
              ],
              [
                -80.04529406,
                -0.57024274
              ],
              [
                -80.04531477,
                -0.57022548
              ],
              [
                -80.04532858,
                -0.57020823
              ],
              [
                -80.04722095,
                -0.57101419
              ],
              [
                -80.04615094,
                -0.57211699
              ],
              [
                -80.04581745,
                -0.57255705
              ],
              [
                -80.04522223,
                -0.5728124
              ],
              [
                -80.04517723,
                -0.57298355
              ],
              [
                -80.04518389,
                -0.57306897
              ],
              [
                -80.04518871,
                -0.57313141
              ],
              [
                -80.0451793,
                -0.57319391
              ],
              [
                -80.04521433,
                -0.57346003
              ],
              [
                -80.04496974,
                -0.57383723
              ],
              [
                -80.04479563,
                -0.57394335
              ],
              [
                -80.04472349,
                -0.57397379
              ],
              [
                -80.04471215,
                -0.57395805
              ],
              [
                -80.04470832,
                -0.57394008
              ],
              [
                -80.04471127,
                -0.57392538
              ],
              [
                -80.04471191,
                -0.57391244
              ],
              [
                -80.04472166,
                -0.57387458
              ],
              [
                -80.04479595,
                -0.5737749
              ],
              [
                -80.04484515,
                -0.57372569
              ],
              [
                -80.04489883,
                -0.57368416
              ],
              [
                -80.04494995,
                -0.57362154
              ],
              [
                -80.04510939,
                -0.57336082
              ],
              [
                -80.04512058,
                -0.57330635
              ],
              [
                -80.04511163,
                -0.57316944
              ],
              [
                -80.04511003,
                -0.57314228
              ],
              [
                -80.04509757,
                -0.57309659
              ],
              [
                -80.04508639,
                -0.57308381
              ],
              [
                -80.04505667,
                -0.57307327
              ],
              [
                -80.04498478,
                -0.57302854
              ],
              [
                -80.04494324,
                -0.57299212
              ],
              [
                -80.04489292,
                -0.57296624
              ],
              [
                -80.04481969,
                -0.5729652
              ],
              [
                -80.04472294,
                -0.57298157
              ],
              [
                -80.04463283,
                -0.57300905
              ],
              [
                -80.04444112,
                -0.57311704
              ],
              [
                -80.04445014,
                -0.57307137
              ]
            ]
          ]
        ]
      }
    },
    {
      "type": "Feature",
      "properties": {
        "Name": "Secondary forest",
        "Date planted": null,
        "Area": null,
        "Landuse description": "Forest regenerated through largely natural processes after human disturbances.",
        "Plant census": null,
        "Insights": null,
        "Past use history": "Pasture",
        "_rfi_source_fid": 2
      },
      "geometry": {
        "type": "MultiPolygon",
        "coordinates": [
          [
            [
              [
                -80.04434521,
                -0.57495902
              ],
              [
                -80.04465001,
                -0.5749536
              ],
              [
                -80.04494431,
                -0.57503632
              ],
              [
                -80.04517011,
                -0.57518956
              ],
              [
                -80.0452759,
                -0.57529941
              ],
              [
                -80.04535727,
                -0.57533467
              ],
              [
                -80.04541694,
                -0.57537806
              ],
              [
                -80.04542779,
                -0.57544723
              ],
              [
                -80.04544406,
                -0.57547028
              ],
              [
                -80.04548068,
                -0.57556114
              ],
              [
                -80.04550916,
                -0.57568048
              ],
              [
                -80.04554035,
                -0.57571031
              ],
              [
                -80.04558239,
                -0.57573947
              ],
              [
                -80.04562376,
                -0.57578558
              ],
              [
                -80.04568207,
                -0.57582016
              ],
              [
                -80.04573632,
                -0.5758188
              ],
              [
                -80.04583397,
                -0.57578287
              ],
              [
                -80.04589432,
                -0.57574151
              ],
              [
                -80.0459072,
                -0.57570082
              ],
              [
                -80.04594585,
                -0.57566285
              ],
              [
                -80.04599061,
                -0.57564997
              ],
              [
                -80.04605977,
                -0.5756459
              ],
              [
                -80.04614047,
                -0.57565336
              ],
              [
                -80.04625778,
                -0.57564047
              ],
              [
                -80.04631236,
                -0.5756164
              ],
              [
                -80.04635305,
                -0.57559165
              ],
              [
                -80.04636356,
                -0.57553436
              ],
              [
                -80.04636559,
                -0.57550181
              ],
              [
                -80.04637034,
                -0.5754913
              ],
              [
                -80.0463856,
                -0.57547164
              ],
              [
                -80.04639758,
                -0.57546621
              ],
              [
                -80.04642312,
                -0.57547616
              ],
              [
                -80.04644753,
                -0.57548384
              ],
              [
                -80.04648256,
                -0.57547684
              ],
              [
                -80.04649477,
                -0.57545107
              ],
              [
                -80.04650449,
                -0.57544158
              ],
              [
                -80.04660801,
                -0.57540406
              ],
              [
                -80.0466157,
                -0.57539954
              ],
              [
                -80.04668283,
                -0.57537196
              ],
              [
                -80.04672171,
                -0.57536224
              ],
              [
                -80.04673549,
                -0.57534258
              ],
              [
                -80.04676578,
                -0.57531749
              ],
              [
                -80.04678522,
                -0.57530709
              ],
              [
                -80.04685461,
                -0.57530958
              ],
              [
                -80.04690683,
                -0.57529308
              ],
              [
                -80.04692898,
                -0.57527455
              ],
              [
                -80.04693711,
                -0.57525986
              ],
              [
                -80.04696627,
                -0.57526008
              ],
              [
                -80.04698537,
                -0.57525251
              ],
              [
                -80.04700481,
                -0.57523579
              ],
              [
                -80.04702493,
                -0.57520866
              ],
              [
                -80.04705612,
                -0.5751716
              ],
              [
                -80.04717546,
                -0.57512097
              ],
              [
                -80.04720168,
                -0.57509249
              ],
              [
                -80.04723649,
                -0.5750665
              ],
              [
                -80.04727808,
                -0.57504457
              ],
              [
                -80.04732917,
                -0.57500298
              ],
              [
                -80.04736623,
                -0.5750179
              ],
              [
                -80.04739181,
                -0.57514754
              ],
              [
                -80.04569359,
                -0.57591726
              ],
              [
                -80.04539675,
                -0.57577229
              ],
              [
                -80.0452863,
                -0.57566874
              ],
              [
                -80.04494113,
                -0.57519587
              ],
              [
                -80.04441303,
                -0.57509577
              ],
              [
                -80.04427842,
                -0.57505435
              ],
              [
                -80.04416796,
                -0.57503019
              ],
              [
                -80.04412654,
                -0.57500948
              ],
              [
                -80.04406841,
                -0.57496729
              ],
              [
                -80.04418909,
                -0.57484573
              ],
              [
                -80.04435502,
                -0.57467626
              ],
              [
                -80.04451829,
                -0.57450479
              ],
              [
                -80.04457875,
                -0.57436126
              ],
              [
                -80.04468531,
                -0.57431334
              ],
              [
                -80.04480417,
                -0.57423107
              ],
              [
                -80.04488293,
                -0.57416349
              ],
              [
                -80.04481104,
                -0.57407723
              ],
              [
                -80.04472365,
                -0.57397379
              ],
              [
                -80.04479563,
                -0.57394272
              ],
              [
                -80.04503143,
                -0.57407371
              ],
              [
                -80.04507169,
                -0.57422899
              ],
              [
                -80.04510481,
                -0.57435615
              ],
              [
                -80.04515663,
                -0.57436659
              ],
              [
                -80.04545607,
                -0.57442405
              ],
              [
                -80.04642741,
                -0.57494121
              ],
              [
                -80.04636031,
                -0.57491816
              ],
              [
                -80.04633506,
                -0.5749132
              ],
              [
                -80.046298,
                -0.5749033
              ],
              [
                -80.04618873,
                -0.57484227
              ],
              [
                -80.04608265,
                -0.57478444
              ],
              [
                -80.04598083,
                -0.57472832
              ],
              [
                -80.04580786,
                -0.57465483
              ],
              [
                -80.04573373,
                -0.57460265
              ],
              [
                -80.04565662,
                -0.57455536
              ],
              [
                -80.04558111,
                -0.57452533
              ],
              [
                -80.04544553,
                -0.57445131
              ],
              [
                -80.0452061,
                -0.57439614
              ],
              [
                -80.0451119,
                -0.5743947
              ],
              [
                -80.04505694,
                -0.57437138
              ],
              [
                -80.04502192,
                -0.57433153
              ],
              [
                -80.04493619,
                -0.57436629
              ],
              [
                -80.04472829,
                -0.57453442
              ],
              [
                -80.04453603,
                -0.57475323
              ],
              [
                -80.04434521,
                -0.57495902
              ]
            ]
          ]
        ]
      }
    },
    {
      "type": "Feature",
      "properties": {
        "Name": "Secondary forest",
        "Date planted": null,
        "Area": null,
        "Landuse description": "Forest regenerated through largely natural processes after human disturbances.",
        "Plant census": null,
        "Insights": null,
        "Past use history": "Pasture",
        "_rfi_source_fid": 3
      },
      "geometry": {
        "type": "MultiPolygon",
        "coordinates": [
          [
            [
              [
                -80.04271041,
                -0.57346355
              ],
              [
                -80.04259265,
                -0.57347757
              ],
              [
                -80.04241996,
                -0.57347214
              ],
              [
                -80.04236752,
                -0.57342423
              ],
              [
                -80.0423205,
                -0.57338987
              ],
              [
                -80.04231598,
                -0.57334557
              ],
              [
                -80.04232502,
                -0.57333337
              ],
              [
                -80.04232186,
                -0.57329811
              ],
              [
                -80.04231327,
                -0.573285
              ],
              [
                -80.0423196,
                -0.57326963
              ],
              [
                -80.04230061,
                -0.57324341
              ],
              [
                -80.04229428,
                -0.57321493
              ],
              [
                -80.04228434,
                -0.57315119
              ],
              [
                -80.0422753,
                -0.57312407
              ],
              [
                -80.04228072,
                -0.57309243
              ],
              [
                -80.04227123,
                -0.57306395
              ],
              [
                -80.04226874,
                -0.57303728
              ],
              [
                -80.04226332,
                -0.57300428
              ],
              [
                -80.04226603,
                -0.57299253
              ],
              [
                -80.04230039,
                -0.57297399
              ],
              [
                -80.04228954,
                -0.57295636
              ],
              [
                -80.04229677,
                -0.57292653
              ],
              [
                -80.04226241,
                -0.57289398
              ],
              [
                -80.04223077,
                -0.57289579
              ],
              [
                -80.04221088,
                -0.57286415
              ],
              [
                -80.04222354,
                -0.57277736
              ],
              [
                -80.04220545,
                -0.57272944
              ],
              [
                -80.04215708,
                -0.57271181
              ],
              [
                -80.04209606,
                -0.57262909
              ],
              [
                -80.04213584,
                -0.57253551
              ],
              [
                -80.04218104,
                -0.57248353
              ],
              [
                -80.04220365,
                -0.57248308
              ],
              [
                -80.04223077,
                -0.57244511
              ],
              [
                -80.04226061,
                -0.57240804
              ],
              [
                -80.04228863,
                -0.57240171
              ],
              [
                -80.04230423,
                -0.57238634
              ],
              [
                -80.04228615,
                -0.57232712
              ],
              [
                -80.04229609,
                -0.57229729
              ],
              [
                -80.04231598,
                -0.57228237
              ],
              [
                -80.04233587,
                -0.57228147
              ],
              [
                -80.04233994,
                -0.57228056
              ],
              [
                -80.04233587,
                -0.57223807
              ],
              [
                -80.04237633,
                -0.57218405
              ],
              [
                -80.04236187,
                -0.57213636
              ],
              [
                -80.04237588,
                -0.57212122
              ],
              [
                -80.04237701,
                -0.57211444
              ],
              [
                -80.04235554,
                -0.5720889
              ],
              [
                -80.0423352,
                -0.57206539
              ],
              [
                -80.0423352,
                -0.57205635
              ],
              [
                -80.04233791,
                -0.57205183
              ],
              [
                -80.04234333,
                -0.5720455
              ],
              [
                -80.04234514,
                -0.57203827
              ],
              [
                -80.04233881,
                -0.57202742
              ],
              [
                -80.04231621,
                -0.57200211
              ],
              [
                -80.04230807,
                -0.57199216
              ],
              [
                -80.04230581,
                -0.57198629
              ],
              [
                -80.04230672,
                -0.57197589
              ],
              [
                -80.04231892,
                -0.57196911
              ],
              [
                -80.04233203,
                -0.57196188
              ],
              [
                -80.04235735,
                -0.57192571
              ],
              [
                -80.04240391,
                -0.57191758
              ],
              [
                -80.04240165,
                -0.57189136
              ],
              [
                -80.04242516,
                -0.57188774
              ],
              [
                -80.04244053,
                -0.57186785
              ],
              [
                -80.04244369,
                -0.57182717
              ],
              [
                -80.04246358,
                -0.57182355
              ],
              [
                -80.0424794,
                -0.57182445
              ],
              [
                -80.04248347,
                -0.57181858
              ],
              [
                -80.04249749,
                -0.57181496
              ],
              [
                -80.04255716,
                -0.57139773
              ],
              [
                -80.04261231,
                -0.57127206
              ],
              [
                -80.04264531,
                -0.57115091
              ],
              [
                -80.04265661,
                -0.571004
              ],
              [
                -80.04269685,
                -0.5709371
              ],
              [
                -80.04271267,
                -0.57091088
              ],
              [
                -80.04272261,
                -0.57087336
              ],
              [
                -80.04272849,
                -0.57086161
              ],
              [
                -80.04272634,
                -0.57080847
              ],
              [
                -80.04273041,
                -0.57079355
              ],
              [
                -80.04275889,
                -0.57072914
              ],
              [
                -80.04275754,
                -0.5707088
              ],
              [
                -80.04274872,
                -0.57065998
              ],
              [
                -80.04274533,
                -0.57062031
              ],
              [
                -80.04275906,
                -0.57058878
              ],
              [
                -80.0427828,
                -0.57055556
              ],
              [
                -80.04278873,
                -0.57051657
              ],
              [
                -80.04277669,
                -0.57049216
              ],
              [
                -80.04273516,
                -0.57046351
              ],
              [
                -80.04271024,
                -0.57044198
              ],
              [
                -80.04273736,
                -0.57040672
              ],
              [
                -80.04279331,
                -0.57036773
              ],
              [
                -80.04290926,
                -0.57031891
              ],
              [
                -80.04293028,
                -0.57031213
              ],
              [
                -80.04307904,
                -0.5703134
              ],
              [
                -80.04289214,
                -0.57019228
              ],
              [
                -80.04284187,
                -0.57005913
              ],
              [
                -80.04270049,
                -0.56995573
              ],
              [
                -80.04258488,
                -0.56994996
              ],
              [
                -80.04248621,
                -0.5700276
              ],
              [
                -80.04243129,
                -0.56998149
              ],
              [
                -80.04243705,
                -0.56990724
              ],
              [
                -80.04265404,
                -0.5696862
              ],
              [
                -80.04267032,
                -0.56957567
              ],
              [
                -80.04267845,
                -0.56952414
              ],
              [
                -80.04255063,
                -0.56936378
              ],
              [
                -80.04272355,
                -0.56920342
              ],
              [
                -80.04300648,
                -0.56932818
              ],
              [
                -80.04299173,
                -0.56934564
              ],
              [
                -80.04296359,
                -0.56936446
              ],
              [
                -80.04292714,
                -0.5693831
              ],
              [
                -80.04290409,
                -0.56940734
              ],
              [
                -80.04290968,
                -0.56942684
              ],
              [
                -80.04293952,
                -0.56948346
              ],
              [
                -80.04294766,
                -0.56950854
              ],
              [
                -80.04294698,
                -0.56953431
              ],
              [
                -80.04293477,
                -0.5695655
              ],
              [
                -80.04293206,
                -0.56959805
              ],
              [
                -80.04294088,
                -0.56963263
              ],
              [
                -80.04298292,
                -0.56968552
              ],
              [
                -80.04303581,
                -0.56972688
              ],
              [
                -80.04306429,
                -0.56974112
              ],
              [
                -80.0431026,
                -0.5697618
              ],
              [
                -80.04314634,
                -0.56976214
              ],
              [
                -80.04316736,
                -0.56974044
              ],
              [
                -80.04317651,
                -0.56972247
              ],
              [
                -80.0431955,
                -0.56968382
              ],
              [
                -80.04322229,
                -0.56966043
              ],
              [
                -80.04327597,
                -0.56962777
              ],
              [
                -80.0433266,
                -0.56960562
              ],
              [
                -80.04340209,
                -0.56960246
              ],
              [
                -80.04344323,
                -0.56961737
              ],
              [
                -80.04348708,
                -0.56963907
              ],
              [
                -80.04352551,
                -0.56966484
              ],
              [
                -80.04354449,
                -0.56968518
              ],
              [
                -80.04357026,
                -0.56971953
              ],
              [
                -80.04359241,
                -0.56976429
              ],
              [
                -80.04362451,
                -0.56977378
              ],
              [
                -80.04365796,
                -0.56978689
              ],
              [
                -80.04368825,
                -0.5697783
              ],
              [
                -80.04369593,
                -0.56976293
              ],
              [
                -80.04369593,
                -0.56972586
              ],
              [
                -80.04369006,
                -0.56968382
              ],
              [
                -80.04369503,
                -0.56965128
              ],
              [
                -80.04372848,
                -0.56963952
              ],
              [
                -80.04382251,
                -0.5696784
              ],
              [
                -80.04388851,
                -0.56971637
              ],
              [
                -80.04406934,
                -0.56981944
              ],
              [
                -80.04414981,
                -0.569866
              ],
              [
                -80.04410912,
                -0.56990939
              ],
              [
                -80.04409239,
                -0.5700276
              ],
              [
                -80.04409465,
                -0.57010128
              ],
              [
                -80.04410008,
                -0.57020796
              ],
              [
                -80.04395451,
                -0.5701275
              ],
              [
                -80.04369466,
                -0.57026331
              ],
              [
                -80.04367568,
                -0.57049656
              ],
              [
                -80.0435604,
                -0.57051826
              ],
              [
                -80.04342478,
                -0.57072982
              ],
              [
                -80.04372314,
                -0.57108783
              ],
              [
                -80.04392386,
                -0.57112852
              ],
              [
                -80.04398094,
                -0.5711549
              ],
              [
                -80.04397286,
                -0.57116661
              ],
              [
                -80.04397016,
                -0.57118761
              ],
              [
                -80.04397376,
                -0.57120359
              ],
              [
                -80.04399241,
                -0.57122071
              ],
              [
                -80.04401555,
                -0.5712254
              ],
              [
                -80.04403538,
                -0.57123146
              ],
              [
                -80.04406146,
                -0.57124108
              ],
              [
                -80.04407908,
                -0.57124301
              ],
              [
                -80.04412244,
                -0.57127409
              ],
              [
                -80.04418841,
                -0.57125174
              ],
              [
                -80.04441012,
                -0.57138197
              ],
              [
                -80.04442255,
                -0.57139085
              ],
              [
                -80.04444208,
                -0.5714021
              ],
              [
                -80.04445156,
                -0.5714169
              ],
              [
                -80.04445215,
                -0.57142933
              ],
              [
                -80.04444031,
                -0.57143525
              ],
              [
                -80.04441604,
                -0.57143525
              ],
              [
                -80.04439709,
                -0.57143051
              ],
              [
                -80.04436986,
                -0.57141749
              ],
              [
                -80.04434204,
                -0.57140684
              ],
              [
                -80.04431717,
                -0.57139855
              ],
              [
                -80.04429764,
                -0.57139381
              ],
              [
                -80.04428224,
                -0.5713873
              ],
              [
                -80.04426626,
                -0.57137783
              ],
              [
                -80.04424732,
                -0.5713654
              ],
              [
                -80.04422867,
                -0.57136066
              ],
              [
                -80.04421002,
                -0.57136925
              ],
              [
                -80.04420351,
                -0.57137546
              ],
              [
                -80.04419107,
                -0.57138552
              ],
              [
                -80.04417391,
                -0.57139322
              ],
              [
                -80.04415111,
                -0.57139588
              ],
              [
                -80.04412681,
                -0.57138982
              ],
              [
                -80.04411267,
                -0.57139218
              ],
              [
                -80.0440887,
                -0.57140136
              ],
              [
                -80.04407982,
                -0.57140669
              ],
              [
                -80.04406294,
                -0.5714061
              ],
              [
                -80.04405673,
                -0.57139958
              ],
              [
                -80.04404785,
                -0.5713984
              ],
              [
                -80.04404174,
                -0.57138518
              ],
              [
                -80.04403306,
                -0.57137827
              ],
              [
                -80.04401865,
                -0.57136939
              ],
              [
                -80.04401283,
                -0.57136505
              ],
              [
                -80.04400257,
                -0.57136268
              ],
              [
                -80.04398185,
                -0.57135953
              ],
              [
                -80.04397958,
                -0.57142731
              ],
              [
                -80.04392906,
                -0.57149321
              ],
              [
                -80.04394051,
                -0.57150111
              ],
              [
                -80.04392386,
                -0.57151366
              ],
              [
                -80.04358888,
                -0.57150281
              ],
              [
                -80.04355769,
                -0.57152179
              ],
              [
                -80.04351158,
                -0.57150823
              ],
              [
                -80.04340851,
                -0.57140381
              ],
              [
                -80.04330171,
                -0.57129362
              ],
              [
                -80.04329696,
                -0.57131261
              ],
              [
                -80.04324814,
                -0.57132719
              ],
              [
                -80.04323152,
                -0.57133397
              ],
              [
                -80.04320067,
                -0.57133804
              ],
              [
                -80.0431471,
                -0.57136719
              ],
              [
                -80.0431471,
                -0.57142144
              ],
              [
                -80.04318236,
                -0.5714784
              ],
              [
                -80.04319785,
                -0.57183965
              ],
              [
                -80.04320075,
                -0.57183936
              ],
              [
                -80.04325284,
                -0.57182431
              ],
              [
                -80.04330559,
                -0.57180036
              ],
              [
                -80.04334611,
                -0.57175406
              ],
              [
                -80.04339068,
                -0.57172975
              ],
              [
                -80.04348851,
                -0.57177142
              ],
              [
                -80.04355218,
                -0.57181194
              ],
              [
                -80.04360138,
                -0.57185824
              ],
              [
                -80.04364364,
                -0.5718814
              ],
              [
                -80.04370268,
                -0.57186519
              ],
              [
                -80.0437623,
                -0.57185998
              ],
              [
                -80.04382561,
                -0.57184746
              ],
              [
                -80.04392083,
                -0.57192474
              ],
              [
                -80.04390839,
                -0.57196062
              ],
              [
                -80.04385788,
                -0.57197017
              ],
              [
                -80.04381273,
                -0.57198016
              ],
              [
                -80.04375615,
                -0.57200591
              ],
              [
                -80.04373169,
                -0.57202024
              ],
              [
                -80.04371086,
                -0.57205193
              ],
              [
                -80.04370565,
                -0.57206901
              ],
              [
                -80.04364863,
                -0.57214223
              ],
              [
                -80.04364371,
                -0.57216509
              ],
              [
                -80.04362171,
                -0.57216408
              ],
              [
                -80.04358264,
                -0.57214736
              ],
              [
                -80.04355862,
                -0.57214772
              ],
              [
                -80.04345493,
                -0.57211177
              ],
              [
                -80.04338142,
                -0.57210945
              ],
              [
                -80.0433299,
                -0.57212537
              ],
              [
                -80.04328707,
                -0.57215851
              ],
              [
                -80.04326724,
                -0.57219439
              ],
              [
                -80.04324705,
                -0.57226508
              ],
              [
                -80.04325155,
                -0.57236378
              ],
              [
                -80.04326881,
                -0.57241211
              ],
              [
                -80.04337926,
                -0.57253464
              ],
              [
                -80.04342586,
                -0.572652
              ],
              [
                -80.04348108,
                -0.57275037
              ],
              [
                -80.04354666,
                -0.57286427
              ],
              [
                -80.04358981,
                -0.57294194
              ],
              [
                -80.04363296,
                -0.57304894
              ],
              [
                -80.04362605,
                -0.5731732
              ],
              [
                -80.04345002,
                -0.57316975
              ],
              [
                -80.04342003,
                -0.57316168
              ],
              [
                -80.04340037,
                -0.5731149
              ],
              [
                -80.0433841,
                -0.57306675
              ],
              [
                -80.04337155,
                -0.57302132
              ],
              [
                -80.04333934,
                -0.57290538
              ],
              [
                -80.04332747,
                -0.57288368
              ],
              [
                -80.04330781,
                -0.5728691
              ],
              [
                -80.04329527,
                -0.57286266
              ],
              [
                -80.04325967,
                -0.57286537
              ],
              [
                -80.04324,
                -0.57287147
              ],
              [
                -80.04322034,
                -0.57287554
              ],
              [
                -80.04318677,
                -0.57290877
              ],
              [
                -80.0431705,
                -0.5729325
              ],
              [
                -80.04313151,
                -0.57290402
              ],
              [
                -80.04312303,
                -0.57287758
              ],
              [
                -80.04311862,
                -0.57287418
              ],
              [
                -80.04311218,
                -0.5728535
              ],
              [
                -80.04310506,
                -0.57283418
              ],
              [
                -80.04310065,
                -0.57282333
              ],
              [
                -80.04309523,
                -0.57278638
              ],
              [
                -80.04308929,
                -0.57276959
              ],
              [
                -80.04307946,
                -0.57275315
              ],
              [
                -80.04307438,
                -0.57274535
              ],
              [
                -80.04306573,
                -0.57273891
              ],
              [
                -80.04305903,
                -0.5727295
              ],
              [
                -80.04305514,
                -0.57272628
              ],
              [
                -80.04304954,
                -0.57271798
              ],
              [
                -80.04304556,
                -0.57271069
              ],
              [
                -80.04304039,
                -0.57270594
              ],
              [
                -80.04302776,
                -0.5726756
              ],
              [
                -80.04302199,
                -0.57265204
              ],
              [
                -80.04302047,
                -0.57258245
              ],
              [
                -80.04301369,
                -0.57258211
              ],
              [
                -80.04301123,
                -0.57256948
              ],
              [
                -80.04301085,
                -0.57256181
              ],
              [
                -80.04300614,
                -0.57255372
              ],
              [
                -80.042996,
                -0.5725522
              ],
              [
                -80.0429873,
                -0.57255582
              ],
              [
                -80.04298052,
                -0.57255695
              ],
              [
                -80.0429708,
                -0.5725626
              ],
              [
                -80.04296616,
                -0.572563
              ],
              [
                -80.04294576,
                -0.57258277
              ],
              [
                -80.04294526,
                -0.57259357
              ],
              [
                -80.04294695,
                -0.57260781
              ],
              [
                -80.04295113,
                -0.5726156
              ],
              [
                -80.04296108,
                -0.57262046
              ],
              [
                -80.04296074,
                -0.57262555
              ],
              [
                -80.04296639,
                -0.57262815
              ],
              [
                -80.04296481,
                -0.57265414
              ],
              [
                -80.04297114,
                -0.57265617
              ],
              [
                -80.04297114,
                -0.57266612
              ],
              [
                -80.0429752,
                -0.57266793
              ],
              [
                -80.04297537,
                -0.57269234
              ],
              [
                -80.04297317,
                -0.57269222
              ],
              [
                -80.04297012,
                -0.57269369
              ],
              [
                -80.04296741,
                -0.57269573
              ],
              [
                -80.04296176,
                -0.57270076
              ],
              [
                -80.04295317,
                -0.57270822
              ],
              [
                -80.04294932,
                -0.57271132
              ],
              [
                -80.04294237,
                -0.57272093
              ],
              [
                -80.0429252,
                -0.5727372
              ],
              [
                -80.04291751,
                -0.57275212
              ],
              [
                -80.04290892,
                -0.57276206
              ],
              [
                -80.04290937,
                -0.57276794
              ],
              [
                -80.04290802,
                -0.57277698
              ],
              [
                -80.04290485,
                -0.57278512
              ],
              [
                -80.04290485,
                -0.57284569
              ],
              [
                -80.04290237,
                -0.5728649
              ],
              [
                -80.04289943,
                -0.57287327
              ],
              [
                -80.0428983,
                -0.57288598
              ],
              [
                -80.04289445,
                -0.57290045
              ],
              [
                -80.04288813,
                -0.57290971
              ],
              [
                -80.04287954,
                -0.57291875
              ],
              [
                -80.04287569,
                -0.57292757
              ],
              [
                -80.04286462,
                -0.57294565
              ],
              [
                -80.04285332,
                -0.57295695
              ],
              [
                -80.04283795,
                -0.5729687
              ],
              [
                -80.04283026,
                -0.57297187
              ],
              [
                -80.04280766,
                -0.57297594
              ],
              [
                -80.04278867,
                -0.57298
              ],
              [
                -80.04277149,
                -0.57298498
              ],
              [
                -80.04276697,
                -0.5729895
              ],
              [
                -80.04275974,
                -0.57300419
              ],
              [
                -80.04275047,
                -0.57302272
              ],
              [
                -80.04274957,
                -0.57302928
              ],
              [
                -80.04271408,
                -0.57307086
              ],
              [
                -80.04270661,
                -0.57308006
              ],
              [
                -80.04269487,
                -0.57308804
              ],
              [
                -80.04266023,
                -0.57311865
              ],
              [
                -80.04264576,
                -0.57314125
              ],
              [
                -80.04264124,
                -0.57315481
              ],
              [
                -80.04264215,
                -0.57317108
              ],
              [
                -80.0426478,
                -0.57318713
              ],
              [
                -80.04265571,
                -0.57319572
              ],
              [
                -80.04266746,
                -0.57320318
              ],
              [
                -80.04268012,
                -0.57322126
              ],
              [
                -80.04265978,
                -0.57327641
              ],
              [
                -80.04270498,
                -0.57342423
              ],
              [
                -80.04271041,
                -0.57346355
              ]
            ]
          ]
        ]
      }
    }
  ]
}
