{
  "type": "FeatureCollection",
  "name": "Syntropic",
  "xy_coordinate_resolution": 1e-08,
  "features": [
    {
      "type": "Feature",
      "properties": {
        "Name": "Syntropic Taller de mauro",
        "Date created": null,
        "Area": 0.04549318123043413,
        "Landuse description": "Succesional agroforesty to transition towards a climax production agroforest, with varying plots being optimized for different produce. Planted by mauro",
        "Plant census": "Cacao\t99\nInga\t71\nGlyricidia\t46\nTrichanthera\t120\nJackfruit\t91\nAmarillo\t40\nAvocado\t19\nAcacia Mangium\t3\nSoursop\t0\nCitrus\t0\nMango\t14\nBrazillian Fern Tree\t11\nEucalyptus\t5\nPapaya\t5\nTeak\t0\ncoconut\t2\npachiche\t1\ncaucho\t1\nGmelina\t0\nguachapeli\t14\nleucaena\t4\nFernan Sanchez\t7\nJaboncillo\t4\nPlantain/ Banana\t3\nMoral Fino\t4\nMulchi\t0\nSumango\t1",
        "Insights": null,
        "Past use history": "Pasture",
        "_rfi_source_fid": 1
      },
      "geometry": {
        "type": "MultiPolygon",
        "coordinates": [
          [
            [
              [
                -80.04560726,
                -0.57150258
              ],
              [
                -80.04566491,
                -0.57156467
              ],
              [
                -80.04566491,
                -0.57158388
              ],
              [
                -80.04557105,
                -0.57168736
              ],
              [
                -80.04551635,
                -0.57173466
              ],
              [
                -80.04548975,
                -0.57176422
              ],
              [
                -80.04545723,
                -0.57177457
              ],
              [
                -80.04542249,
                -0.57175462
              ],
              [
                -80.04540401,
                -0.57173909
              ],
              [
                -80.04539145,
                -0.57170066
              ],
              [
                -80.04538553,
                -0.57168366
              ],
              [
                -80.04545427,
                -0.57161788
              ],
              [
                -80.04550379,
                -0.57157575
              ],
              [
                -80.04555109,
                -0.57153288
              ],
              [
                -80.04558731,
                -0.57150258
              ],
              [
                -80.04560726,
                -0.57150258
              ]
            ]
          ]
        ]
      }
    },
    {
      "type": "Feature",
      "properties": {
        "Name": "Loma de Amarillos",
        "Date created": null,
        "Area": 0.10003921225388185,
        "Landuse description": "Succesional agroforesty to transition towards a climax production agroforest, with varying plots being optimized for different produce",
        "Plant census": "Cacao\t99\nInga\t137\nGlyricidia\t15\nTrichanthera\t109\nJackfruit\t1\nAmarillo\t19\nAvocado\t0\nAcacia Mangium\t0\nSoursop\t0\nCitrus\t0\nMango\t13\nBrazillian Fern Tree\t0\nEucalyptus\t0\nPapaya\t0\nTeak\t0\ncoconut\t0\npachiche\t0\ncaucho\t0\nGmelina\t1\nguachapeli\t4\nleucaena\t2\nFernan Sanchez\t0\nJaboncillo\t0\nPlantain/ Banana\t7\nMoral Fino\t0\nMulchi\t1\nSumango\t0",
        "Insights": null,
        "Past use history": "Pasture",
        "_rfi_source_fid": 2
      },
      "geometry": {
        "type": "MultiPolygon",
        "coordinates": [
          [
            [
              [
                -80.04540401,
                -0.57157501
              ],
              [
                -80.04551414,
                -0.57150258
              ],
              [
                -80.04556144,
                -0.57143311
              ],
              [
                -80.04558879,
                -0.57138063
              ],
              [
                -80.04561466,
                -0.57132963
              ],
              [
                -80.04562131,
                -0.57131633
              ],
              [
                -80.04562131,
                -0.5712779
              ],
              [
                -80.04560209,
                -0.57123133
              ],
              [
                -80.04557253,
                -0.57120325
              ],
              [
                -80.04549788,
                -0.57116999
              ],
              [
                -80.04541362,
                -0.57110051
              ],
              [
                -80.04540845,
                -0.57111012
              ],
              [
                -80.04539736,
                -0.57125424
              ],
              [
                -80.04535227,
                -0.57132963
              ],
              [
                -80.04534858,
                -0.57135772
              ],
              [
                -80.04529462,
                -0.57144124
              ],
              [
                -80.0453811,
                -0.57149667
              ],
              [
                -80.04540032,
                -0.57153732
              ],
              [
                -80.04540401,
                -0.57157501
              ]
            ]
          ]
        ]
      }
    },
    {
      "type": "Feature",
      "properties": {
        "Name": "Loma de La Cancha",
        "Date created": null,
        "Area": 0.25219401108112305,
        "Landuse description": "Succesional agroforesty to transition towards a climax production agroforest, with varying plots being optimized for different produce",
        "Plant census": "Cacao\t256\nInga\t221\nGlyricidia\t68\nTrichanthera\t263\nJackfruit\t136\nAmarillo\t72\nAvocado\t3\nAcacia Mangium\t53\nSoursop\t3\nCitrus\t0\nMango\t17\nBrazillian Fern Tree\t76\nEucalyptus\t0\nPapaya\t4\nTeak\t0\ncoconut\t0\npachiche\t1\ncaucho\t0\nGmelina\t17\nguachapeli\t8\nleucaena\t10\nFernan Sanchez\t8\nJaboncillo\t0\nPlantain/ Banana\t18\nMoral Fino\t0\nMulchi\t0\nSumango\t0",
        "Insights": null,
        "Past use history": "Pasture",
        "_rfi_source_fid": 3
      },
      "geometry": {
        "type": "MultiPolygon",
        "coordinates": [
          [
            [
              [
                -80.0453359,
                -0.5716504
              ],
              [
                -80.045321,
                -0.5716636
              ],
              [
                -80.0452748,
                -0.5716599
              ],
              [
                -80.0452617,
                -0.571671
              ],
              [
                -80.0452386,
                -0.5717554
              ],
              [
                -80.0452167,
                -0.5718317
              ],
              [
                -80.0451682,
                -0.5719217
              ],
              [
                -80.0451091,
                -0.5719616
              ],
              [
                -80.045076,
                -0.5719833
              ],
              [
                -80.0450426,
                -0.5719905
              ],
              [
                -80.0450099,
                -0.5720049
              ],
              [
                -80.0449897,
                -0.5720203
              ],
              [
                -80.0449389,
                -0.5721187
              ],
              [
                -80.0448556,
                -0.5721796
              ],
              [
                -80.0448016,
                -0.5722299
              ],
              [
                -80.0447307,
                -0.5722742
              ],
              [
                -80.0446893,
                -0.5722868
              ],
              [
                -80.0446716,
                -0.5722801
              ],
              [
                -80.0446361,
                -0.572238
              ],
              [
                -80.0446457,
                -0.5722195
              ],
              [
                -80.0446553,
                -0.5721951
              ],
              [
                -80.0446982,
                -0.5721367
              ],
              [
                -80.0447499,
                -0.572048
              ],
              [
                -80.0447913,
                -0.5719919
              ],
              [
                -80.0448297,
                -0.5719194
              ],
              [
                -80.0449302,
                -0.5717406
              ],
              [
                -80.0449509,
                -0.571711
              ],
              [
                -80.0449864,
                -0.5716652
              ],
              [
                -80.0450027,
                -0.5716445
              ],
              [
                -80.0450101,
                -0.5716297
              ],
              [
                -80.0450219,
                -0.5716297
              ],
              [
                -80.0450234,
                -0.571578
              ],
              [
                -80.0450042,
                -0.571575
              ],
              [
                -80.0449761,
                -0.5715514
              ],
              [
                -80.0449657,
                -0.5715351
              ],
              [
                -80.0449465,
                -0.5714981
              ],
              [
                -80.0449628,
                -0.5714804
              ],
              [
                -80.0450115,
                -0.5714745
              ],
              [
                -80.0450455,
                -0.5714922
              ],
              [
                -80.0450943,
                -0.5715262
              ],
              [
                -80.0451475,
                -0.571541
              ],
              [
                -80.0451934,
                -0.5715543
              ],
              [
                -80.0452495,
                -0.5715602
              ],
              [
                -80.0452835,
                -0.571578
              ],
              [
                -80.0453294,
                -0.5716164
              ],
              [
                -80.0453359,
                -0.5716504
              ]
            ]
          ]
        ]
      }
    },
    {
      "type": "Feature",
      "properties": {
        "Name": "Moral Fino",
        "Date created": null,
        "Area": 0.45473208295176576,
        "Landuse description": "Succesional agroforesty to transition towards a climax production agroforest, with varying plots being optimized for different produce",
        "Plant census": "Cacao\t311\nInga\t547\nGlyricidia\t143\nTrichanthera\t300\nJackfruit\t216\nAmarillo\t122\nAvocado\t0\nAcacia Mangium\t83\nSoursop\t2\nCitrus\t0\nMango\t49\nBrazillian Fern Tree\t23\nEucalyptus\t26\nPapaya\t0\nTeak\t66\ncoconut\t0\npachiche\t0\ncaucho\t0\nGmelina\t2\nguachapeli\t17\nleucaena\t1\nFernan Sanchez\t0\nJaboncillo\t0\nPlantain/ Banana\t3\nMoral Fino\t14\nMulchi\t0\nSumango\t0",
        "Insights": null,
        "Past use history": "Pasture",
        "_rfi_source_fid": 4
      },
      "geometry": {
        "type": "MultiPolygon",
        "coordinates": [
          [
            [
              [
                -80.04457031,
                -0.57161086
              ],
              [
                -80.04459544,
                -0.57155469
              ],
              [
                -80.04461835,
                -0.57142978
              ],
              [
                -80.044625,
                -0.57135217
              ],
              [
                -80.04463387,
                -0.57126792
              ],
              [
                -80.04444688,
                -0.57115927
              ],
              [
                -80.04443136,
                -0.57116962
              ],
              [
                -80.04442323,
                -0.57118144
              ],
              [
                -80.04441214,
                -0.57119327
              ],
              [
                -80.04440401,
                -0.57121101
              ],
              [
                -80.04440105,
                -0.57122727
              ],
              [
                -80.04439662,
                -0.57124353
              ],
              [
                -80.04438479,
                -0.57125683
              ],
              [
                -80.04436262,
                -0.57126127
              ],
              [
                -80.04435079,
                -0.57125609
              ],
              [
                -80.04433823,
                -0.57124722
              ],
              [
                -80.04431606,
                -0.57123614
              ],
              [
                -80.04429019,
                -0.57122062
              ],
              [
                -80.04427097,
                -0.57121248
              ],
              [
                -80.04416824,
                -0.57117553
              ],
              [
                -80.04413202,
                -0.57116297
              ],
              [
                -80.04407954,
                -0.5711504
              ],
              [
                -80.04405294,
                -0.57114523
              ],
              [
                -80.04402559,
                -0.57114301
              ],
              [
                -80.04400046,
                -0.57114375
              ],
              [
                -80.04398346,
                -0.57115114
              ],
              [
                -80.04397311,
                -0.57116666
              ],
              [
                -80.04397016,
                -0.57118736
              ],
              [
                -80.04397385,
                -0.57120362
              ],
              [
                -80.04399233,
                -0.57122062
              ],
              [
                -80.0440145,
                -0.57122505
              ],
              [
                -80.0440352,
                -0.57123096
              ],
              [
                -80.04406107,
                -0.57124057
              ],
              [
                -80.04408028,
                -0.57124279
              ],
              [
                -80.04412241,
                -0.57127383
              ],
              [
                -80.04418819,
                -0.57125166
              ],
              [
                -80.04439366,
                -0.57137139
              ],
              [
                -80.04440844,
                -0.57138026
              ],
              [
                -80.04442249,
                -0.57139061
              ],
              [
                -80.04444244,
                -0.57140243
              ],
              [
                -80.04445205,
                -0.57141574
              ],
              [
                -80.04445279,
                -0.57142904
              ],
              [
                -80.04444392,
                -0.57143348
              ],
              [
                -80.04443949,
                -0.57143569
              ],
              [
                -80.04441583,
                -0.57143643
              ],
              [
                -80.04439662,
                -0.57143052
              ],
              [
                -80.04436705,
                -0.57141722
              ],
              [
                -80.04433897,
                -0.57140613
              ],
              [
                -80.04431827,
                -0.57139948
              ],
              [
                -80.04429906,
                -0.57139504
              ],
              [
                -80.04428206,
                -0.57138765
              ],
              [
                -80.04426358,
                -0.57137583
              ],
              [
                -80.0442488,
                -0.57136622
              ],
              [
                -80.04422884,
                -0.57136104
              ],
              [
                -80.04421036,
                -0.57136917
              ],
              [
                -80.04420445,
                -0.57137509
              ],
              [
                -80.04419115,
                -0.57138617
              ],
              [
                -80.04417415,
                -0.57139356
              ],
              [
                -80.04415124,
                -0.57139652
              ],
              [
                -80.04412685,
                -0.57138987
              ],
              [
                -80.04411206,
                -0.57139209
              ],
              [
                -80.04408989,
                -0.57140133
              ],
              [
                -80.04407954,
                -0.57140687
              ],
              [
                -80.04406402,
                -0.5714065
              ],
              [
                -80.04405589,
                -0.57139948
              ],
              [
                -80.04404776,
                -0.57139948
              ],
              [
                -80.04404185,
                -0.57138543
              ],
              [
                -80.04403298,
                -0.57137841
              ],
              [
                -80.04401838,
                -0.57136936
              ],
              [
                -80.04401266,
                -0.57136511
              ],
              [
                -80.04400231,
                -0.57136271
              ],
              [
                -80.04398198,
                -0.57135975
              ],
              [
                -80.0439794,
                -0.57142719
              ],
              [
                -80.04392914,
                -0.57149297
              ],
              [
                -80.04395242,
                -0.57150923
              ],
              [
                -80.04395611,
                -0.57151589
              ],
              [
                -80.04396942,
                -0.57151958
              ],
              [
                -80.0439757,
                -0.5715218
              ],
              [
                -80.04398087,
                -0.57152549
              ],
              [
                -80.04399233,
                -0.57152993
              ],
              [
                -80.04400563,
                -0.5715351
              ],
              [
                -80.04401007,
                -0.57154175
              ],
              [
                -80.0440145,
                -0.57155432
              ],
              [
                -80.04401968,
                -0.57156614
              ],
              [
                -80.04402928,
                -0.57157132
              ],
              [
                -80.04404388,
                -0.57158499
              ],
              [
                -80.04404906,
                -0.5715922
              ],
              [
                -80.04408102,
                -0.57162269
              ],
              [
                -80.04408971,
                -0.57163155
              ],
              [
                -80.04409543,
                -0.57164357
              ],
              [
                -80.04409839,
                -0.57165705
              ],
              [
                -80.04409876,
                -0.57167017
              ],
              [
                -80.04409174,
                -0.57167923
              ],
              [
                -80.04407566,
                -0.57169881
              ],
              [
                -80.04406679,
                -0.57171729
              ],
              [
                -80.04406162,
                -0.57173133
              ],
              [
                -80.04405571,
                -0.57173392
              ],
              [
                -80.04404795,
                -0.57174242
              ],
              [
                -80.04404388,
                -0.57174833
              ],
              [
                -80.04403797,
                -0.57175572
              ],
              [
                -80.04403501,
                -0.57176348
              ],
              [
                -80.04403353,
                -0.57176977
              ],
              [
                -80.04402245,
                -0.57178233
              ],
              [
                -80.04401469,
                -0.571796
              ],
              [
                -80.04400693,
                -0.57180487
              ],
              [
                -80.04399917,
                -0.5718215
              ],
              [
                -80.04399288,
                -0.5718337
              ],
              [
                -80.04398697,
                -0.571847
              ],
              [
                -80.04398217,
                -0.57185957
              ],
              [
                -80.04398143,
                -0.57187102
              ],
              [
                -80.0439818,
                -0.57189541
              ],
              [
                -80.04398069,
                -0.57190096
              ],
              [
                -80.04397515,
                -0.57191204
              ],
              [
                -80.04397478,
                -0.57192387
              ],
              [
                -80.04397478,
                -0.57194309
              ],
              [
                -80.04397404,
                -0.57196674
              ],
              [
                -80.04397515,
                -0.5719793
              ],
              [
                -80.04398217,
                -0.57199926
              ],
              [
                -80.04399325,
                -0.57200517
              ],
              [
                -80.04400508,
                -0.57201773
              ],
              [
                -80.04401395,
                -0.57202808
              ],
              [
                -80.04406642,
                -0.57202882
              ],
              [
                -80.04408047,
                -0.57202291
              ],
              [
                -80.04410486,
                -0.57200813
              ],
              [
                -80.04412186,
                -0.5719963
              ],
              [
                -80.04415586,
                -0.57199334
              ],
              [
                -80.04417064,
                -0.5719963
              ],
              [
                -80.04420981,
                -0.57199187
              ],
              [
                -80.04423272,
                -0.57197413
              ],
              [
                -80.04425342,
                -0.57195565
              ],
              [
                -80.04427559,
                -0.57193717
              ],
              [
                -80.04429481,
                -0.57192387
              ],
              [
                -80.04430885,
                -0.57191648
              ],
              [
                -80.0443325,
                -0.57190244
              ],
              [
                -80.04434728,
                -0.57189024
              ],
              [
                -80.0444066,
                -0.57183462
              ],
              [
                -80.04442766,
                -0.57181504
              ],
              [
                -80.0445049,
                -0.57172542
              ],
              [
                -80.0445315,
                -0.57169142
              ],
              [
                -80.04457031,
                -0.57161086
              ]
            ]
          ]
        ]
      }
    },
    {
      "type": "Feature",
      "properties": {
        "Name": "Loma Nueva",
        "Date created": null,
        "Area": 0.25113204403295675,
        "Landuse description": "Succesional agroforesty to transition towards a climax production agroforest, with varying plots being optimized for different produce",
        "Plant census": "Cacao\t169\nInga\t28\nGlyricidia\t97\nTrichanthera\t150\nJackfruit\t111\nAmarillo\t22\nAvocado\t19\nAcacia Mangium\t4\nSoursop\t0\nCitrus\t1\nMango\t11\nBrazillian Fern Tree\t99\nEucalyptus\t0\nPapaya\t0\nTeak\t0\ncoconut\t0\npachiche\t2\ncaucho\t2\nGmelina\t42\nguachapeli\t0\nleucaena\t1\nFernan Sanchez\t3\nJaboncillo\t0\nPlantain/ Banana\t69\nMoral Fino\t0\nMulchi\t0\nSumango\t0",
        "Insights": null,
        "Past use history": "Pasture",
        "_rfi_source_fid": 5
      },
      "geometry": {
        "type": "MultiPolygon",
        "coordinates": [
          [
            [
              [
                -80.04359211,
                -0.57337288
              ],
              [
                -80.04354554,
                -0.57333001
              ],
              [
                -80.04348642,
                -0.57326349
              ],
              [
                -80.04344133,
                -0.57320362
              ],
              [
                -80.04341842,
                -0.57316223
              ],
              [
                -80.04339255,
                -0.57309534
              ],
              [
                -80.04337942,
                -0.57305239
              ],
              [
                -80.04325842,
                -0.57317309
              ],
              [
                -80.04311816,
                -0.5730229
              ],
              [
                -80.04310171,
                -0.57305248
              ],
              [
                -80.04309211,
                -0.57308056
              ],
              [
                -80.04307732,
                -0.57311308
              ],
              [
                -80.04306624,
                -0.57314265
              ],
              [
                -80.04305959,
                -0.57316482
              ],
              [
                -80.04306882,
                -0.57320159
              ],
              [
                -80.04308361,
                -0.57323559
              ],
              [
                -80.04311021,
                -0.5732755
              ],
              [
                -80.04313534,
                -0.57331245
              ],
              [
                -80.04316121,
                -0.57334793
              ],
              [
                -80.04318412,
                -0.57337676
              ],
              [
                -80.04320925,
                -0.57340262
              ],
              [
                -80.04323586,
                -0.57343441
              ],
              [
                -80.04325508,
                -0.5734588
              ],
              [
                -80.04327725,
                -0.57347949
              ],
              [
                -80.0433009,
                -0.57349945
              ],
              [
                -80.04331421,
                -0.57350758
              ],
              [
                -80.04332455,
                -0.57351423
              ],
              [
                -80.04332973,
                -0.57352901
              ],
              [
                -80.04334155,
                -0.57354971
              ],
              [
                -80.04334968,
                -0.5735704
              ],
              [
                -80.04335707,
                -0.57358075
              ],
              [
                -80.04337019,
                -0.57359297
              ],
              [
                -80.04338794,
                -0.57361019
              ],
              [
                -80.04340648,
                -0.573598
              ],
              [
                -80.04342662,
                -0.57358529
              ],
              [
                -80.04344383,
                -0.57357019
              ],
              [
                -80.04346105,
                -0.57355615
              ],
              [
                -80.04348092,
                -0.57353417
              ],
              [
                -80.04348993,
                -0.57352092
              ],
              [
                -80.04349681,
                -0.57351165
              ],
              [
                -80.04350476,
                -0.57350132
              ],
              [
                -80.04351721,
                -0.57348437
              ],
              [
                -80.04353204,
                -0.5734653
              ],
              [
                -80.04354873,
                -0.57344305
              ],
              [
                -80.04359211,
                -0.57337288
              ]
            ]
          ]
        ]
      }
    },
    {
      "type": "Feature",
      "properties": {
        "Name": "Syntropic 2",
        "Date created": null,
        "Area": 0.5451468393779724,
        "Landuse description": "Succesional agroforesty to transition towards a climax production agroforest, with varying plots being optimized for different produce",
        "Plant census": "Cacao\t467\nInga\t550\nGlyricidia\t490\nTrichanthera\t370\nJackfruit\t243\nAmarillo\t191\nAvocado\t50\nAcacia Mangium\t270\nSoursop\t18\nCitrus\t0\nMango\t102\nBrazillian Fern Tree\t121\nEucalyptus\t142\nPapaya\t0\nTeak\t119\ncoconut\t19\npachiche\t4\ncaucho\t1\nGmelina\t83\nguachapeli\t39\nleucaena\t0\nFernan Sanchez\t110\nJaboncillo\t0\nPlantain/ Banana\t0\nMoral Fino\t0\nMulchi\t0\nSumango\t0",
        "Insights": null,
        "Past use history": "Pasture",
        "_rfi_source_fid": 6
      },
      "geometry": {
        "type": "MultiPolygon",
        "coordinates": [
          [
            [
              [
                -80.04339698,
                -0.57380765
              ],
              [
                -80.04335264,
                -0.57391039
              ],
              [
                -80.04342581,
                -0.57400351
              ],
              [
                -80.04341103,
                -0.57403455
              ],
              [
                -80.0434369,
                -0.5740656
              ],
              [
                -80.04309174,
                -0.57427772
              ],
              [
                -80.04279831,
                -0.57391186
              ],
              [
                -80.04276579,
                -0.57384941
              ],
              [
                -80.0428131,
                -0.57378696
              ],
              [
                -80.04275175,
                -0.57371452
              ],
              [
                -80.04277023,
                -0.57367092
              ],
              [
                -80.0427281,
                -0.57359109
              ],
              [
                -80.04270611,
                -0.57342554
              ],
              [
                -80.042688,
                -0.57336253
              ],
              [
                -80.042773,
                -0.57327568
              ],
              [
                -80.04292895,
                -0.57322173
              ],
              [
                -80.04339698,
                -0.57380765
              ]
            ]
          ]
        ]
      }
    },
    {
      "type": "Feature",
      "properties": {
        "Name": "Syntropic 1",
        "Date created": null,
        "Area": 1.0635004932611802,
        "Landuse description": "Succesional agroforesty to transition towards a climax production agroforest, with varying plots being optimized for different produce",
        "Plant census": "Cacao\t910\nInga\t894\nGlyricidia\t838\nTrichanthera\t1034\nJackfruit\t455\nAmarillo\t482\nAvocado\t157\nAcacia Mangium\t348\nSoursop\t149\nCitrus\t81\nMango\t\nBrazillian Fern Tree\t\nEucalyptus\t\nPapaya\t\nTeak\t\ncoconut\t\npachiche\t\ncaucho\t12\nGmelina\t11\nguachapeli\t34\nleucaena\t23\nFernan Sanchez\t0\nJaboncillo\t0\nPlantain/ Banana\t0\nMoral Fino\t0\nMulchi\t0\nSumango\t0",
        "Insights": null,
        "Past use history": "Mandarins and cacao",
        "_rfi_source_fid": 7
      },
      "geometry": {
        "type": "MultiPolygon",
        "coordinates": [
          [
            [
              [
                -80.0445789,
                -0.57436093
              ],
              [
                -80.04468361,
                -0.57431352
              ],
              [
                -80.04480412,
                -0.57423054
              ],
              [
                -80.04488315,
                -0.57416337
              ],
              [
                -80.04472201,
                -0.57397192
              ],
              [
                -80.04471203,
                -0.57395806
              ],
              [
                -80.04470833,
                -0.57393995
              ],
              [
                -80.04471092,
                -0.57392572
              ],
              [
                -80.04471166,
                -0.57391205
              ],
              [
                -80.04472182,
                -0.57387399
              ],
              [
                -80.04479573,
                -0.57377347
              ],
              [
                -80.04484525,
                -0.57372395
              ],
              [
                -80.04490142,
                -0.57367886
              ],
              [
                -80.04495316,
                -0.57361678
              ],
              [
                -80.04497829,
                -0.57357835
              ],
              [
                -80.04505368,
                -0.57345418
              ],
              [
                -80.04510837,
                -0.57335809
              ],
              [
                -80.0451202,
                -0.57330636
              ],
              [
                -80.04510911,
                -0.57314375
              ],
              [
                -80.04509655,
                -0.57309719
              ],
              [
                -80.0450862,
                -0.57308389
              ],
              [
                -80.04505663,
                -0.57307354
              ],
              [
                -80.04498568,
                -0.57303067
              ],
              [
                -80.04494133,
                -0.57299076
              ],
              [
                -80.04489403,
                -0.57296711
              ],
              [
                -80.04481125,
                -0.57296711
              ],
              [
                -80.04471813,
                -0.57298485
              ],
              [
                -80.04463535,
                -0.57300998
              ],
              [
                -80.04455405,
                -0.57304989
              ],
              [
                -80.04444466,
                -0.57311789
              ],
              [
                -80.04438036,
                -0.57316519
              ],
              [
                -80.04434636,
                -0.57319771
              ],
              [
                -80.04431458,
                -0.57323466
              ],
              [
                -80.04427319,
                -0.57330562
              ],
              [
                -80.04426062,
                -0.57335883
              ],
              [
                -80.0442318,
                -0.57341944
              ],
              [
                -80.04418671,
                -0.57348965
              ],
              [
                -80.04415419,
                -0.57355543
              ],
              [
                -80.0441165,
                -0.57365373
              ],
              [
                -80.04409802,
                -0.57370177
              ],
              [
                -80.0440788,
                -0.5737439
              ],
              [
                -80.04406772,
                -0.57376977
              ],
              [
                -80.04405072,
                -0.57380599
              ],
              [
                -80.0445789,
                -0.57436093
              ]
            ]
          ]
        ]
      }
    },
    {
      "type": "Feature",
      "properties": {
        "Name": "Loma Guachapeli",
        "Date created": null,
        "Area": 0.2317733599676693,
        "Landuse description": "Succesional agroforesty to transition towards a climax production agroforest, with varying plots being optimized for different produce",
        "Plant census": "Cacao\t105\nInga\t142\nGlyricidia\t0\nTrichanthera\t41\nJackfruit\t117\nAmarillo\t87\nAvocado\t2\nAcacia Mangium\t1\nSoursop\t8\nCitrus\t0\nMango\t17\nBrazillian Fern Tree\t50\nEucalyptus\t0\nPapaya\t0\nTeak\t0\ncoconut\t0\npachiche\t5\ncaucho\t1\nGmelina\t25\nguachapeli\t15\nleucaena\t26\nFernan Sanchez\t21\nJaboncillo\t0\nPlantain/ Banana\t1\nMoral Fino\t6\nMulchi\t11\nSumango\t0",
        "Insights": null,
        "Past use history": "Pasture",
        "_rfi_source_fid": 8
      },
      "geometry": {
        "type": "MultiPolygon",
        "coordinates": [
          [
            [
              [
                -80.0448349,
                -0.57180081
              ],
              [
                -80.04462648,
                -0.57164855
              ],
              [
                -80.04460578,
                -0.57167073
              ],
              [
                -80.044591,
                -0.57168699
              ],
              [
                -80.04457326,
                -0.57171655
              ],
              [
                -80.04456735,
                -0.57175203
              ],
              [
                -80.0445675,
                -0.57177591
              ],
              [
                -80.04456591,
                -0.57180452
              ],
              [
                -80.04455848,
                -0.57183481
              ],
              [
                -80.04454896,
                -0.57185432
              ],
              [
                -80.04454207,
                -0.57187021
              ],
              [
                -80.04453094,
                -0.57188928
              ],
              [
                -80.04451187,
                -0.57192318
              ],
              [
                -80.04449386,
                -0.57195497
              ],
              [
                -80.04447903,
                -0.57198781
              ],
              [
                -80.04445995,
                -0.57200794
              ],
              [
                -80.04443452,
                -0.57204185
              ],
              [
                -80.04440238,
                -0.57207505
              ],
              [
                -80.04437814,
                -0.57210088
              ],
              [
                -80.0443604,
                -0.5721201
              ],
              [
                -80.04434658,
                -0.57213897
              ],
              [
                -80.04433069,
                -0.57215839
              ],
              [
                -80.04430526,
                -0.57219336
              ],
              [
                -80.04428866,
                -0.57222197
              ],
              [
                -80.04426711,
                -0.57224951
              ],
              [
                -80.04423032,
                -0.57228418
              ],
              [
                -80.04420667,
                -0.57230192
              ],
              [
                -80.04418305,
                -0.57231732
              ],
              [
                -80.04415621,
                -0.57232968
              ],
              [
                -80.04412866,
                -0.57234911
              ],
              [
                -80.0441216,
                -0.57238407
              ],
              [
                -80.04414089,
                -0.57240851
              ],
              [
                -80.04415303,
                -0.57242009
              ],
              [
                -80.04416186,
                -0.57243175
              ],
              [
                -80.0441808,
                -0.57245565
              ],
              [
                -80.04419484,
                -0.57247191
              ],
              [
                -80.0442015,
                -0.57247782
              ],
              [
                -80.04424584,
                -0.57248226
              ],
              [
                -80.0442961,
                -0.57248004
              ],
              [
                -80.04433306,
                -0.57247487
              ],
              [
                -80.04436262,
                -0.57247191
              ],
              [
                -80.04439366,
                -0.57247117
              ],
              [
                -80.0444247,
                -0.57245713
              ],
              [
                -80.04444835,
                -0.57243496
              ],
              [
                -80.04445575,
                -0.57241944
              ],
              [
                -80.04446609,
                -0.57238026
              ],
              [
                -80.04448014,
                -0.57233148
              ],
              [
                -80.04449048,
                -0.57230488
              ],
              [
                -80.04450453,
                -0.57225905
              ],
              [
                -80.04452374,
                -0.57222505
              ],
              [
                -80.04453631,
                -0.57221175
              ],
              [
                -80.044574,
                -0.57214966
              ],
              [
                -80.04458583,
                -0.57212158
              ],
              [
                -80.04463091,
                -0.57204693
              ],
              [
                -80.04465752,
                -0.57200406
              ],
              [
                -80.04470187,
                -0.57193015
              ],
              [
                -80.04472108,
                -0.57189467
              ],
              [
                -80.04474621,
                -0.57187694
              ],
              [
                -80.04476543,
                -0.57186659
              ],
              [
                -80.04479795,
                -0.57185181
              ],
              [
                -80.04482456,
                -0.57183555
              ],
              [
                -80.0448349,
                -0.57180081
              ]
            ]
          ]
        ]
      }
    },
    {
      "type": "Feature",
      "properties": {
        "Name": "Loma Terraces",
        "Date created": null,
        "Area": 0.17296163514333876,
        "Landuse description": "Succesional agroforesty to transition towards a climax production agroforest, with varying plots being optimized for different produce",
        "Plant census": "Cacao\t91\nInga\t54\nGlyricidia\t0\nTrichanthera\t86\nJackfruit\t9\nAmarillo\t38\nAvocado\t0\nAcacia Mangium\t2\nSoursop\t0\nCitrus\t0\nMango\t13\nBrazillian Fern Tree\t20\nEucalyptus\t0\nPapaya\t0\nTeak\t0\ncoconut\t0\npachiche\t2\ncaucho\t1\nGmelina\t2\nguachapeli\t1\nleucaena\t2\nFernan Sanchez\t5\nJaboncillo\t1\nPlantain/ Banana\t28\nMoral Fino\t0\nMulchi\t0\nSumango\t0",
        "Insights": null,
        "Past use history": "Pasture",
        "_rfi_source_fid": 9
      },
      "geometry": {
        "type": "MultiPolygon",
        "coordinates": [
          [
            [
              [
                -80.04427664,
                -0.57296171
              ],
              [
                -80.04418553,
                -0.5729947
              ],
              [
                -80.04410924,
                -0.5730166
              ],
              [
                -80.04400893,
                -0.57306533
              ],
              [
                -80.0439277,
                -0.57313738
              ],
              [
                -80.04387437,
                -0.57318806
              ],
              [
                -80.04381632,
                -0.57311976
              ],
              [
                -80.04379459,
                -0.57304469
              ],
              [
                -80.04379064,
                -0.57302098
              ],
              [
                -80.0439151,
                -0.57301703
              ],
              [
                -80.04391675,
                -0.57297033
              ],
              [
                -80.04393512,
                -0.57289828
              ],
              [
                -80.04397114,
                -0.57280717
              ],
              [
                -80.04400999,
                -0.5727549
              ],
              [
                -80.04404249,
                -0.57271958
              ],
              [
                -80.04406327,
                -0.57266142
              ],
              [
                -80.04408303,
                -0.57262388
              ],
              [
                -80.04413242,
                -0.57257054
              ],
              [
                -80.04417588,
                -0.57256264
              ],
              [
                -80.04419761,
                -0.57256066
              ],
              [
                -80.04422329,
                -0.57259227
              ],
              [
                -80.0442391,
                -0.57265154
              ],
              [
                -80.04427466,
                -0.57277798
              ],
              [
                -80.04427664,
                -0.57296171
              ]
            ]
          ]
        ]
      }
    },
    {
      "type": "Feature",
      "properties": {
        "Name": "Loma de Curcuma",
        "Date created": null,
        "Area": 0.23441615552193543,
        "Landuse description": "Succesional agroforesty to transition towards a climax production agroforest, with varying plots being optimized for different produce",
        "Plant census": "Cacao\t361\nInga\t216\nGlyricidia\t111\nTrichanthera\t244\nJackfruit\t127\nAmarillo\t139\nAvocado\t32\nAcacia Mangium\t0\nSoursop\t0\nCitrus\t0\nMango\t14\nBrazillian Fern Tree\t17\nEucalyptus\t2\nPapaya\t0\nTeak\t0\ncoconut\t0\npachiche\t0\ncaucho\t0\nGmelina\t0\nguachapeli\t0\nleucaena\t0\nFernan Sanchez\t0\nJaboncillo\t48\nPlantain/ Banana\t0\nMoral Fino\t0\nMulchi\t0\nSumango\t0",
        "Insights": null,
        "Past use history": "Pasture",
        "_rfi_source_fid": 10
      },
      "geometry": {
        "type": "MultiPolygon",
        "coordinates": [
          [
            [
              [
                -80.04427382,
                -0.57296927
              ],
              [
                -80.04423712,
                -0.57313161
              ],
              [
                -80.04419168,
                -0.57329756
              ],
              [
                -80.04410476,
                -0.57336671
              ],
              [
                -80.04401981,
                -0.57345166
              ],
              [
                -80.04397832,
                -0.57348722
              ],
              [
                -80.04393683,
                -0.57351093
              ],
              [
                -80.04385188,
                -0.57355242
              ],
              [
                -80.04379656,
                -0.57355637
              ],
              [
                -80.04375705,
                -0.57352673
              ],
              [
                -80.04368488,
                -0.57347722
              ],
              [
                -80.04365787,
                -0.57345232
              ],
              [
                -80.0436282,
                -0.57342424
              ],
              [
                -80.0435927,
                -0.57338663
              ],
              [
                -80.04358793,
                -0.57338186
              ],
              [
                -80.04367408,
                -0.57330942
              ],
              [
                -80.04376495,
                -0.57325015
              ],
              [
                -80.04387614,
                -0.57318965
              ],
              [
                -80.04391145,
                -0.57315574
              ],
              [
                -80.04396514,
                -0.57310701
              ],
              [
                -80.04401035,
                -0.57306816
              ],
              [
                -80.04410924,
                -0.57301942
              ],
              [
                -80.04416434,
                -0.57300318
              ],
              [
                -80.04427382,
                -0.57296927
              ]
            ]
          ]
        ]
      }
    },
    {
      "type": "Feature",
      "properties": {
        "Name": "Syntropic 3",
        "Date created": "2026-08-03",
        "Area": 2.3515119578054122,
        "Landuse description": "Recently cleared area that is being prepared for planting a new syntropic system",
        "Plant census": null,
        "Insights": null,
        "Past use history": "Diseased citrus and cacao monocrops",
        "_rfi_source_fid": 12
      },
      "geometry": {
        "type": "MultiPolygon",
        "coordinates": [
          [
            [
              [
                -80.04727742,
                -0.57504316
              ],
              [
                -80.04732787,
                -0.57500133
              ],
              [
                -80.04719753,
                -0.57494164
              ],
              [
                -80.0471013,
                -0.57489414
              ],
              [
                -80.04702238,
                -0.57486154
              ],
              [
                -80.04696267,
                -0.57484661
              ],
              [
                -80.04690762,
                -0.57484055
              ],
              [
                -80.04686499,
                -0.57483811
              ],
              [
                -80.04680342,
                -0.57483417
              ],
              [
                -80.04678103,
                -0.57483417
              ],
              [
                -80.04661681,
                -0.57487895
              ],
              [
                -80.04643012,
                -0.57494286
              ],
              [
                -80.04636053,
                -0.57491876
              ],
              [
                -80.04633564,
                -0.57491379
              ],
              [
                -80.04629832,
                -0.57490383
              ],
              [
                -80.04598232,
                -0.57472967
              ],
              [
                -80.04580815,
                -0.57465503
              ],
              [
                -80.0457335,
                -0.57460278
              ],
              [
                -80.04565637,
                -0.5745555
              ],
              [
                -80.04558172,
                -0.57452565
              ],
              [
                -80.04544487,
                -0.57445101
              ],
              [
                -80.04532046,
                -0.57442115
              ],
              [
                -80.04520601,
                -0.57439627
              ],
              [
                -80.04511236,
                -0.57439488
              ],
              [
                -80.04505672,
                -0.57437139
              ],
              [
                -80.04502188,
                -0.57433158
              ],
              [
                -80.04493728,
                -0.57436641
              ],
              [
                -80.04481287,
                -0.57447091
              ],
              [
                -80.04472828,
                -0.5745356
              ],
              [
                -80.04464865,
                -0.57462019
              ],
              [
                -80.0445342,
                -0.57475953
              ],
              [
                -80.04442969,
                -0.574869
              ],
              [
                -80.04435505,
                -0.57493369
              ],
              [
                -80.0443451,
                -0.57495857
              ],
              [
                -80.04464865,
                -0.57495359
              ],
              [
                -80.0449435,
                -0.5750357
              ],
              [
                -80.04517366,
                -0.57519245
              ],
              [
                -80.04527568,
                -0.57529695
              ],
              [
                -80.04535779,
                -0.57533178
              ],
              [
                -80.04541502,
                -0.57537656
              ],
              [
                -80.04542746,
                -0.57544125
              ],
              [
                -80.04544239,
                -0.57546862
              ],
              [
                -80.04547971,
                -0.57555819
              ],
              [
                -80.04549215,
                -0.57561044
              ],
              [
                -80.04550957,
                -0.57568011
              ],
              [
                -80.04554191,
                -0.57570996
              ],
              [
                -80.04558172,
                -0.57573733
              ],
              [
                -80.04562651,
                -0.57578709
              ],
              [
                -80.04568125,
                -0.57581944
              ],
              [
                -80.04573599,
                -0.57581944
              ],
              [
                -80.04583552,
                -0.57578212
              ],
              [
                -80.04589524,
                -0.57573982
              ],
              [
                -80.04590768,
                -0.57570001
              ],
              [
                -80.045945,
                -0.57566269
              ],
              [
                -80.04598979,
                -0.57565025
              ],
              [
                -80.04605946,
                -0.57564528
              ],
              [
                -80.04608434,
                -0.57564776
              ],
              [
                -80.04613908,
                -0.57565274
              ],
              [
                -80.04625851,
                -0.5756403
              ],
              [
                -80.04631325,
                -0.57561542
              ],
              [
                -80.04635306,
                -0.57559054
              ],
              [
                -80.04636301,
                -0.5755358
              ],
              [
                -80.0463655,
                -0.57550097
              ],
              [
                -80.04637048,
                -0.57549102
              ],
              [
                -80.04638541,
                -0.57547111
              ],
              [
                -80.04639785,
                -0.57546613
              ],
              [
                -80.04642273,
                -0.57547609
              ],
              [
                -80.04644761,
                -0.57548355
              ],
              [
                -80.04648245,
                -0.57547609
              ],
              [
                -80.04649489,
                -0.57545121
              ],
              [
                -80.04650484,
                -0.57544125
              ],
              [
                -80.04660686,
                -0.57540393
              ],
              [
                -80.04661681,
                -0.57539896
              ],
              [
                -80.04668399,
                -0.57537159
              ],
              [
                -80.04672131,
                -0.57536164
              ],
              [
                -80.04673624,
                -0.57534173
              ],
              [
                -80.0467661,
                -0.57531685
              ],
              [
                -80.04678601,
                -0.5753069
              ],
              [
                -80.04685443,
                -0.57530939
              ],
              [
                -80.04690668,
                -0.57529321
              ],
              [
                -80.04692908,
                -0.57527455
              ],
              [
                -80.04693654,
                -0.57525963
              ],
              [
                -80.0469664,
                -0.57525963
              ],
              [
                -80.04698506,
                -0.57525216
              ],
              [
                -80.04700497,
                -0.57523475
              ],
              [
                -80.04704105,
                -0.57518747
              ],
              [
                -80.04705597,
                -0.5751713
              ],
              [
                -80.04717541,
                -0.57512029
              ],
              [
                -80.04720278,
                -0.57509044
              ],
              [
                -80.04723761,
                -0.57506556
              ],
              [
                -80.04727742,
                -0.57504316
              ]
            ]
          ]
        ]
      }
    },
    {
      "type": "Feature",
      "properties": {
        "Name": "Syntropic taller de mauro 2",
        "Date created": null,
        "Area": 0.0626025405652108,
        "Landuse description": "Succesional agroforesty to transition towards a climax production agroforest, with varying plots being optimized for different produce. Also planted by Mauro",
        "Plant census": "Cacao\t30\nInga\t0\nGlyricidia\t5\nTrichanthera\t33\nJackfruit\t0\nAmarillo\t18\nAvocado\t8\nAcacia Mangium\t0\nSoursop\t1\nCitrus\t0\nMango\t0\nBrazillian Fern Tree\t18\nEucalyptus\t0\nPapaya\t0\nTeak\t0\ncoconut\t0\npachiche\t0\ncaucho\t0\nGmelina\t0\nguachapeli\t0\nleucaena\t9\nFernan Sanchez\t0\nJaboncillo\t0\nPlantain/ Banana\t20\nMoral Fino\t0\nMulchi\t0\nSumango\t0",
        "Insights": null,
        "Past use history": "Pasture",
        "_rfi_source_fid": 13
      },
      "geometry": {
        "type": "MultiPolygon",
        "coordinates": [
          [
            [
              [
                -80.04337971,
                -0.57305107
              ],
              [
                -80.04325842,
                -0.57317324
              ],
              [
                -80.04311786,
                -0.57302232
              ],
              [
                -80.04317055,
                -0.57293271
              ],
              [
                -80.04318749,
                -0.57290804
              ],
              [
                -80.04320135,
                -0.57289534
              ],
              [
                -80.04322047,
                -0.57287608
              ],
              [
                -80.04323916,
                -0.57287243
              ],
              [
                -80.04325959,
                -0.57286586
              ],
              [
                -80.04328002,
                -0.57286411
              ],
              [
                -80.0432953,
                -0.5728628
              ],
              [
                -80.04330912,
                -0.57286941
              ],
              [
                -80.04332702,
                -0.57288367
              ],
              [
                -80.04333958,
                -0.57290614
              ],
              [
                -80.04335125,
                -0.5729473
              ],
              [
                -80.04336556,
                -0.57300043
              ],
              [
                -80.04337971,
                -0.57305107
              ]
            ]
          ]
        ]
      }
    }
  ]
}
