{
  "type": "FeatureCollection",
  "name": "Timber",
  "xy_coordinate_resolution": 1e-08,
  "features": [
    {
      "type": "Feature",
      "properties": {
        "Name": "Balsa",
        "Date Created": null,
        "Area": null,
        "Landuse description": "Production of balsa for the end use case of airplane and or wind turbine blades",
        "Plant census": null,
        "Insights": null,
        "Past use history": "Pasture",
        "_rfi_source_fid": 1
      },
      "geometry": {
        "type": "MultiPolygon",
        "coordinates": [
          [
            [
              [
                -80.04311283,
                -0.57303138
              ],
              [
                -80.04310094,
                -0.57305279
              ],
              [
                -80.0430938,
                -0.57307479
              ],
              [
                -80.04304028,
                -0.57307182
              ],
              [
                -80.04301828,
                -0.57308609
              ],
              [
                -80.04301768,
                -0.57311404
              ],
              [
                -80.04301768,
                -0.57314021
              ],
              [
                -80.04301174,
                -0.57315805
              ],
              [
                -80.04299717,
                -0.57317381
              ],
              [
                -80.042982,
                -0.57318362
              ],
              [
                -80.04297249,
                -0.57318719
              ],
              [
                -80.04295613,
                -0.57318957
              ],
              [
                -80.04294127,
                -0.57319314
              ],
              [
                -80.04292699,
                -0.57319641
              ],
              [
                -80.04291421,
                -0.57319819
              ],
              [
                -80.04289756,
                -0.57320325
              ],
              [
                -80.04286842,
                -0.57321187
              ],
              [
                -80.04284582,
                -0.57321841
              ],
              [
                -80.04282441,
                -0.57322317
              ],
              [
                -80.04279884,
                -0.5732315
              ],
              [
                -80.04277921,
                -0.57323804
              ],
              [
                -80.04276197,
                -0.57324279
              ],
              [
                -80.04274829,
                -0.57324636
              ],
              [
                -80.04272331,
                -0.57324696
              ],
              [
                -80.04270963,
                -0.57324517
              ],
              [
                -80.0427019,
                -0.57323982
              ],
              [
                -80.04269536,
                -0.57323447
              ],
              [
                -80.04268406,
                -0.5732196
              ],
              [
                -80.04267931,
                -0.57321276
              ],
              [
                -80.04267455,
                -0.57320741
              ],
              [
                -80.0426686,
                -0.57320206
              ],
              [
                -80.04266295,
                -0.57319819
              ],
              [
                -80.04265522,
                -0.57319433
              ],
              [
                -80.04264957,
                -0.57318838
              ],
              [
                -80.04264452,
                -0.57317738
              ],
              [
                -80.04264362,
                -0.57316905
              ],
              [
                -80.04264422,
                -0.57315002
              ],
              [
                -80.04264957,
                -0.57314051
              ],
              [
                -80.04265938,
                -0.57312653
              ],
              [
                -80.04267098,
                -0.57311077
              ],
              [
                -80.04268287,
                -0.57309947
              ],
              [
                -80.04269447,
                -0.57308847
              ],
              [
                -80.04270785,
                -0.57307926
              ],
              [
                -80.04271276,
                -0.57307271
              ],
              [
                -80.04271974,
                -0.57306483
              ],
              [
                -80.04272911,
                -0.57305413
              ],
              [
                -80.04273759,
                -0.57304357
              ],
              [
                -80.04274992,
                -0.57303004
              ],
              [
                -80.04275111,
                -0.5730235
              ],
              [
                -80.04275602,
                -0.57301295
              ],
              [
                -80.04276747,
                -0.57298975
              ],
              [
                -80.04277297,
                -0.57298738
              ],
              [
                -80.04277698,
                -0.5729847
              ],
              [
                -80.04278531,
                -0.57298277
              ],
              [
                -80.042792,
                -0.57298083
              ],
              [
                -80.04279928,
                -0.57297935
              ],
              [
                -80.04280419,
                -0.57297801
              ],
              [
                -80.04281489,
                -0.57297563
              ],
              [
                -80.04282486,
                -0.57297429
              ],
              [
                -80.04283155,
                -0.5729734
              ],
              [
                -80.04284195,
                -0.57296671
              ],
              [
                -80.0428476,
                -0.5729627
              ],
              [
                -80.04285652,
                -0.57295496
              ],
              [
                -80.04286589,
                -0.57294619
              ],
              [
                -80.0428757,
                -0.57293029
              ],
              [
                -80.04287986,
                -0.57291958
              ],
              [
                -80.04288284,
                -0.5729172
              ],
              [
                -80.0428876,
                -0.57291185
              ],
              [
                -80.04289235,
                -0.57290531
              ],
              [
                -80.04289533,
                -0.57290055
              ],
              [
                -80.04289889,
                -0.57288628
              ],
              [
                -80.04289949,
                -0.57287319
              ],
              [
                -80.04290246,
                -0.57286487
              ],
              [
                -80.04290425,
                -0.57285298
              ],
              [
                -80.04290544,
                -0.57284346
              ],
              [
                -80.04290544,
                -0.572828
              ],
              [
                -80.04290544,
                -0.5727947
              ],
              [
                -80.04290544,
                -0.57278518
              ],
              [
                -80.04290841,
                -0.57277686
              ],
              [
                -80.04291019,
                -0.57276793
              ],
              [
                -80.04291019,
                -0.57276199
              ],
              [
                -80.04291733,
                -0.57275307
              ],
              [
                -80.0429209,
                -0.57274653
              ],
              [
                -80.04292685,
                -0.57273642
              ],
              [
                -80.04293577,
                -0.57272809
              ],
              [
                -80.0429435,
                -0.57272036
              ],
              [
                -80.04294944,
                -0.57271144
              ],
              [
                -80.04295985,
                -0.57270282
              ],
              [
                -80.04296728,
                -0.57269598
              ],
              [
                -80.04297055,
                -0.5726936
              ],
              [
                -80.04297353,
                -0.57269241
              ],
              [
                -80.04297561,
                -0.57269241
              ],
              [
                -80.04297591,
                -0.57266803
              ],
              [
                -80.04297115,
                -0.57266624
              ],
              [
                -80.04297145,
                -0.57265584
              ],
              [
                -80.0429655,
                -0.57265316
              ],
              [
                -80.04296639,
                -0.57262789
              ],
              [
                -80.04296104,
                -0.57262536
              ],
              [
                -80.04296119,
                -0.57262045
              ],
              [
                -80.04295123,
                -0.57261555
              ],
              [
                -80.04294706,
                -0.57260781
              ],
              [
                -80.04294558,
                -0.57259354
              ],
              [
                -80.04294588,
                -0.57258284
              ],
              [
                -80.04296639,
                -0.57256292
              ],
              [
                -80.04297085,
                -0.57256262
              ],
              [
                -80.04298096,
                -0.57255727
              ],
              [
                -80.04298691,
                -0.57255608
              ],
              [
                -80.04299672,
                -0.57255221
              ],
              [
                -80.04300594,
                -0.5725537
              ],
              [
                -80.04300802,
                -0.57255727
              ],
              [
                -80.0430107,
                -0.57256173
              ],
              [
                -80.04301099,
                -0.57256916
              ],
              [
                -80.04301367,
                -0.57258224
              ],
              [
                -80.04302051,
                -0.57258254
              ],
              [
                -80.04302081,
                -0.57260246
              ],
              [
                -80.0430214,
                -0.5726316
              ],
              [
                -80.0430214,
                -0.57264944
              ],
              [
                -80.04302289,
                -0.57265658
              ],
              [
                -80.04302616,
                -0.57266609
              ],
              [
                -80.04302735,
                -0.57267531
              ],
              [
                -80.04302973,
                -0.57268066
              ],
              [
                -80.04303389,
                -0.57269048
              ],
              [
                -80.04303627,
                -0.57269642
              ],
              [
                -80.04304043,
                -0.57270594
              ],
              [
                -80.04304578,
                -0.57271129
              ],
              [
                -80.04304935,
                -0.57271783
              ],
              [
                -80.0430547,
                -0.57272616
              ],
              [
                -80.04305946,
                -0.57273092
              ],
              [
                -80.04306481,
                -0.57273865
              ],
              [
                -80.04306927,
                -0.57274192
              ],
              [
                -80.04307373,
                -0.57274549
              ],
              [
                -80.0430779,
                -0.57275024
              ],
              [
                -80.04308949,
                -0.57277165
              ],
              [
                -80.04309247,
                -0.57277909
              ],
              [
                -80.04309574,
                -0.5727889
              ],
              [
                -80.04309633,
                -0.57279782
              ],
              [
                -80.04309782,
                -0.57280823
              ],
              [
                -80.04310079,
                -0.57282398
              ],
              [
                -80.04310525,
                -0.57283469
              ],
              [
                -80.04310882,
                -0.57284718
              ],
              [
                -80.0431112,
                -0.57285372
              ],
              [
                -80.04311893,
                -0.57287543
              ],
              [
                -80.04312309,
                -0.57288018
              ],
              [
                -80.04312785,
                -0.57289564
              ],
              [
                -80.04313142,
                -0.57290754
              ],
              [
                -80.0431332,
                -0.57292716
              ],
              [
                -80.04313201,
                -0.57294084
              ],
              [
                -80.04312785,
                -0.57295273
              ],
              [
                -80.04312488,
                -0.57295987
              ],
              [
                -80.04312131,
                -0.5729676
              ],
              [
                -80.04311655,
                -0.57297652
              ],
              [
                -80.04311283,
                -0.57303138
              ]
            ]
          ]
        ]
      }
    },
    {
      "type": "Feature",
      "properties": {
        "Name": "Balsa",
        "Date Created": null,
        "Area": null,
        "Landuse description": null,
        "Plant census": null,
        "Insights": null,
        "Past use history": "Pasture",
        "_rfi_source_fid": 2
      },
      "geometry": {
        "type": "MultiPolygon",
        "coordinates": [
          [
            [
              [
                -80.04362425,
                -0.57239047
              ],
              [
                -80.04358548,
                -0.57240041
              ],
              [
                -80.04355268,
                -0.57239743
              ],
              [
                -80.04353081,
                -0.57239445
              ],
              [
                -80.04350099,
                -0.57239345
              ],
              [
                -80.04349204,
                -0.57239544
              ],
              [
                -80.04347316,
                -0.57239942
              ],
              [
                -80.04343737,
                -0.57241135
              ],
              [
                -80.04342246,
                -0.57241433
              ],
              [
                -80.04339662,
                -0.57242029
              ],
              [
                -80.0433489,
                -0.57242029
              ],
              [
                -80.04333399,
                -0.57241334
              ],
              [
                -80.04330914,
                -0.57238451
              ],
              [
                -80.04329622,
                -0.57234574
              ],
              [
                -80.04328031,
                -0.57231592
              ],
              [
                -80.04326739,
                -0.57228809
              ],
              [
                -80.04325944,
                -0.57226026
              ],
              [
                -80.04326043,
                -0.57222049
              ],
              [
                -80.04326839,
                -0.57219465
              ],
              [
                -80.04328727,
                -0.57215986
              ],
              [
                -80.043332,
                -0.57212706
              ],
              [
                -80.04338369,
                -0.57211115
              ],
              [
                -80.0434493,
                -0.57211314
              ],
              [
                -80.04346123,
                -0.57211612
              ],
              [
                -80.04349502,
                -0.57212904
              ],
              [
                -80.0435328,
                -0.57214097
              ],
              [
                -80.04355864,
                -0.57214793
              ],
              [
                -80.0435825,
                -0.57214793
              ],
              [
                -80.04361232,
                -0.57216085
              ],
              [
                -80.04362325,
                -0.57217974
              ],
              [
                -80.04363618,
                -0.57219962
              ],
              [
                -80.0436491,
                -0.57222049
              ],
              [
                -80.0436491,
                -0.57224336
              ],
              [
                -80.04364711,
                -0.57227218
              ],
              [
                -80.04364612,
                -0.57230002
              ],
              [
                -80.04364413,
                -0.57232487
              ],
              [
                -80.04364015,
                -0.57235568
              ],
              [
                -80.0436322,
                -0.57237954
              ],
              [
                -80.04362822,
                -0.57238749
              ],
              [
                -80.04362425,
                -0.57239047
              ]
            ]
          ]
        ]
      }
    },
    {
      "type": "Feature",
      "properties": {
        "Name": "Balsa",
        "Date Created": null,
        "Area": null,
        "Landuse description": null,
        "Plant census": null,
        "Insights": null,
        "Past use history": "Pasture",
        "_rfi_source_fid": 3
      },
      "geometry": {
        "type": "MultiPolygon",
        "coordinates": [
          [
            [
              [
                -80.04134704,
                -0.57256751
              ],
              [
                -80.04135607,
                -0.5726075
              ],
              [
                -80.041371,
                -0.57266684
              ],
              [
                -80.04138169,
                -0.57271255
              ],
              [
                -80.04138391,
                -0.57277337
              ],
              [
                -80.04138409,
                -0.57282055
              ],
              [
                -80.04136142,
                -0.57288395
              ],
              [
                -80.0413631,
                -0.57293747
              ],
              [
                -80.04136531,
                -0.57297211
              ],
              [
                -80.04136752,
                -0.57300676
              ],
              [
                -80.04137637,
                -0.57307459
              ],
              [
                -80.04138338,
                -0.57313799
              ],
              [
                -80.04139222,
                -0.5732224
              ],
              [
                -80.0414066,
                -0.57324599
              ],
              [
                -80.04142798,
                -0.57326773
              ],
              [
                -80.04145747,
                -0.57328801
              ],
              [
                -80.04148991,
                -0.57330717
              ],
              [
                -80.04153119,
                -0.57332413
              ],
              [
                -80.04155073,
                -0.57333003
              ],
              [
                -80.0415804,
                -0.573335
              ],
              [
                -80.0417802,
                -0.573335
              ],
              [
                -80.04185171,
                -0.57333574
              ],
              [
                -80.04186954,
                -0.57331044
              ],
              [
                -80.0419103,
                -0.57329653
              ],
              [
                -80.04194509,
                -0.5732846
              ],
              [
                -80.04197889,
                -0.57329454
              ],
              [
                -80.04199082,
                -0.57332436
              ],
              [
                -80.04199181,
                -0.57336014
              ],
              [
                -80.04198684,
                -0.57338599
              ],
              [
                -80.04200076,
                -0.57341979
              ],
              [
                -80.04192322,
                -0.57340885
              ],
              [
                -80.04189737,
                -0.57342923
              ],
              [
                -80.04188521,
                -0.57343734
              ],
              [
                -80.0418747,
                -0.57344692
              ],
              [
                -80.04186936,
                -0.57345908
              ],
              [
                -80.04186604,
                -0.57352322
              ],
              [
                -80.04186641,
                -0.57354386
              ],
              [
                -80.04187396,
                -0.57356091
              ],
              [
                -80.04187756,
                -0.57356782
              ],
              [
                -80.04188207,
                -0.57357436
              ],
              [
                -80.04189511,
                -0.57358418
              ],
              [
                -80.04191336,
                -0.57359524
              ],
              [
                -80.04194921,
                -0.57361477
              ],
              [
                -80.04196469,
                -0.57362325
              ],
              [
                -80.04197593,
                -0.57362924
              ],
              [
                -80.04199326,
                -0.57363882
              ],
              [
                -80.04201252,
                -0.57364988
              ],
              [
                -80.04202422,
                -0.57365587
              ],
              [
                -80.04203611,
                -0.57366278
              ],
              [
                -80.04205869,
                -0.57367485
              ],
              [
                -80.0420838,
                -0.57367601
              ],
              [
                -80.04210721,
                -0.57367665
              ],
              [
                -80.0421319,
                -0.57367757
              ],
              [
                -80.04218465,
                -0.57358927
              ],
              [
                -80.04223336,
                -0.57354553
              ],
              [
                -80.04224529,
                -0.57349285
              ],
              [
                -80.04231288,
                -0.57344812
              ],
              [
                -80.04236954,
                -0.57342625
              ],
              [
                -80.04231884,
                -0.57338847
              ],
              [
                -80.04231586,
                -0.57334474
              ],
              [
                -80.04232381,
                -0.57333281
              ],
              [
                -80.04232133,
                -0.57329901
              ],
              [
                -80.04231189,
                -0.5732841
              ],
              [
                -80.04231835,
                -0.57326919
              ],
              [
                -80.04229996,
                -0.57324434
              ],
              [
                -80.042292,
                -0.57321104
              ],
              [
                -80.0422848,
                -0.57315687
              ],
              [
                -80.04227262,
                -0.57312406
              ],
              [
                -80.04227685,
                -0.57310468
              ],
              [
                -80.04227411,
                -0.57308057
              ],
              [
                -80.04226715,
                -0.57305597
              ],
              [
                -80.0422679,
                -0.57304877
              ],
              [
                -80.04226616,
                -0.57302267
              ],
              [
                -80.04226169,
                -0.5730018
              ],
              [
                -80.04226417,
                -0.57299136
              ],
              [
                -80.04229847,
                -0.57297347
              ],
              [
                -80.04228853,
                -0.57295657
              ],
              [
                -80.04229548,
                -0.57292675
              ],
              [
                -80.04226318,
                -0.57289494
              ],
              [
                -80.04223435,
                -0.57289693
              ],
              [
                -80.04220801,
                -0.57286263
              ],
              [
                -80.04222292,
                -0.57277615
              ],
              [
                -80.04220503,
                -0.57272993
              ],
              [
                -80.04215731,
                -0.57271254
              ],
              [
                -80.04209569,
                -0.57262904
              ],
              [
                -80.04213445,
                -0.5725356
              ],
              [
                -80.04218167,
                -0.57248341
              ],
              [
                -80.04220403,
                -0.57248242
              ],
              [
                -80.0422597,
                -0.57240787
              ],
              [
                -80.04228952,
                -0.57239992
              ],
              [
                -80.04230443,
                -0.57238525
              ],
              [
                -80.04228579,
                -0.57232561
              ],
              [
                -80.04229524,
                -0.57229753
              ],
              [
                -80.04231487,
                -0.57228212
              ],
              [
                -80.04233674,
                -0.57228063
              ],
              [
                -80.04233848,
                -0.57227467
              ],
              [
                -80.042335,
                -0.5722369
              ],
              [
                -80.04234668,
                -0.57222223
              ],
              [
                -80.04235711,
                -0.57220484
              ],
              [
                -80.04237575,
                -0.57218322
              ],
              [
                -80.04236134,
                -0.572136
              ],
              [
                -80.04237575,
                -0.5721206
              ],
              [
                -80.04237675,
                -0.57211413
              ],
              [
                -80.04235475,
                -0.57208829
              ],
              [
                -80.042335,
                -0.57206667
              ],
              [
                -80.04233487,
                -0.57205424
              ],
              [
                -80.0423427,
                -0.57204343
              ],
              [
                -80.04234419,
                -0.57203822
              ],
              [
                -80.04233922,
                -0.57203051
              ],
              [
                -80.04233251,
                -0.57202082
              ],
              [
                -80.04232431,
                -0.57201237
              ],
              [
                -80.04231487,
                -0.57200069
              ],
              [
                -80.04230592,
                -0.57199125
              ],
              [
                -80.04230344,
                -0.57198578
              ],
              [
                -80.04230443,
                -0.57197833
              ],
              [
                -80.04230667,
                -0.57197435
              ],
              [
                -80.0423171,
                -0.57196689
              ],
              [
                -80.04232183,
                -0.5719659
              ],
              [
                -80.04233003,
                -0.57196217
              ],
              [
                -80.04233326,
                -0.57195869
              ],
              [
                -80.0423422,
                -0.57194602
              ],
              [
                -80.04234941,
                -0.57193608
              ],
              [
                -80.04235537,
                -0.57192713
              ],
              [
                -80.04235885,
                -0.57192415
              ],
              [
                -80.04240259,
                -0.57191719
              ],
              [
                -80.0424006,
                -0.5718911
              ],
              [
                -80.0424252,
                -0.57188663
              ],
              [
                -80.04244061,
                -0.57186774
              ],
              [
                -80.04244111,
                -0.57186004
              ],
              [
                -80.04244161,
                -0.57184339
              ],
              [
                -80.04244285,
                -0.57182599
              ],
              [
                -80.04246397,
                -0.57182226
              ],
              [
                -80.04247963,
                -0.57182351
              ],
              [
                -80.04248335,
                -0.57181754
              ],
              [
                -80.04247118,
                -0.57180661
              ],
              [
                -80.04240508,
                -0.57174895
              ],
              [
                -80.04240775,
                -0.57173493
              ],
              [
                -80.04240913,
                -0.57173216
              ],
              [
                -80.04240922,
                -0.57172829
              ],
              [
                -80.04241014,
                -0.571727
              ],
              [
                -80.04240996,
                -0.57172138
              ],
              [
                -80.0424107,
                -0.57171963
              ],
              [
                -80.0424107,
                -0.57170599
              ],
              [
                -80.04241295,
                -0.57170166
              ],
              [
                -80.04241443,
                -0.57170032
              ],
              [
                -80.04241521,
                -0.57169885
              ],
              [
                -80.04241526,
                -0.57169737
              ],
              [
                -80.04241448,
                -0.57169585
              ],
              [
                -80.04241291,
                -0.57169512
              ],
              [
                -80.04241157,
                -0.57169507
              ],
              [
                -80.04240931,
                -0.57169364
              ],
              [
                -80.04238888,
                -0.57168795
              ],
              [
                -80.04238598,
                -0.57168692
              ],
              [
                -80.04238294,
                -0.57168574
              ],
              [
                -80.04237886,
                -0.57168374
              ],
              [
                -80.04237692,
                -0.57168201
              ],
              [
                -80.04237257,
                -0.57168194
              ],
              [
                -80.04236932,
                -0.57168035
              ],
              [
                -80.04236766,
                -0.57167869
              ],
              [
                -80.04236579,
                -0.5716753
              ],
              [
                -80.04236341,
                -0.57167218
              ],
              [
                -80.04236222,
                -0.57167041
              ],
              [
                -80.04236151,
                -0.57166893
              ],
              [
                -80.04236056,
                -0.57166706
              ],
              [
                -80.04235752,
                -0.57166167
              ],
              [
                -80.04234743,
                -0.57164743
              ],
              [
                -80.0423325,
                -0.5716256
              ],
              [
                -80.04232144,
                -0.57161398
              ],
              [
                -80.04231066,
                -0.57160569
              ],
              [
                -80.04230153,
                -0.57159989
              ],
              [
                -80.04228667,
                -0.57159467
              ],
              [
                -80.04226293,
                -0.57159463
              ],
              [
                -80.04224672,
                -0.57159612
              ],
              [
                -80.04224456,
                -0.57159757
              ],
              [
                -80.0422424,
                -0.57159764
              ],
              [
                -80.04223798,
                -0.57159923
              ],
              [
                -80.04223494,
                -0.57160047
              ],
              [
                -80.04223055,
                -0.57160569
              ],
              [
                -80.04222758,
                -0.57160935
              ],
              [
                -80.04222322,
                -0.57161537
              ],
              [
                -80.04222167,
                -0.57161678
              ],
              [
                -80.04222091,
                -0.5716183
              ],
              [
                -80.04222018,
                -0.57162055
              ],
              [
                -80.04221887,
                -0.57162242
              ],
              [
                -80.04221735,
                -0.57162407
              ],
              [
                -80.04221569,
                -0.57162718
              ],
              [
                -80.04221528,
                -0.57162967
              ],
              [
                -80.04221341,
                -0.57163099
              ],
              [
                -80.04221258,
                -0.57163292
              ],
              [
                -80.0422121,
                -0.57163548
              ],
              [
                -80.04220989,
                -0.57163969
              ],
              [
                -80.04220532,
                -0.57164502
              ],
              [
                -80.04219634,
                -0.57168441
              ],
              [
                -80.0421854,
                -0.57174498
              ],
              [
                -80.04217823,
                -0.57176686
              ],
              [
                -80.04213787,
                -0.57185892
              ],
              [
                -80.04211533,
                -0.57191241
              ],
              [
                -80.04211105,
                -0.57192333
              ],
              [
                -80.04209999,
                -0.5719384
              ],
              [
                -80.04205189,
                -0.57195941
              ],
              [
                -80.04202977,
                -0.5719959
              ],
              [
                -80.04203828,
                -0.57204816
              ],
              [
                -80.0420512,
                -0.57208493
              ],
              [
                -80.04205797,
                -0.57211256
              ],
              [
                -80.04206909,
                -0.57213265
              ],
              [
                -80.04207804,
                -0.57216545
              ],
              [
                -80.04208798,
                -0.57218533
              ],
              [
                -80.04209991,
                -0.5722072
              ],
              [
                -80.04211283,
                -0.57224795
              ],
              [
                -80.04211184,
                -0.57225789
              ],
              [
                -80.04208898,
                -0.57226386
              ],
              [
                -80.04207904,
                -0.5722738
              ],
              [
                -80.04206412,
                -0.57228672
              ],
              [
                -80.04204226,
                -0.57229474
              ],
              [
                -80.04192794,
                -0.57234139
              ],
              [
                -80.04191204,
                -0.57235432
              ],
              [
                -80.04190409,
                -0.57236426
              ],
              [
                -80.04188222,
                -0.57237519
              ],
              [
                -80.04187228,
                -0.57238314
              ],
              [
                -80.04186631,
                -0.57239805
              ],
              [
                -80.0418683,
                -0.57241694
              ],
              [
                -80.04188619,
                -0.5724229
              ],
              [
                -80.04189315,
                -0.57243881
              ],
              [
                -80.04189371,
                -0.57246282
              ],
              [
                -80.04190255,
                -0.57248826
              ],
              [
                -80.04190771,
                -0.57250226
              ],
              [
                -80.04190919,
                -0.57251959
              ],
              [
                -80.04190587,
                -0.5725406
              ],
              [
                -80.04189887,
                -0.57255055
              ],
              [
                -80.04188855,
                -0.5725546
              ],
              [
                -80.04187917,
                -0.57255762
              ],
              [
                -80.04187493,
                -0.57255891
              ],
              [
                -80.04186258,
                -0.57256149
              ],
              [
                -80.04184378,
                -0.57256297
              ],
              [
                -80.04181503,
                -0.57256223
              ],
              [
                -80.04179052,
                -0.5725614
              ],
              [
                -80.04175301,
                -0.57256011
              ],
              [
                -80.04175052,
                -0.57256315
              ],
              [
                -80.04174748,
                -0.57256306
              ],
              [
                -80.04173585,
                -0.57256881
              ],
              [
                -80.0417332,
                -0.5725684
              ],
              [
                -80.04172071,
                -0.57257485
              ],
              [
                -80.04171753,
                -0.57257485
              ],
              [
                -80.04171467,
                -0.57257633
              ],
              [
                -80.04171177,
                -0.57257637
              ],
              [
                -80.04170889,
                -0.57257773
              ],
              [
                -80.04170594,
                -0.57257778
              ],
              [
                -80.04170292,
                -0.57258075
              ],
              [
                -80.0417,
                -0.57258077
              ],
              [
                -80.04169129,
                -0.5725852
              ],
              [
                -80.04164973,
                -0.5725852
              ],
              [
                -80.04164669,
                -0.5725837
              ],
              [
                -80.04162897,
                -0.57258368
              ],
              [
                -80.04162607,
                -0.57258218
              ],
              [
                -80.04162008,
                -0.57258223
              ],
              [
                -80.0416119,
                -0.57258133
              ],
              [
                -80.04158241,
                -0.572564
              ],
              [
                -80.04154407,
                -0.57254981
              ],
              [
                -80.04150151,
                -0.5725402
              ],
              [
                -80.04148958,
                -0.57253821
              ],
              [
                -80.04147268,
                -0.57254517
              ],
              [
                -80.04145777,
                -0.5725561
              ],
              [
                -80.04143789,
                -0.57256604
              ],
              [
                -80.04141801,
                -0.57257499
              ],
              [
                -80.04134704,
                -0.57256751
              ]
            ]
          ]
        ]
      }
    },
    {
      "type": "Feature",
      "properties": {
        "Name": "Big Teak",
        "Date Created": null,
        "Area": null,
        "Landuse description": "For dimensional timber or massbu headers and footers",
        "Plant census": null,
        "Insights": null,
        "Past use history": "Pasture",
        "_rfi_source_fid": 4
      },
      "geometry": {
        "type": "MultiPolygon",
        "coordinates": [
          [
            [
              [
                -80.0443474,
                -0.56979085
              ],
              [
                -80.04417842,
                -0.56983459
              ],
              [
                -80.0441486,
                -0.56986441
              ],
              [
                -80.04382653,
                -0.56967952
              ],
              [
                -80.04356212,
                -0.56956819
              ],
              [
                -80.04320228,
                -0.56941312
              ],
              [
                -80.04272316,
                -0.56920239
              ],
              [
                -80.0425502,
                -0.56936342
              ],
              [
                -80.04267744,
                -0.56952246
              ],
              [
                -80.04265358,
                -0.56968747
              ],
              [
                -80.04243688,
                -0.56990616
              ],
              [
                -80.04243092,
                -0.5699817
              ],
              [
                -80.04248659,
                -0.57002743
              ],
              [
                -80.04258599,
                -0.56994989
              ],
              [
                -80.04270129,
                -0.56995586
              ],
              [
                -80.04284245,
                -0.57005924
              ],
              [
                -80.04289215,
                -0.57019244
              ],
              [
                -80.04307902,
                -0.57031371
              ],
              [
                -80.04292992,
                -0.57031172
              ],
              [
                -80.04289053,
                -0.57032509
              ],
              [
                -80.04286689,
                -0.5703361
              ],
              [
                -80.04286721,
                -0.57031813
              ],
              [
                -80.04284422,
                -0.57029238
              ],
              [
                -80.04281394,
                -0.57028105
              ],
              [
                -80.04274562,
                -0.5702545
              ],
              [
                -80.04270191,
                -0.57024349
              ],
              [
                -80.04266758,
                -0.57023507
              ],
              [
                -80.04261448,
                -0.57022245
              ],
              [
                -80.04256186,
                -0.57022123
              ],
              [
                -80.04248512,
                -0.57021832
              ],
              [
                -80.042438,
                -0.5702154
              ],
              [
                -80.04239234,
                -0.57021346
              ],
              [
                -80.04231609,
                -0.57021006
              ],
              [
                -80.04220972,
                -0.5702222
              ],
              [
                -80.0421592,
                -0.57023143
              ],
              [
                -80.04212035,
                -0.57023969
              ],
              [
                -80.0420368,
                -0.57026689
              ],
              [
                -80.04203729,
                -0.57024309
              ],
              [
                -80.04203828,
                -0.57015715
              ],
              [
                -80.04204424,
                -0.5694663
              ],
              [
                -80.04228898,
                -0.56891449
              ],
              [
                -80.04434547,
                -0.56979044
              ],
              [
                -80.0443474,
                -0.56979085
              ]
            ]
          ]
        ]
      }
    },
    {
      "type": "Feature",
      "properties": {
        "Name": "Baby teak",
        "Date Created": null,
        "Area": null,
        "Landuse description": "For dimensional timber or massbu headers and footers",
        "Plant census": null,
        "Insights": null,
        "Past use history": "Pasture",
        "_rfi_source_fid": 5
      },
      "geometry": {
        "type": "MultiPolygon",
        "coordinates": [
          [
            [
              [
                -80.04273076,
                -0.57079179
              ],
              [
                -80.04268603,
                -0.57079279
              ],
              [
                -80.04265124,
                -0.5707908
              ],
              [
                -80.04263136,
                -0.57077688
              ],
              [
                -80.04261545,
                -0.57077291
              ],
              [
                -80.04258961,
                -0.57076992
              ],
              [
                -80.042534,
                -0.5707702
              ],
              [
                -80.04249824,
                -0.57077057
              ],
              [
                -80.04246802,
                -0.57076467
              ],
              [
                -80.04244627,
                -0.57075398
              ],
              [
                -80.04243374,
                -0.57073076
              ],
              [
                -80.04242268,
                -0.5707197
              ],
              [
                -80.04241199,
                -0.57071307
              ],
              [
                -80.04236886,
                -0.57070385
              ],
              [
                -80.0423331,
                -0.57069685
              ],
              [
                -80.04228979,
                -0.57069703
              ],
              [
                -80.04228297,
                -0.57069353
              ],
              [
                -80.04227154,
                -0.57069464
              ],
              [
                -80.04225938,
                -0.57068727
              ],
              [
                -80.04207359,
                -0.5706869
              ],
              [
                -80.04198439,
                -0.57068837
              ],
              [
                -80.04196522,
                -0.57068764
              ],
              [
                -80.04200711,
                -0.57053036
              ],
              [
                -80.04202051,
                -0.57037359
              ],
              [
                -80.04203599,
                -0.57029323
              ],
              [
                -80.04203632,
                -0.57026737
              ],
              [
                -80.04212229,
                -0.57024017
              ],
              [
                -80.0422068,
                -0.57022317
              ],
              [
                -80.04231575,
                -0.57021128
              ],
              [
                -80.04239776,
                -0.57021426
              ],
              [
                -80.04254637,
                -0.57022172
              ],
              [
                -80.04261545,
                -0.57022321
              ],
              [
                -80.04274416,
                -0.5702558
              ],
              [
                -80.04284454,
                -0.57029352
              ],
              [
                -80.04286656,
                -0.57031829
              ],
              [
                -80.04286527,
                -0.57033674
              ],
              [
                -80.04282091,
                -0.57035552
              ],
              [
                -80.04279468,
                -0.57036589
              ],
              [
                -80.04273722,
                -0.57040561
              ],
              [
                -80.04270939,
                -0.5704414
              ],
              [
                -80.04273722,
                -0.57046526
              ],
              [
                -80.04277698,
                -0.57049309
              ],
              [
                -80.04278891,
                -0.57051695
              ],
              [
                -80.04278294,
                -0.57055472
              ],
              [
                -80.04275909,
                -0.57058852
              ],
              [
                -80.04274517,
                -0.57062032
              ],
              [
                -80.04274915,
                -0.57066406
              ],
              [
                -80.0427571,
                -0.5707078
              ],
              [
                -80.04275909,
                -0.57072768
              ],
              [
                -80.04273076,
                -0.57079179
              ]
            ]
          ]
        ]
      }
    }
  ]
}
