{
"type": "FeatureCollection",
"name": "LaF border",
"crs": { "type": "name", "properties": { "name": "urn:ogc:def:crs:OGC:1.3:CRS84" } },
"features": [
{ "type": "Feature", "properties": { "id": 1 }, "geometry": { "type": "MultiPolygon", "coordinates": [ [ [ [ -80.04722173631535, -0.571013142717391 ], [ -80.047212432096657, -0.571011593407171 ], [ -80.042288977422189, -0.568914497782578 ], [ -80.042046992877729, -0.569463589461124 ], [ -80.042034582958792, -0.570301172380686 ], [ -80.041799554159439, -0.571599727026134 ], [ -80.041246498369262, -0.572379717393464 ], [ -80.041100413402717, -0.572701337700233 ], [ -80.041109304081573, -0.573411702938956 ], [ -80.041043513058241, -0.574066056901034 ], [ -80.041253333078686, -0.574491031349232 ], [ -80.042725629493376, -0.575107155392329 ], [ -80.043058363148688, -0.574684570314068 ], [ -80.04339915398171, -0.574517342201901 ], [ -80.04413721924162, -0.575025611197411 ], [ -80.044354763039323, -0.575087373631926 ], [ -80.044934817320581, -0.575199521210388 ], [ -80.045288888605072, -0.575669115752976 ], [ -80.04539841065494, -0.575774136896686 ], [ -80.045691719706284, -0.575919666195827 ], [ -80.046433743608318, -0.575612169473635 ], [ -80.047395471787055, -0.575146840364088 ], [ -80.04736755371033, -0.575016535091423 ], [ -80.047079003429573, -0.574880101373479 ], [ -80.046936099659021, -0.574768281986091 ], [ -80.046428059876334, -0.574941285566578 ], [ -80.045455864145993, -0.574423681358293 ], [ -80.045104793465597, -0.574356167765908 ], [ -80.045031653740537, -0.574073735904431 ], [ -80.044795918780437, -0.573943350279138 ], [ -80.04496962562753, -0.573837297677767 ], [ -80.045214362399889, -0.573460065480316 ], [ -80.045177229924093, -0.572983532040732 ], [ -80.045222238985687, -0.572812497606691 ], [ -80.045817483825246, -0.572557071182168 ], [ -80.04615870877339, -0.572107824486173 ], [ -80.04722173631535, -0.571013142717391 ] ] ] ] } }
]
}
