{"type":"FeatureCollection","crs":{"type":"name","properties":{"name":"EPSG:4326"}},"features":[{"type":"Feature","id":2,"geometry":{"type":"LineString","coordinates":[[-80.0449673907277,-0.574075485449597,-19999],[-80.0448387178431,-0.574028134932705,-19999],[-80.0448119696072,-0.574010286303755,-19999],[-80.0447920000584,-0.573988000219976,-19999],[-80.044799999556,-0.573974999555265,-19999],[-80.044799999556,-0.573961999788793,-19999],[-80.0448149996246,-0.573956000242049,-19999],[-80.0448299996932,-0.573949999797015,-19999],[-80.0448380000892,-0.573942999577224,-19999],[-80.0448530001578,-0.573937000030467,-19999],[-80.0448680002264,-0.573929999810676,-19999],[-80.0448840001199,-0.573924000263907,-19999],[-80.0448909997926,-0.57391700004409,-19999],[-80.0449069996861,-0.573910999599043,-19999],[-80.0449219997547,-0.573905000052248,-19999],[-80.0449219997547,-0.573892000285612,-19999],[-80.0449369998234,-0.573885000065757,-19999],[-80.0449450002193,-0.573872000299069,-19999],[-80.044951999892,-0.573860000307113,-19999],[-80.0449600002879,-0.573846999642122,-19999],[-80.0449679997855,-0.573833999875332,-19999],[-80.0449750003565,-0.573821000108543,-19999],[-80.0449829998541,-0.573808000341703,-19999],[-80.04499100025,-0.573794999676584,-19999],[-80.0450060003187,-0.573781999909706,-19999],[-80.0450060003187,-0.573769999917546,-19999],[-80.0450129999913,-0.573757000150591,-19999],[-80.0450210003873,-0.573744000383611,-19999],[-80.0450289998849,-0.573730999718353,-19999],[-80.0450439999535,-0.573724000396559,-19999],[-80.0450439999535,-0.573712000404323,-19999],[-80.0450520003494,-0.573705000184252,-19999],[-80.0450520003494,-0.573692000417145,-19999],[-80.0450590000221,-0.573678999751747,-19999],[-80.045067000418,-0.573666999759409,-19999],[-80.0450740000907,-0.573653999992212,-19999],[-80.0450819995883,-0.573641000225003,-19999],[-80.0450899999842,-0.573634000004855,-19999],[-80.0450969996569,-0.57362200001239,-19999],[-80.0451050000529,-0.573609000245143,-19999],[-80.0451130004488,-0.573595999579541,-19999],[-80.0451279996191,-0.573589000257608,-19999],[-80.0451279996191,-0.573577000265054,-19999],[-80.0451350001901,-0.573570000044817,-19999],[-80.0451429996877,-0.573557000277417,-19999],[-80.0451510000836,-0.573543999611739,-19999],[-80.0451579997563,-0.573531999619083,-19999],[-80.0451660001522,-0.573518999851594,-19999],[-80.0451739996498,-0.573506000084079,-19999],[-80.0451810002208,-0.573493000316527,-19999],[-80.0451889997184,-0.573479999650683,-19999],[-80.045203999787,-0.573474000103443,-19999],[-80.045212000183,-0.573461000335814,-19999],[-80.045212000183,-0.573447999669894,-19999],[-80.045212000183,-0.573434999902227,-19999],[-80.045212000183,-0.573422000134522,-19999],[-80.045212000183,-0.573409000366791,-19999],[-80.045212000183,-0.573395999700731,-19999],[-80.045212000183,-0.573383999707795,-19999],[-80.045212000183,-0.573370999939975,-19999],[-80.045212000183,-0.573358000172117,-19999],[-80.045212000183,-0.573345000404246,-19999],[-80.045212000183,-0.573331999738034,-19999],[-80.045212000183,-0.573318999970087,-19999],[-80.045203999787,-0.573306000202114,-19999],[-80.045203999787,-0.573294000209,-19999],[-80.0451970001144,-0.573281000440977,-19999],[-80.0451970001144,-0.573267999774625,-19999],[-80.0451889997184,-0.573255000006537,-19999],[-80.0451810002208,-0.57324200023845,-19999],[-80.0451739996498,-0.573228999572009,-19999],[-80.0451739996498,-0.573215999803833,-19999],[-80.0451660001522,-0.57320399981049,-19999],[-80.0451660001522,-0.573191000042301,-19999],[-80.0451660001522,-0.573178000274036,-19999],[-80.0451579997563,-0.573164999607454,-19999],[-80.0451510000836,-0.573151999839138,-19999],[-80.0451510000836,-0.573139000070771,-19999],[-80.0451510000836,-0.573126000302391,-19999],[-80.0451510000836,-0.573112999635721,-19999],[-80.0451510000836,-0.573100999642175,-19999],[-80.0451510000836,-0.573087999873719,-19999],[-80.0451510000836,-0.573075000105212,-19999],[-80.0451510000836,-0.573062000336692,-19999],[-80.0451510000836,-0.573048999669869,-19999],[-80.0451510000836,-0.573035999901286,-19999],[-80.0451510000836,-0.573023000132664,-19999],[-80.0451510000836,-0.573011000138927,-19999],[-80.0451579997563,-0.572998000370293,-19999],[-80.0451660001522,-0.572984999703304,-19999],[-80.0451660001522,-0.572971999934568,-19999],[-80.0451660001522,-0.572959000165807,-19999],[-80.0451660001522,-0.572946000397007,-19999],[-80.0451739996498,-0.572932999729943,-19999],[-80.0451889997184,-0.572920999736015,-19999],[-80.0451970001144,-0.572907999967139,-19999],[-80.045203999787,-0.572895000198224,-19999],[-80.045212000183,-0.572882000429298,-19999],[-80.045212000183,-0.57286899976208,-19999],[-80.045212000183,-0.57285599999309,-19999],[-80.0452189998557,-0.572850000445176,-19999],[-80.0452270002516,-0.572836999777857,-19999],[-80.0452420003202,-0.572829999556755,-19999],[-80.0452499998178,-0.572817999562611,-19999],[-80.0452580002137,-0.572811000239723,-19999],[-80.0452730002824,-0.572797999572315,-19999],[-80.045288000351,-0.57279200002435,-19999],[-80.0452959998486,-0.572779000255181,-19999],[-80.0453030004196,-0.572772999808951,-19999],[-80.0453190003131,-0.572765999587735,-19999],[-80.0453340003817,-0.572760000039732,-19999],[-80.0453340003817,-0.572747000270487,-19999],[-80.045348999552,-0.572740000049245,-19999],[-80.0453569999479,-0.57272800005491,-19999],[-80.0453720000166,-0.57272099983363,-19999],[-80.0453720000166,-0.572708000064309,-19999],[-80.0453800004125,-0.572695000294975,-19999],[-80.0453870000851,-0.5726819996273,-19999],[-80.0453949995828,-0.57266999963285,-19999],[-80.0454029999787,-0.572656999863401,-19999],[-80.0454099996514,-0.572644000093953,-19999],[-80.0454180000473,-0.572631000324441,-19999],[-80.0454180000473,-0.572617999656626,-19999],[-80.0454180000473,-0.572604999887063,-19999],[-80.04542499972,-0.572592000117462,-19999],[-80.0454330001159,-0.572580000122859,-19999],[-80.0454480001845,-0.572560000131749,-19999],[-80.0454859998193,-0.572521999699298,-19999],[-80.0455090002839,-0.572509999704505,-19999],[-80.045540000246,-0.572501999707972,-19999],[-80.0456389999802,-0.572480999941596,-19999],[-80.0456919996837,-0.572469999721751,-19999],[-80.0457150001482,-0.572467000396716,-19999],[-80.0457529997831,-0.57246099995013,-19999],[-80.0457760002476,-0.572456000176807,-19999],[-80.0458070002097,-0.572452000178522,-19999],[-80.0458299997759,-0.572444999956911,-19999],[-80.0458449998445,-0.572437999735288,-19999],[-80.0458599999132,-0.572432000186954,-19999],[-80.0458680003091,-0.572424999965318,-19999],[-80.0458830003777,-0.572419000416984,-19999],[-80.0458980004463,-0.572412000195322,-19999],[-80.0459059999439,-0.572404999973661,-19999],[-80.0459140003398,-0.572392999978651,-19999],[-80.0459210000125,-0.57238000020858,-19999],[-80.0459290004085,-0.572371000436831,-19999],[-80.0459369999061,-0.572356999993432,-19999],[-80.0459369999061,-0.572343000448247,-19999],[-80.0459439995788,-0.572330999554807,-19999],[-80.0459439995788,-0.572317999784596,-19999],[-80.0459519999747,-0.572300000240921,-19999],[-80.0459519999747,-0.57228800024567,-19999],[-80.0459589996474,-0.572274999577079,-19999],[-80.0459670000433,-0.572264000255117,-19999],[-80.0459750004392,-0.572252000259789,-19999],[-80.0459820001119,-0.572238999591109,-19999],[-80.0459899996095,-0.572225999820719,-19999],[-80.0459899996095,-0.572213000050253,-19999],[-80.0460130000741,-0.572177000063901,-19999],[-80.0460209995717,-0.572164000293346,-19999],[-80.0460280001427,-0.57215600029633,-19999],[-80.0460430002113,-0.572153999847952,-19999],[-80.0460509997089,-0.572153999847952,-19999],[-80.0460659997775,-0.572153000072852,-19999],[-80.046081999671,-0.572149999849413,-19999],[-80.0461200002042,-0.572142999627433,-19999],[-80.04616500041,-0.572133000080279,-19999],[-80.0461879999762,-0.572129000081739,-19999],[-80.0462039998698,-0.572128000306689,-19999],[-80.0462270003343,-0.572125999858287,-19999],[-80.0462420004029,-0.572128000306689,-19999],[-80.0462569995732,-0.572137000078794,-19999],[-80.0462800000377,-0.572153999847952,-19999],[-80.046310000175,-0.572173000065387,-19999],[-80.0463329997412,-0.572182999612515,-19999],[-80.0463560002057,-0.572186999610992,-19999],[-80.0463870001679,-0.572186999610992,-19999]]},"properties":{"routing_mode":"pedestrian","title":"T2","time_created":"2026-07-07T18:44:16+00:00","color":"#00DAE1","ObjectId":2}},{"type":"Feature","id":3,"geometry":{"type":"LineString","coordinates":[[-80.0453395654449,-0.572097022550157,-19999],[-80.0453976020021,-0.572036436899184,-19999],[-80.0453751719678,-0.57199194286569,-19999],[-80.0453464052175,-0.571935140729082,-19999],[-80.0452996011945,-0.571918090656156,-19999],[-80.0452489074664,-0.571894719453401,-19999],[-80.0453050997824,-0.571859375202555,-19999],[-80.0453128791927,-0.571851715649631,-19999],[-80.0453284380135,-0.571836396543808,-19999],[-80.0453595547566,-0.571805758331971,-19999],[-80.0453600982373,-0.571794771584892,-19999],[-80.0453611851988,-0.571785536465366,-19999],[-80.0453606767524,-0.571770420368471,-19999],[-80.0453529548342,-0.571747562077638,-19999],[-80.0453609794846,-0.571730008972623,-19999],[-80.0453696527187,-0.571713005609132,-19999],[-80.0453870000851,-0.571678999780326,-19999],[-80.04542499972,-0.571626000019956,-19999],[-80.0454859998193,-0.571565000261258,-19999],[-80.0455779998809,-0.57148799960777,-19999],[-80.045608999843,-0.571462999838668,-19999],[-80.0456389999802,-0.571397000304041,-19999],[-80.0456470003762,-0.571350999865756,-19999],[-80.045685000011,-0.571321000321767,-19999],[-80.0457150001482,-0.571294000103271,-19999],[-80.0457529997831,-0.571286999880248,-19999],[-80.0458370003469,-0.571271999658975,-19999],[-80.0458980004463,-0.571275999658113,-19999],[-80.0459369999061,-0.57126600010942,-19999],[-80.0459899996095,-0.57126600010942,-19999],[-80.0460209995717,-0.57128299988111,-19999],[-80.0460740001734,-0.571319999648313,-19999],[-80.0460969997396,-0.571338000093331,-19999],[-80.0461500003414,-0.571359999639095,-19999],[-80.0461810003035,-0.571366999862016,-19999],[-80.0461879999762,-0.571365000311649,-19999],[-80.0461960003721,-0.571353000314439,-19999],[-80.0462039998698,-0.571325000320867,-19999],[-80.0462270003343,-0.571275999658113,-19999],[-80.046234000007,-0.571246000113717,-19999],[-80.0462569995732,-0.5712220001188,-19999],[-80.0462800000377,-0.571203999673426,-19999],[-80.046310000175,-0.571182000127039,-19999],[-80.0463329997412,-0.571163999681537,-19999],[-80.0463410001371,-0.571134999911809,-19999],[-80.0463560002057,-0.571095999694665,-19999],[-80.0463710002743,-0.571081000371173,-19999],[-80.0463939998405,-0.571066999924606,-19999],[-80.0464320003737,-0.571066999924606,-19999],[-80.0464709998334,-0.571075999698415,-19999],[-80.0465090003666,-0.571081000371173,-19999],[-80.0465319999328,-0.571074000147896,-19999],[-80.0465699995677,-0.571055999702051,-19999],[-80.0465849996363,-0.571045000377723,-19999],[-80.0466159995984,-0.571037000379154,-19999],[-80.046638000238,-0.57103599970561,-19999],[-80.0466540001316,-0.571014999933866,-19999],[-80.0466609998042,-0.570987999713919,-19999],[-80.0466769996978,-0.57096600016673,-19999],[-80.0467000001623,-0.570947999720555,-19999],[-80.0467300002995,-0.570946000169984,-19999],[-80.0467760003303,-0.570946000169984,-19999],[-80.0468059995692,-0.570950999944617,-19999],[-80.0468370004296,-0.570953000393427,-19999],[-80.0468519996,-0.570949000394085,-19999],[-80.0468750000645,-0.570930999947821,-19999],[-80.0468829995621,-0.570913000399808,-19999],[-80.0469210000952,-0.570902000176935,-19999],[-80.0469439996615,-0.570906999951606,-19999],[-80.0469589997301,-0.570915999725619,-19999],[-80.0469889998673,-0.570923999724391,-19999],[-80.0470280002254,-0.570957000392781,-19999],[-80.0471867463956,-0.570930450687426,-19999]]},"properties":{"routing_mode":"pedestrian","title":"T3","time_created":"2026-07-07T18:44:16+00:00","color":"#00A478","ObjectId":3}},{"type":"Feature","id":4,"geometry":{"type":"LineString","coordinates":[[-80.046944,-0.575275000000008,-19999],[-80.046936,-0.575277000000016,-19999],[-80.046928,-0.575280000000015,-19999],[-80.046928,-0.57528500000001,-19999],[-80.046921,-0.57528500000001,-19999],[-80.046913,-0.575288000000022,-19999],[-80.046913,-0.575290000000004,-19999],[-80.046906,-0.575290000000004,-19999],[-80.046898,-0.575293000000003,-19999],[-80.046898,-0.575296000000015,-19999],[-80.04689,-0.575297999999998,-19999],[-80.046883,-0.575301000000009,-19999],[-80.046883,-0.575304000000008,-19999],[-80.046875,-0.575306000000004,-19999],[-80.046867,-0.575306000000004,-19999],[-80.046867,-0.575309000000003,-19999],[-80.04686,-0.575311000000011,-19999],[-80.046852,-0.575313999999997,-19999],[-80.046844,-0.575316999999996,-19999],[-80.046844,-0.575316999999996,-19999],[-80.046837,-0.575319000000004,-19999],[-80.046829,-0.575322000000003,-19999],[-80.046829,-0.575322000000003,-19999],[-80.046822,-0.575325000000003,-19999],[-80.046814,-0.57532700000001,-19999],[-80.046814,-0.57533000000001,-19999],[-80.046806,-0.57533000000001,-19999],[-80.046799,-0.575333000000009,-19999],[-80.046799,-0.575335000000017,-19999],[-80.046791,-0.575335000000017,-19999],[-80.046783,-0.575338000000003,-19999],[-80.046776,-0.575340000000011,-19999],[-80.046776,-0.575342999999997,-19999],[-80.046768,-0.575346000000009,-19999],[-80.046761,-0.575348000000004,-19999],[-80.046761,-0.575351000000003,-19999],[-80.046753,-0.575354000000003,-19999],[-80.046753,-0.575358999999997,-19999],[-80.046745,-0.575358999999997,-19999],[-80.046745,-0.575364000000004,-19999],[-80.046738,-0.575364000000004,-19999],[-80.04673,-0.575367000000003,-19999],[-80.04673,-0.575369000000011,-19999],[-80.046722,-0.575371999999998,-19999],[-80.046715,-0.575375000000009,-19999],[-80.046715,-0.575377000000017,-19999],[-80.046707,-0.575380000000016,-19999],[-80.0467,-0.575380000000016,-19999],[-80.046692,-0.57538299999999,-19999],[-80.046692,-0.57538299999999,-19999],[-80.046684,-0.57538299999999,-19999],[-80.046677,-0.575385000000011,-19999],[-80.046677,-0.575385000000011,-19999],[-80.046669,-0.575387999999997,-19999],[-80.046661,-0.575387999999997,-19999],[-80.046661,-0.575387999999997,-19999],[-80.046654,-0.575387999999997,-19999],[-80.046646,-0.575387999999997,-19999],[-80.046646,-0.575387999999997,-19999],[-80.046638,-0.575391000000009,-19999],[-80.046631,-0.575391000000009,-19999],[-80.046623,-0.575391000000009,-19999],[-80.046623,-0.575391000000009,-19999],[-80.046616,-0.575391000000009,-19999],[-80.046608,-0.575387999999997,-19999],[-80.046608,-0.575387999999997,-19999],[-80.0466,-0.575387999999997,-19999],[-80.046593,-0.575385000000011,-19999],[-80.046593,-0.575385000000011,-19999],[-80.046585,-0.575385000000011,-19999],[-80.046577,-0.57538299999999,-19999],[-80.046577,-0.575377000000017,-19999],[-80.04657,-0.575375000000009,-19999],[-80.04657,-0.575371999999998,-19999],[-80.046562,-0.575371999999998,-19999],[-80.046555,-0.575369000000011,-19999],[-80.046547,-0.575369000000011,-19999],[-80.046547,-0.575369000000011,-19999],[-80.046539,-0.575369000000011,-19999],[-80.046532,-0.575369000000011,-19999],[-80.046532,-0.575375000000009,-19999],[-80.046524,-0.575377000000017,-19999],[-80.046524,-0.575380000000016,-19999],[-80.046516,-0.57538299999999,-19999],[-80.046516,-0.575387999999997,-19999],[-80.046509,-0.575391000000009,-19999],[-80.046501,-0.575393000000004,-19999],[-80.046501,-0.575396000000003,-19999],[-80.046494,-0.575398000000011,-19999],[-80.046486,-0.57540100000001,-19999],[-80.046478,-0.57540400000001,-19999],[-80.046478,-0.57540400000001,-19999],[-80.046471,-0.575406000000005,-19999],[-80.046463,-0.575406000000005,-19999],[-80.046463,-0.575409000000004,-19999],[-80.046455,-0.575409000000004,-19999],[-80.046448,-0.575412000000003,-19999],[-80.046448,-0.575413999999998,-19999],[-80.04644,-0.575416999999997,-19999],[-80.046432,-0.575418999999992,-19999],[-80.046432,-0.575422000000004,-19999],[-80.046425,-0.575422000000004,-19999],[-80.046417,-0.575425000000004,-19999],[-80.046417,-0.575426999999999,-19999],[-80.04641,-0.57543300000001,-19999],[-80.046402,-0.57543300000001,-19999],[-80.046402,-0.575435000000005,-19999],[-80.046394,-0.575438000000004,-19999],[-80.046387,-0.575441000000003,-19999],[-80.046387,-0.575443000000011,-19999],[-80.046379,-0.575443000000011,-19999],[-80.046371,-0.575445999999997,-19999],[-80.046371,-0.575450999999992,-19999],[-80.046364,-0.575454000000004,-19999],[-80.046364,-0.575459000000011,-19999],[-80.046356,-0.575464000000005,-19999],[-80.046356,-0.575467000000004,-19999],[-80.046356,-0.575471999999999,-19999],[-80.046349,-0.575474999999998,-19999],[-80.046349,-0.575480000000005,-19999],[-80.046341,-0.575484999999999,-19999],[-80.046341,-0.57549100000001,-19999],[-80.046341,-0.575496000000017,-19999],[-80.046333,-0.575501000000011,-19999],[-80.046333,-0.575506000000006,-19999],[-80.046326,-0.575512000000017,-19999],[-80.046326,-0.575513999999999,-19999],[-80.046318,-0.57552000000001,-19999],[-80.046318,-0.575525000000005,-19999],[-80.046318,-0.575529999999999,-19999],[-80.046318,-0.575535000000006,-19999],[-80.04631,-0.575541000000004,-19999],[-80.04631,-0.575545999999998,-19999],[-80.04631,-0.575550999999993,-19999],[-80.04631,-0.575556000000013,-19999],[-80.04631,-0.575562000000011,-19999],[-80.046303,-0.575564000000006,-19999],[-80.046303,-0.575570000000004,-19999],[-80.046303,-0.575574999999999,-19999],[-80.046295,-0.575580000000006,-19999],[-80.046295,-0.575585000000013,-19999],[-80.046295,-0.575590999999986,-19999],[-80.046288,-0.575596000000005,-19999],[-80.046288,-0.575599000000005,-19999],[-80.04628,-0.575603999999999,-19999],[-80.04628,-0.575605999999994,-19999],[-80.046272,-0.575609000000006,-19999],[-80.046272,-0.575614,-19999],[-80.046265,-0.575616999999999,-19999],[-80.046257,-0.575619999999998,-19999],[-80.046249,-0.575619999999998,-19999],[-80.046249,-0.575624999999993,-19999],[-80.046242,-0.575624999999993,-19999],[-80.046242,-0.575628000000005,-19999],[-80.046234,-0.575628000000005,-19999],[-80.046227,-0.575630000000013,-19999],[-80.046227,-0.575632999999999,-19999],[-80.046219,-0.575635000000007,-19999],[-80.046211,-0.575635000000007,-19999],[-80.046211,-0.575638000000006,-19999],[-80.046204,-0.575638000000006,-19999],[-80.046196,-0.575640999999992,-19999],[-80.046196,-0.575643,-19999],[-80.046188,-0.575643,-19999],[-80.046181,-0.575643,-19999],[-80.046173,-0.575645999999987,-19999],[-80.046173,-0.575645999999987,-19999],[-80.046165,-0.575645999999987,-19999],[-80.046158,-0.575643,-19999],[-80.046158,-0.575643,-19999],[-80.04615,-0.575643,-19999],[-80.046143,-0.575640999999992,-19999],[-80.046143,-0.575635000000007,-19999],[-80.046135,-0.575635000000007,-19999],[-80.046135,-0.575632999999999,-19999],[-80.046127,-0.575628000000005,-19999],[-80.046127,-0.575628000000005,-19999],[-80.04612,-0.575628000000005,-19999],[-80.046112,-0.575628000000005,-19999],[-80.046104,-0.575628000000005,-19999],[-80.046097,-0.575624999999993,-19999],[-80.046097,-0.575624999999993,-19999],[-80.046089,-0.575624999999993,-19999],[-80.046082,-0.575624999999993,-19999],[-80.046082,-0.575624999999993,-19999],[-80.046074,-0.575621999999994,-19999],[-80.046066,-0.575619999999998,-19999],[-80.046066,-0.575616999999999,-19999],[-80.046059,-0.575614,-19999],[-80.046051,-0.575614,-19999],[-80.046051,-0.575612000000005,-19999],[-80.046043,-0.575612000000005,-19999],[-80.046036,-0.575609000000006,-19999],[-80.046028,-0.575609000000006,-19999],[-80.046028,-0.575605999999994,-19999],[-80.046021,-0.575605999999994,-19999],[-80.046013,-0.575605999999994,-19999],[-80.046013,-0.575605999999994,-19999],[-80.046005,-0.575605999999994,-19999],[-80.045998,-0.575605999999994,-19999],[-80.045998,-0.575605999999994,-19999],[-80.04599,-0.575605999999994,-19999],[-80.045982,-0.575605999999994,-19999],[-80.045982,-0.575605999999994,-19999],[-80.045975,-0.575605999999994,-19999],[-80.045967,-0.575603999999999,-19999],[-80.045959,-0.575603999999999,-19999],[-80.045959,-0.575603999999999,-19999],[-80.045952,-0.575603999999999,-19999],[-80.045944,-0.575603999999999,-19999],[-80.045944,-0.575603999999999,-19999],[-80.045937,-0.575601,-19999],[-80.045929,-0.575599000000005,-19999],[-80.045929,-0.575599000000005,-19999],[-80.045921,-0.575596000000005,-19999],[-80.045914,-0.575596000000005,-19999],[-80.045914,-0.575593000000006,-19999],[-80.045906,-0.575590999999986,-19999],[-80.045898,-0.575588000000012,-19999],[-80.045898,-0.575583000000005,-19999],[-80.045898,-0.575577000000007,-19999],[-80.045891,-0.575574999999999,-19999],[-80.045883,-0.575570000000004,-19999],[-80.045883,-0.575564000000006,-19999],[-80.045876,-0.575558999999999,-19999],[-80.045876,-0.575554000000017,-19999],[-80.045868,-0.575550999999993,-19999],[-80.045868,-0.575545999999998,-19999],[-80.04586,-0.575543000000012,-19999],[-80.04586,-0.575541000000004,-19999],[-80.045853,-0.575535000000006,-19999],[-80.045853,-0.575533000000011,-19999],[-80.045845,-0.575527,-19999],[-80.045837,-0.575525000000005,-19999],[-80.045837,-0.575522000000005,-19999],[-80.04583,-0.57552000000001,-19999],[-80.045822,-0.575516999999998,-19999],[-80.045822,-0.575512000000017,-19999],[-80.045815,-0.575508999999992,-19999],[-80.045807,-0.575504000000011,-19999],[-80.045807,-0.575501000000011,-19999],[-80.045807,-0.575496000000017,-19999],[-80.045799,-0.57549100000001,-19999],[-80.045799,-0.575484999999999,-19999],[-80.045799,-0.575480000000005,-19999],[-80.045799,-0.575474999999998,-19999],[-80.045792,-0.575468999999999,-19999],[-80.045792,-0.575464000000005,-19999],[-80.045792,-0.575459000000011,-19999],[-80.045792,-0.575454000000004,-19999],[-80.045784,-0.575448000000005,-19999],[-80.045784,-0.575443000000011,-19999],[-80.045784,-0.575438000000004,-19999],[-80.045776,-0.57543300000001,-19999],[-80.045776,-0.575426999999999,-19999],[-80.045769,-0.575422000000004,-19999],[-80.045769,-0.575416999999997,-19999],[-80.045769,-0.575412000000003,-19999],[-80.045761,-0.575406000000005,-19999],[-80.045761,-0.57540100000001,-19999],[-80.045761,-0.575396000000003,-19999],[-80.045753,-0.575393000000004,-19999],[-80.045753,-0.575387999999997,-19999],[-80.045746,-0.57538299999999,-19999],[-80.045746,-0.575377000000017,-19999],[-80.045738,-0.575371999999998,-19999],[-80.045738,-0.575367000000003,-19999],[-80.045731,-0.575361999999996,-19999],[-80.045731,-0.575356000000011,-19999],[-80.045731,-0.575351000000003,-19999],[-80.045723,-0.575346000000009,-19999],[-80.045723,-0.575342999999997,-19999],[-80.045715,-0.575338000000003,-19999],[-80.045715,-0.575333000000009,-19999],[-80.045708,-0.57532700000001,-19999],[-80.045708,-0.575325000000003,-19999],[-80.0457,-0.575319000000004,-19999],[-80.0457,-0.575316999999996,-19999],[-80.045692,-0.575311000000011,-19999],[-80.045692,-0.575306000000004,-19999],[-80.045685,-0.575304000000008,-19999],[-80.045677,-0.575301000000009,-19999],[-80.045677,-0.575296000000015,-19999],[-80.04567,-0.575290000000004,-19999],[-80.045662,-0.575288000000022,-19999],[-80.045662,-0.575283000000015,-19999],[-80.045654,-0.575277000000016,-19999],[-80.045647,-0.575272000000009,-19999],[-80.045647,-0.575267000000002,-19999],[-80.045639,-0.575264000000003,-19999],[-80.045631,-0.575261000000004,-19999],[-80.045631,-0.57525600000001,-19999],[-80.045631,-0.575251000000003,-19999],[-80.045624,-0.575247999999991,-19999],[-80.045624,-0.575243000000009,-19999],[-80.045616,-0.575238000000002,-19999],[-80.045616,-0.575233000000008,-19999],[-80.045609,-0.575230000000009,-19999],[-80.045609,-0.575225000000002,-19999],[-80.045601,-0.575219000000003,-19999],[-80.045601,-0.575214000000009,-19999],[-80.045601,-0.575208999999989,-19999],[-80.045593,-0.575204000000007,-19999],[-80.045586,-0.575198000000009,-19999],[-80.045586,-0.575193000000002,-19999],[-80.045586,-0.575188000000008,-19999],[-80.045578,-0.57518200000001,-19999],[-80.045578,-0.575177000000015,-19999],[-80.045578,-0.575172000000008,-19999],[-80.045578,-0.575166999999988,-19999],[-80.045578,-0.575161000000003,-19999],[-80.04557,-0.575155999999996,-19999],[-80.04557,-0.575151000000014,-19999],[-80.04557,-0.575145999999994,-19999],[-80.04557,-0.575139999999996,-19999],[-80.045563,-0.575135000000015,-19999],[-80.045563,-0.575129999999995,-19999],[-80.045563,-0.575125,-19999],[-80.045563,-0.575119000000015,-19999],[-80.045563,-0.575114000000008,-19999],[-80.045555,-0.575109000000001,-19999],[-80.045555,-0.575103000000003,-19999],[-80.045547,-0.575098000000008,-19999],[-80.045547,-0.575093000000001,-19999],[-80.045547,-0.575088000000007,-19999],[-80.04554,-0.575085000000008,-19999],[-80.04554,-0.575080000000013,-19999],[-80.045532,-0.575077000000002,-19999],[-80.045532,-0.575072000000007,-19999],[-80.045525,-0.575068999999995,-19999],[-80.045525,-0.575064000000014,-19999],[-80.045517,-0.575061000000002,-19999],[-80.045509,-0.575059000000007,-19999],[-80.045502,-0.575055999999995,-19999],[-80.045502,-0.575051000000001,-19999],[-80.045494,-0.575048000000001,-19999],[-80.045486,-0.575045999999993,-19999],[-80.045486,-0.575042999999994,-19999],[-80.045479,-0.575040000000021,-19999],[-80.045471,-0.575038,-19999],[-80.045471,-0.575035000000001,-19999],[-80.045464,-0.575035000000001,-19999],[-80.045456,-0.575032000000002,-19999],[-80.045456,-0.575032000000002,-19999],[-80.045448,-0.575030000000006,-19999],[-80.045441,-0.575027000000007,-19999],[-80.045433,-0.575024000000008,-19999],[-80.045433,-0.575019000000001,-19999],[-80.045425,-0.575017000000006,-19999],[-80.045425,-0.57501100000002,-19999],[-80.045418,-0.575009000000013,-19999],[-80.045418,-0.575003000000001,-19999],[-80.04541,-0.575001000000006,-19999],[-80.045403,-0.574998000000007,-19999],[-80.045403,-0.574995999999999,-19999],[-80.045395,-0.574993000000013,-19999],[-80.045387,-0.574990000000014,-19999],[-80.045387,-0.574987999999993,-19999],[-80.04538,-0.574987999999993,-19999],[-80.045372,-0.574981999999995,-19999],[-80.045364,-0.574981999999995,-19999],[-80.045357,-0.574977000000001,-19999],[-80.045349,-0.574974000000001,-19999],[-80.045349,-0.574972000000006,-19999],[-80.045341,-0.574969000000007,-19999],[-80.045334,-0.574966999999999,-19999],[-80.045334,-0.574964,-19999],[-80.045326,-0.574961000000014,-19999],[-80.045319,-0.574961000000014,-19999],[-80.045319,-0.574959000000006,-19999],[-80.045311,-0.574956000000007,-19999],[-80.045303,-0.574950999999999,-19999],[-80.045303,-0.574948000000013,-19999],[-80.045296,-0.574945000000014,-19999],[-80.045288,-0.574939999999994,-19999],[-80.045288,-0.574938000000012,-19999],[-80.04528,-0.574932000000001,-19999],[-80.04528,-0.574929999999993,-19999],[-80.045273,-0.574927000000006,-19999],[-80.045265,-0.574924000000007,-19999],[-80.045265,-0.574921999999999,-19999],[-80.045258,-0.574921999999999,-19999],[-80.04525,-0.574919,-19999],[-80.04525,-0.574916000000001,-19999],[-80.045242,-0.574914000000006,-19999],[-80.045235,-0.574911000000007,-19999],[-80.045235,-0.574908999999999,-19999],[-80.045227,-0.574906000000012,-19999],[-80.045219,-0.574903,-19999],[-80.045212,-0.574903,-19999],[-80.045212,-0.574900999999993,-19999],[-80.045204,-0.574900999999993,-19999],[-80.045197,-0.574898000000006,-19999],[-80.045197,-0.574895000000007,-19999],[-80.045189,-0.574893000000012,-19999],[-80.045181,-0.57489,-19999],[-80.045181,-0.57489,-19999],[-80.045174,-0.574888000000005,-19999],[-80.045166,-0.574884999999993,-19999],[-80.045166,-0.574882000000007,-19999],[-80.045158,-0.574880000000011,-19999],[-80.045151,-0.574880000000011,-19999],[-80.045143,-0.574877,-19999],[-80.045143,-0.574874,-19999],[-80.045135,-0.574874,-19999],[-80.045128,-0.574874,-19999],[-80.045128,-0.574874,-19999],[-80.04512,-0.574872000000005,-19999],[-80.045113,-0.574872000000005,-19999],[-80.045113,-0.574872000000005,-19999],[-80.045105,-0.574872000000005,-19999],[-80.045097,-0.574872000000005,-19999],[-80.045097,-0.574869000000006,-19999],[-80.04509,-0.574869000000006,-19999],[-80.045082,-0.574869000000006,-19999],[-80.045082,-0.574869000000006,-19999],[-80.045074,-0.574869000000006,-19999],[-80.045067,-0.574866000000007,-19999],[-80.045059,-0.574866000000007,-19999],[-80.045059,-0.574863999999999,-19999],[-80.045052,-0.574863999999999,-19999],[-80.045044,-0.574861000000013,-19999],[-80.045044,-0.574861000000013,-19999],[-80.045036,-0.574861000000013,-19999],[-80.045029,-0.574861000000013,-19999],[-80.045029,-0.574859000000005,-19999],[-80.045021,-0.574856000000005,-19999],[-80.045013,-0.574856000000005,-19999],[-80.045013,-0.574853000000006,-19999],[-80.045006,-0.574853000000006,-19999],[-80.044998,-0.574850999999998,-19999],[-80.044991,-0.574847999999999,-19999],[-80.044991,-0.574847999999999,-19999],[-80.044983,-0.574847999999999,-19999],[-80.044975,-0.574845000000013,-19999],[-80.044975,-0.574845000000013,-19999],[-80.044968,-0.574845000000013,-19999],[-80.04496,-0.574845000000013,-19999],[-80.04496,-0.574845000000013,-19999],[-80.044952,-0.574845000000013,-19999],[-80.044945,-0.574845000000013,-19999],[-80.044945,-0.574845000000013,-19999],[-80.044937,-0.574847999999999,-19999],[-80.04493,-0.574847999999999,-19999],[-80.044922,-0.574850999999998,-19999],[-80.044922,-0.574853000000006,-19999],[-80.044914,-0.574853000000006,-19999],[-80.044907,-0.574859000000005,-19999],[-80.044907,-0.574859000000005,-19999],[-80.044899,-0.574861000000013,-19999],[-80.044891,-0.574863999999999,-19999],[-80.044891,-0.574866000000007,-19999],[-80.044884,-0.574866000000007,-19999],[-80.044876,-0.574869000000006,-19999],[-80.044876,-0.574869000000006,-19999],[-80.044868,-0.574872000000005,-19999],[-80.044861,-0.574874,-19999],[-80.044861,-0.574877,-19999],[-80.044853,-0.574880000000011,-19999],[-80.044846,-0.574882000000007,-19999],[-80.044846,-0.574888000000005,-19999],[-80.044838,-0.574888000000005,-19999],[-80.04483,-0.57489,-19999],[-80.04483,-0.574893000000012,-19999],[-80.044823,-0.574895000000007,-19999],[-80.044815,-0.574898000000006,-19999],[-80.044815,-0.574903,-19999],[-80.044807,-0.574906000000012,-19999],[-80.0448,-0.574908999999999,-19999],[-80.0448,-0.574911000000007,-19999],[-80.044792,-0.574916000000001,-19999],[-80.044792,-0.574919,-19999],[-80.044785,-0.574921999999999,-19999],[-80.044777,-0.574924000000007,-19999],[-80.044769,-0.574927000000006,-19999],[-80.044769,-0.574929999999993,-19999],[-80.044762,-0.574932000000001,-19999],[-80.044754,-0.574935000000013,-19999],[-80.044754,-0.574938000000012,-19999],[-80.044746,-0.574939999999994,-19999],[-80.044739,-0.574942999999993,-19999],[-80.044739,-0.574942999999993,-19999],[-80.044731,-0.574945000000014,-19999],[-80.044724,-0.574948000000013,-19999],[-80.044724,-0.574948000000013,-19999],[-80.044716,-0.574950999999999,-19999],[-80.044708,-0.574950999999999,-19999],[-80.044701,-0.574953000000007,-19999],[-80.044701,-0.574956000000007,-19999],[-80.044693,-0.574959000000006,-19999],[-80.044685,-0.574959000000006,-19999],[-80.044685,-0.574961000000014,-19999],[-80.044678,-0.574961000000014,-19999],[-80.04467,-0.574964,-19999],[-80.04467,-0.574964,-19999],[-80.044662,-0.574966999999999,-19999],[-80.044655,-0.574966999999999,-19999],[-80.044655,-0.574966999999999,-19999],[-80.044647,-0.574966999999999,-19999],[-80.04464,-0.574966999999999,-19999],[-80.04464,-0.574966999999999,-19999],[-80.044632,-0.574966999999999,-19999],[-80.044624,-0.574966999999999,-19999],[-80.044617,-0.574966999999999,-19999],[-80.044617,-0.574966999999999,-19999],[-80.044609,-0.574966999999999,-19999],[-80.044601,-0.574966999999999,-19999],[-80.044601,-0.574964,-19999],[-80.044594,-0.574964,-19999],[-80.044586,-0.574964,-19999],[-80.044586,-0.574961000000014,-19999],[-80.044579,-0.574961000000014,-19999],[-80.044571,-0.574961000000014,-19999],[-80.044571,-0.574961000000014,-19999],[-80.044563,-0.574959000000006,-19999],[-80.044556,-0.574959000000006,-19999],[-80.044548,-0.574959000000006,-19999],[-80.044548,-0.574956000000007,-19999],[-80.04454,-0.574956000000007,-19999],[-80.044533,-0.574956000000007,-19999],[-80.044533,-0.574956000000007,-19999],[-80.044525,-0.574953000000007,-19999],[-80.044518,-0.574953000000007,-19999],[-80.044518,-0.574953000000007,-19999],[-80.04451,-0.574950999999999,-19999],[-80.044502,-0.574950999999999,-19999],[-80.044502,-0.574950999999999,-19999],[-80.044495,-0.574950999999999,-19999],[-80.044487,-0.574950999999999,-19999],[-80.044479,-0.574950999999999,-19999],[-80.044479,-0.574950999999999,-19999],[-80.044472,-0.574950999999999,-19999],[-80.044464,-0.574950999999999,-19999],[-80.044464,-0.574950999999999,-19999],[-80.044456,-0.574950999999999,-19999],[-80.044449,-0.574950999999999,-19999],[-80.044449,-0.574950999999999,-19999],[-80.044441,-0.574950999999999,-19999],[-80.044434,-0.574948000000013,-19999],[-80.044434,-0.574948000000013,-19999],[-80.044426,-0.574948000000013,-19999],[-80.044418,-0.574948000000013,-19999],[-80.044418,-0.574948000000013,-19999],[-80.044411,-0.574948000000013,-19999],[-80.044403,-0.574948000000013,-19999],[-80.044395,-0.574948000000013,-19999],[-80.044395,-0.574948000000013,-19999],[-80.044388,-0.574948000000013,-19999],[-80.04438,-0.574948000000013,-19999],[-80.04438,-0.574948000000013,-19999],[-80.044373,-0.574948000000013,-19999],[-80.044365,-0.574948000000013,-19999],[-80.044365,-0.574948000000013,-19999],[-80.044357,-0.574948000000013,-19999],[-80.04435,-0.574948000000013,-19999],[-80.04435,-0.574948000000013,-19999],[-80.044342,-0.574948000000013,-19999],[-80.044334,-0.574948000000013,-19999],[-80.044327,-0.574948000000013,-19999],[-80.044327,-0.574948000000013,-19999],[-80.044319,-0.574948000000013,-19999],[-80.044312,-0.574948000000013,-19999],[-80.044312,-0.574948000000013,-19999],[-80.044304,-0.574948000000013,-19999],[-80.044296,-0.574945000000014,-19999],[-80.044296,-0.574945000000014,-19999],[-80.044289,-0.574942999999993,-19999],[-80.044281,-0.574942999999993,-19999],[-80.044281,-0.574942999999993,-19999],[-80.044273,-0.574939999999994,-19999],[-80.044266,-0.574938000000012,-19999],[-80.044266,-0.574935000000013,-19999],[-80.044258,-0.574932000000001,-19999],[-80.04425,-0.574929999999993,-19999],[-80.044243,-0.574927000000006,-19999],[-80.044243,-0.574924000000007,-19999],[-80.044235,-0.574921999999999,-19999],[-80.044228,-0.574921999999999,-19999],[-80.044228,-0.574919,-19999],[-80.04422,-0.574916000000001,-19999],[-80.044212,-0.574914000000006,-19999],[-80.044212,-0.574911000000007,-19999],[-80.044205,-0.574908999999999,-19999],[-80.044197,-0.574906000000012,-19999],[-80.044197,-0.574900999999993,-19999],[-80.044189,-0.574898000000006,-19999],[-80.044182,-0.574893000000012,-19999],[-80.044182,-0.574888000000005,-19999],[-80.044174,-0.574884999999993,-19999],[-80.044174,-0.574882000000007,-19999],[-80.044167,-0.574877,-19999],[-80.044167,-0.574872000000005,-19999],[-80.044159,-0.574869000000006,-19999],[-80.044159,-0.574863999999999,-19999],[-80.044159,-0.574859000000005,-19999],[-80.044151,-0.574853000000006,-19999],[-80.044151,-0.574847999999999,-19999],[-80.044151,-0.574843000000005,-19999],[-80.044144,-0.574837999999998,-19999],[-80.044144,-0.574832,-19999],[-80.044144,-0.574827000000005,-19999],[-80.044144,-0.574821999999998,-19999],[-80.044144,-0.574816,-19999],[-80.044136,-0.574811000000006,-19999],[-80.044136,-0.574806000000011,-19999],[-80.044136,-0.574800999999992,-19999],[-80.044136,-0.574795000000006,-19999],[-80.044136,-0.574790000000012,-19999],[-80.044136,-0.574785000000005,-19999],[-80.044136,-0.574779999999998,-19999],[-80.044136,-0.574774000000012,-19999],[-80.044136,-0.574769000000005,-19999],[-80.044136,-0.574763999999998,-19999],[-80.044136,-0.574758,-19999],[-80.044128,-0.574753000000005,-19999],[-80.044128,-0.574748000000011,-19999],[-80.044128,-0.574742999999991,-19999],[-80.044128,-0.574737000000006,-19999],[-80.044128,-0.574731999999999,-19999],[-80.044128,-0.574727000000004,-19999],[-80.044128,-0.574721999999997,-19999],[-80.044128,-0.574715999999999,-19999],[-80.044128,-0.574710999999992,-19999],[-80.044121,-0.57470600000001,-19999],[-80.044121,-0.574701000000003,-19999],[-80.044121,-0.574695000000018,-19999],[-80.044121,-0.574690000000011,-19999],[-80.044121,-0.574685000000004,-19999],[-80.044113,-0.574678999999993,-19999],[-80.044113,-0.574673999999998,-19999],[-80.044113,-0.574669000000004,-19999],[-80.044106,-0.57466400000001,-19999],[-80.044106,-0.574658000000011,-19999],[-80.044106,-0.574653000000004,-19999],[-80.044098,-0.57464800000001,-19999],[-80.044098,-0.574643000000016,-19999],[-80.04409,-0.574640000000004,-19999],[-80.04409,-0.57463500000001,-19999],[-80.04409,-0.574629000000011,-19999],[-80.044083,-0.574624000000017,-19999],[-80.044083,-0.574622000000009,-19999],[-80.044083,-0.574616000000011,-19999],[-80.044075,-0.574611000000004,-19999],[-80.044075,-0.574608000000005,-19999],[-80.044067,-0.574602999999998,-19999],[-80.044067,-0.574598000000016,-19999],[-80.04406,-0.574592999999996,-19999],[-80.04406,-0.57459000000001,-19999],[-80.044052,-0.574586999999998,-19999],[-80.044044,-0.574585000000003,-19999],[-80.044044,-0.574582000000003,-19999],[-80.044037,-0.574577000000009,-19999],[-80.044029,-0.57457400000001,-19999],[-80.044029,-0.57456899999999,-19999],[-80.044022,-0.574564000000009,-19999],[-80.044022,-0.57455800000001,-19999],[-80.044022,-0.574552999999991,-19999],[-80.044014,-0.574547999999996,-19999],[-80.044014,-0.574543000000015,-19999],[-80.044006,-0.574537000000004,-19999],[-80.044006,-0.574532000000009,-19999],[-80.044006,-0.574527000000002,-19999],[-80.044006,-0.574519000000009,-19999],[-80.044006,-0.57451099999999,-19999],[-80.044006,-0.574505999999996,-19999],[-80.044006,-0.574499999999997,-19999],[-80.044006,-0.574495000000003,-19999],[-80.043999,-0.574490000000009,-19999],[-80.043999,-0.574485000000002,-19999],[-80.043999,-0.574479000000003,-19999],[-80.043999,-0.574473999999996,-19999],[-80.043999,-0.574468999999989,-19999],[-80.043999,-0.574464000000008,-19999],[-80.043999,-0.574457999999997,-19999],[-80.043991,-0.574453000000002,-19999],[-80.043991,-0.574448000000008,-19999],[-80.043991,-0.574443000000014,-19999],[-80.043991,-0.574437000000003,-19999],[-80.043983,-0.574432000000008,-19999],[-80.043983,-0.574427000000001,-19999],[-80.043983,-0.574421000000003,-19999]]},"properties":{"routing_mode":"pedestrian","title":"T1","time_created":"2026-07-07T18:44:16+00:00","color":"#00B2FF","ObjectId":4}}]}