{
"type": "FeatureCollection",
"name": "rivers",
"crs": { "type": "name", "properties": { "name": "urn:ogc:def:crs:EPSG::32717" } },
"features": [
{ "type": "Feature", "properties": { "Subbasin": 1, "SubbasinR": 0, "AreaC": 63.0, "Len2": 143.2, "Slo2": 0.0, "Wid2": 0.97976374426253199, "Dep2": 0.108217572675959, "MinEl": 48.0, "MaxEl": 48.0, "Shape_Len": 143.2, "HydroID": 200001, "OutletID": 100001 }, "geometry": { "type": "MultiLineString", "coordinates": [ [ [ 606470.496612359536812, 9936296.978882201015949 ], [ 606466.834347940050066, 9936300.622937001287937 ], [ 606463.172083520563319, 9936300.622937001287937 ], [ 606459.509819101192988, 9936300.622937001287937 ], [ 606455.847554681706242, 9936300.622937001287937 ], [ 606452.185290262219496, 9936304.26699179969728 ], [ 606448.52302584273275, 9936307.911046599969268 ], [ 606444.860761423246004, 9936311.555101400241256 ], [ 606441.198497003759257, 9936315.199156200513244 ], [ 606441.198497003759257, 9936318.843211000785232 ], [ 606437.536232584272511, 9936322.48726580105722 ], [ 606433.873968164785765, 9936326.131320601329207 ], [ 606430.211703745299019, 9936326.131320601329207 ], [ 606426.549439325812273, 9936329.77537539973855 ], [ 606426.549439325812273, 9936333.419430200010538 ], [ 606426.549439325812273, 9936337.063485000282526 ], [ 606426.549439325812273, 9936340.707539800554514 ], [ 606426.549439325812273, 9936344.351594600826502 ], [ 606426.549439325812273, 9936347.99564940109849 ], [ 606430.211703745299019, 9936351.639704199507833 ], [ 606430.211703745299019, 9936355.28375899977982 ], [ 606426.549439325812273, 9936358.927813800051808 ], [ 606422.887174906441942, 9936362.571868600323796 ], [ 606422.887174906441942, 9936366.215923400595784 ], [ 606419.224910486955196, 9936369.859978200867772 ], [ 606419.224910486955196, 9936373.50403300113976 ], [ 606415.562646067468449, 9936377.148087799549103 ], [ 606415.562646067468449, 9936380.792142599821091 ], [ 606419.224910486955196, 9936384.436197400093079 ], [ 606419.224910486955196, 9936388.080252200365067 ], [ 606422.887174906441942, 9936391.724307000637054 ], [ 606422.887174906441942, 9936395.368361800909042 ], [ 606422.887174906441942, 9936399.01241660118103 ], [ 606422.887174906441942, 9936402.656471399590373 ] ] ] } },
{ "type": "Feature", "properties": { "Subbasin": 2, "SubbasinR": 1, "AreaC": 42.0, "Len2": 30.1, "Slo2": 0.0, "Wid2": 0.76398584562171401, "Dep2": 0.091679820380705004, "MinEl": 48.0, "MaxEl": 48.0, "Shape_Len": 30.1, "HydroID": 200002, "OutletID": 100002 }, "geometry": { "type": "MultiLineString", "coordinates": [ [ [ 606422.887174906441942, 9936402.656471399590373 ], [ 606422.887174906441942, 9936406.300526199862361 ], [ 606422.887174906441942, 9936409.944581000134349 ], [ 606422.887174906441942, 9936413.588635800406337 ], [ 606419.224910486955196, 9936417.232690600678325 ], [ 606415.562646067468449, 9936420.876745400950313 ], [ 606411.900381647981703, 9936420.876745400950313 ], [ 606408.238117228494957, 9936424.520800201222301 ] ] ] } },
{ "type": "Feature", "properties": { "Subbasin": 3, "SubbasinR": 1, "AreaC": 20.0, "Len2": 5.2, "Slo2": 0.0, "Wid2": 0.49131361403284601, "Dep2": 0.068305563374346998, "MinEl": 48.0, "MaxEl": 48.0, "Shape_Len": 5.2, "HydroID": 200003, "OutletID": 100003 }, "geometry": { "type": "MultiLineString", "coordinates": [ [ [ 606422.887174906441942, 9936402.656471399590373 ], [ 606426.549439325812273, 9936406.300526199862361 ] ] ] } },
{ "type": "Feature", "properties": { "Subbasin": 4, "SubbasinR": 2, "AreaC": 39.0, "Len2": 90.4, "Slo2": 4.9778761062547963, "Wid2": 0.73403443095615895, "Dep2": 0.089267731780164006, "MinEl": 48.0, "MaxEl": 52.500000000054335, "Shape_Len": 90.4, "HydroID": 200004, "OutletID": 100004 }, "geometry": { "type": "MultiLineString", "coordinates": [ [ [ 606408.238117228494957, 9936424.520800201222301 ], [ 606404.575852809008211, 9936424.520800201222301 ], [ 606400.913588389521465, 9936428.164854999631643 ], [ 606397.251323970034719, 9936428.164854999631643 ], [ 606393.589059550547972, 9936431.808909799903631 ], [ 606389.926795131061226, 9936431.808909799903631 ], [ 606386.26453071157448, 9936435.452964600175619 ], [ 606382.602266292204149, 9936439.097019400447607 ], [ 606378.940001872717403, 9936442.741074200719595 ], [ 606375.277737453230657, 9936446.385129000991583 ], [ 606371.61547303374391, 9936450.029183799400926 ], [ 606367.953208614257164, 9936453.673238599672914 ], [ 606364.290944194770418, 9936453.673238599672914 ], [ 606360.628679775283672, 9936453.673238599672914 ], [ 606356.966415355796926, 9936453.673238599672914 ], [ 606356.966415355796926, 9936450.029183799400926 ], [ 606353.30415093631018, 9936446.385129000991583 ], [ 606349.641886516823433, 9936446.385129000991583 ], [ 606345.979622097453102, 9936446.385129000991583 ], [ 606342.317357677966356, 9936446.385129000991583 ], [ 606338.65509325847961, 9936446.385129000991583 ], [ 606334.992828838992864, 9936446.385129000991583 ] ] ] } },
{ "type": "Feature", "properties": { "Subbasin": 5, "SubbasinR": 4, "AreaC": 30.0, "Len2": 7.3, "Slo2": 0.0, "Wid2": 0.62300909227010504, "Dep2": 0.080022687980909002, "MinEl": 52.500000000054335, "MaxEl": 52.500000000054335, "Shape_Len": 7.3, "HydroID": 200005, "OutletID": 100005 }, "geometry": { "type": "MultiLineString", "coordinates": [ [ [ 606334.992828838992864, 9936446.385129000991583 ], [ 606331.330564419506118, 9936446.385129000991583 ], [ 606327.668300000019372, 9936446.385129000991583 ] ] ] } },
{ "type": "Feature", "properties": { "Subbasin": 6, "SubbasinR": 5, "AreaC": 25.0, "Len2": 337.0, "Slo2": 3.560830860518001, "Wid2": 0.56778050405000902, "Dep2": 0.075220669775301993, "MinEl": 52.500000000054335, "MaxEl": 64.5, "Shape_Len": 337.0, "HydroID": 200006, "OutletID": 100006 }, "geometry": { "type": "MultiLineString", "coordinates": [ [ [ 606327.668300000019372, 9936446.385129000991583 ], [ 606327.668300000019372, 9936450.029183799400926 ], [ 606324.006035580532625, 9936453.673238599672914 ], [ 606324.006035580532625, 9936457.317293399944901 ], [ 606320.343771161045879, 9936460.961348200216889 ], [ 606316.681506741559133, 9936464.605403000488877 ], [ 606313.019242322072387, 9936468.249457800760865 ], [ 606309.356977902702056, 9936468.249457800760865 ], [ 606305.69471348321531, 9936471.893512601032853 ], [ 606302.032449063728563, 9936475.537567399442196 ], [ 606298.370184644241817, 9936475.537567399442196 ], [ 606294.707920224755071, 9936479.181622199714184 ], [ 606294.707920224755071, 9936482.825677 ], [ 606291.045655805268325, 9936486.46973180025816 ], [ 606287.383391385781579, 9936490.113786600530148 ], [ 606283.721126966294833, 9936493.757841400802135 ], [ 606280.058862546808086, 9936497.401896201074123 ], [ 606276.39659812732134, 9936501.045950999483466 ], [ 606276.39659812732134, 9936504.690005799755454 ], [ 606272.734333707951009, 9936508.334060600027442 ], [ 606272.734333707951009, 9936511.97811540029943 ], [ 606272.734333707951009, 9936515.622170200571418 ], [ 606269.072069288464263, 9936519.266225000843406 ], [ 606265.409804868977517, 9936522.910279801115394 ], [ 606265.409804868977517, 9936526.554334599524736 ], [ 606265.409804868977517, 9936530.198389399796724 ], [ 606269.072069288464263, 9936533.842444200068712 ], [ 606269.072069288464263, 9936537.4864990003407 ], [ 606272.734333707951009, 9936541.130553800612688 ], [ 606276.39659812732134, 9936541.130553800612688 ], [ 606280.058862546808086, 9936544.774608600884676 ], [ 606283.721126966294833, 9936548.418663399294019 ], [ 606283.721126966294833, 9936552.062718199566007 ], [ 606280.058862546808086, 9936555.706772999837995 ], [ 606276.39659812732134, 9936555.706772999837995 ], [ 606272.734333707951009, 9936559.350827800109982 ], [ 606269.072069288464263, 9936562.99488260038197 ], [ 606265.409804868977517, 9936562.99488260038197 ], [ 606261.747540449490771, 9936559.350827800109982 ], [ 606258.085276030004025, 9936559.350827800109982 ], [ 606254.423011610517278, 9936562.99488260038197 ], [ 606254.423011610517278, 9936566.638937400653958 ], [ 606254.423011610517278, 9936570.282992200925946 ], [ 606250.760747191030532, 9936573.927046999335289 ], [ 606247.098482771543786, 9936577.571101799607277 ], [ 606247.098482771543786, 9936581.215156599879265 ], [ 606247.098482771543786, 9936584.859211400151253 ], [ 606247.098482771543786, 9936588.503266200423241 ], [ 606247.098482771543786, 9936592.147321000695229 ], [ 606247.098482771543786, 9936595.791375800967216 ], [ 606247.098482771543786, 9936599.435430599376559 ], [ 606243.43621835205704, 9936603.079485399648547 ], [ 606243.43621835205704, 9936606.723540199920535 ], [ 606243.43621835205704, 9936610.367595000192523 ], [ 606239.773953932570294, 9936614.011649800464511 ], [ 606239.773953932570294, 9936617.655704600736499 ], [ 606239.773953932570294, 9936621.299759401008487 ], [ 606239.773953932570294, 9936624.94381419941783 ], [ 606243.43621835205704, 9936628.587868999689817 ], [ 606243.43621835205704, 9936632.231923799961805 ], [ 606247.098482771543786, 9936635.875978600233793 ], [ 606247.098482771543786, 9936639.520033400505781 ], [ 606247.098482771543786, 9936643.164088200777769 ], [ 606247.098482771543786, 9936646.808142999187112 ], [ 606247.098482771543786, 9936650.4521977994591 ], [ 606247.098482771543786, 9936654.096252599731088 ], [ 606243.43621835205704, 9936657.740307400003076 ], [ 606243.43621835205704, 9936661.384362200275064 ], [ 606243.43621835205704, 9936665.028417000547051 ], [ 606243.43621835205704, 9936668.672471800819039 ], [ 606239.773953932570294, 9936672.316526599228382 ], [ 606239.773953932570294, 9936675.96058139950037 ], [ 606239.773953932570294, 9936679.604636199772358 ], [ 606236.111689513083547, 9936683.248691 ], [ 606232.449425093713216, 9936686.892745800316334 ], [ 606228.78716067422647, 9936690.536800600588322 ], [ 606225.124896254739724, 9936694.18085540086031 ], [ 606221.462631835252978, 9936697.824910199269652 ] ] ] } },
{ "type": "Feature", "properties": { "Subbasin": 7, "SubbasinR": 6, "AreaC": 22.0, "Len2": 86.7, "Slo2": 3.6093e-11, "Wid2": 0.51659798792190503, "Dep2": 0.070629373232316994, "MinEl": 64.5, "MaxEl": 64.500000000031292, "Shape_Len": 86.7, "HydroID": 200007, "OutletID": 100007 }, "geometry": { "type": "MultiLineString", "coordinates": [ [ [ 606221.462631835252978, 9936697.824910199269652 ], [ 606217.800367415766232, 9936697.824910199269652 ], [ 606214.138102996279486, 9936701.46896499954164 ], [ 606210.475838576792739, 9936705.113019799813628 ], [ 606206.813574157305993, 9936708.757074600085616 ], [ 606203.151309737819247, 9936708.757074600085616 ], [ 606199.489045318332501, 9936712.401129400357604 ], [ 606195.82678089896217, 9936712.401129400357604 ], [ 606192.164516479475424, 9936716.045184200629592 ], [ 606188.502252059988678, 9936716.045184200629592 ], [ 606184.839987640501931, 9936716.045184200629592 ], [ 606181.177723221015185, 9936716.045184200629592 ], [ 606177.515458801528439, 9936719.68923900090158 ], [ 606173.853194382041693, 9936719.68923900090158 ], [ 606170.190929962554947, 9936719.68923900090158 ], [ 606166.5286655430682, 9936723.333293799310923 ], [ 606166.5286655430682, 9936726.977348599582911 ], [ 606162.866401123581454, 9936730.621403399854898 ], [ 606162.866401123581454, 9936734.265458200126886 ], [ 606159.204136704211123, 9936737.909513000398874 ], [ 606159.204136704211123, 9936741.553567800670862 ] ] ] } },
{ "type": "Feature", "properties": { "Subbasin": 8, "SubbasinR": 7, "AreaC": 17.0, "Len2": 10.3, "Slo2": 8.5351262130415115, "Wid2": 0.44186474030404699, "Dep2": 0.063641896116558003, "MinEl": 64.500000000031292, "MaxEl": 65.379117999974568, "Shape_Len": 10.3, "HydroID": 200008, "OutletID": 100008 }, "geometry": { "type": "MultiLineString", "coordinates": [ [ [ 606159.204136704211123, 9936741.553567800670862 ], [ 606155.541872284724377, 9936745.19762260094285 ], [ 606151.879607865237631, 9936748.841677399352193 ] ] ] } },
{ "type": "Feature", "properties": { "Subbasin": 9, "SubbasinR": 8, "AreaC": 9.0, "Len2": 73.5, "Slo2": 4.1238870747041103, "Wid2": 0.30989255418098099, "Dep2": 0.050237070526411999, "MinEl": 65.379117999974568, "MaxEl": 68.410174999882088, "Shape_Len": 73.5, "HydroID": 200009, "OutletID": 100009 }, "geometry": { "type": "MultiLineString", "coordinates": [ [ [ 606151.879607865237631, 9936748.841677399352193 ], [ 606151.879607865237631, 9936752.485732199624181 ], [ 606151.879607865237631, 9936756.129786999896169 ], [ 606148.217343445750885, 9936759.773841800168157 ], [ 606144.555079026264139, 9936763.417896600440145 ], [ 606144.555079026264139, 9936767.061951400712132 ], [ 606140.892814606777392, 9936770.706006199121475 ], [ 606137.230550187290646, 9936770.706006199121475 ], [ 606133.5682857678039, 9936774.350060999393463 ], [ 606129.906021348317154, 9936777.994115799665451 ], [ 606126.243756928830408, 9936781.638170599937439 ], [ 606126.243756928830408, 9936785.282225400209427 ], [ 606122.581492509460077, 9936788.926280200481415 ], [ 606122.581492509460077, 9936792.570335000753403 ], [ 606118.91922808997333, 9936796.214389799162745 ], [ 606115.256963670486584, 9936799.858444599434733 ], [ 606111.594699250999838, 9936803.502499399706721 ] ] ] } },
{ "type": "Feature", "properties": { "Subbasin": 10, "SubbasinR": 4, "AreaC": 8.0, "Len2": 492.2, "Slo2": 1.5237708248569011, "Wid2": 0.29184003802021502, "Dep2": 0.048266609665888999, "MinEl": 52.500000000054335, "MaxEl": 60.0, "Shape_Len": 492.2, "HydroID": 200010, "OutletID": 100010 }, "geometry": { "type": "MultiLineString", "coordinates": [ [ [ 606334.992828838992864, 9936446.385129000991583 ], [ 606331.330564419506118, 9936442.741074200719595 ], [ 606327.668300000019372, 9936442.741074200719595 ], [ 606324.006035580532625, 9936442.741074200719595 ], [ 606320.343771161045879, 9936439.097019400447607 ], [ 606316.681506741559133, 9936435.452964600175619 ], [ 606313.019242322072387, 9936431.808909799903631 ], [ 606309.356977902702056, 9936428.164854999631643 ], [ 606305.69471348321531, 9936424.520800201222301 ], [ 606305.69471348321531, 9936420.876745400950313 ], [ 606302.032449063728563, 9936417.232690600678325 ], [ 606298.370184644241817, 9936413.588635800406337 ], [ 606294.707920224755071, 9936413.588635800406337 ], [ 606291.045655805268325, 9936413.588635800406337 ], [ 606287.383391385781579, 9936413.588635800406337 ], [ 606283.721126966294833, 9936413.588635800406337 ], [ 606280.058862546808086, 9936417.232690600678325 ], [ 606280.058862546808086, 9936420.876745400950313 ], [ 606276.39659812732134, 9936424.520800201222301 ], [ 606272.734333707951009, 9936424.520800201222301 ], [ 606269.072069288464263, 9936428.164854999631643 ], [ 606265.409804868977517, 9936424.520800201222301 ], [ 606261.747540449490771, 9936420.876745400950313 ], [ 606261.747540449490771, 9936417.232690600678325 ], [ 606265.409804868977517, 9936413.588635800406337 ], [ 606265.409804868977517, 9936409.944581000134349 ], [ 606261.747540449490771, 9936406.300526199862361 ], [ 606258.085276030004025, 9936402.656471399590373 ], [ 606254.423011610517278, 9936399.01241660118103 ], [ 606250.760747191030532, 9936399.01241660118103 ], [ 606247.098482771543786, 9936395.368361800909042 ], [ 606247.098482771543786, 9936391.724307000637054 ], [ 606247.098482771543786, 9936388.080252200365067 ], [ 606250.760747191030532, 9936384.436197400093079 ], [ 606250.760747191030532, 9936380.792142599821091 ], [ 606250.760747191030532, 9936377.148087799549103 ], [ 606250.760747191030532, 9936373.50403300113976 ], [ 606250.760747191030532, 9936369.859978200867772 ], [ 606247.098482771543786, 9936366.215923400595784 ], [ 606243.43621835205704, 9936366.215923400595784 ], [ 606239.773953932570294, 9936366.215923400595784 ], [ 606236.111689513083547, 9936366.215923400595784 ], [ 606232.449425093713216, 9936362.571868600323796 ], [ 606232.449425093713216, 9936358.927813800051808 ], [ 606228.78716067422647, 9936355.28375899977982 ], [ 606228.78716067422647, 9936351.639704199507833 ], [ 606228.78716067422647, 9936347.99564940109849 ], [ 606225.124896254739724, 9936344.351594600826502 ], [ 606225.124896254739724, 9936340.707539800554514 ], [ 606225.124896254739724, 9936337.063485000282526 ], [ 606221.462631835252978, 9936333.419430200010538 ], [ 606221.462631835252978, 9936329.77537539973855 ], [ 606225.124896254739724, 9936326.131320601329207 ], [ 606221.462631835252978, 9936322.48726580105722 ], [ 606217.800367415766232, 9936322.48726580105722 ], [ 606214.138102996279486, 9936318.843211000785232 ], [ 606210.475838576792739, 9936318.843211000785232 ], [ 606206.813574157305993, 9936318.843211000785232 ], [ 606203.151309737819247, 9936318.843211000785232 ], [ 606199.489045318332501, 9936315.199156200513244 ], [ 606195.82678089896217, 9936315.199156200513244 ], [ 606192.164516479475424, 9936318.843211000785232 ], [ 606188.502252059988678, 9936318.843211000785232 ], [ 606184.839987640501931, 9936318.843211000785232 ], [ 606181.177723221015185, 9936318.843211000785232 ], [ 606177.515458801528439, 9936318.843211000785232 ], [ 606173.853194382041693, 9936318.843211000785232 ], [ 606170.190929962554947, 9936318.843211000785232 ], [ 606166.5286655430682, 9936318.843211000785232 ], [ 606162.866401123581454, 9936322.48726580105722 ], [ 606159.204136704211123, 9936326.131320601329207 ], [ 606159.204136704211123, 9936329.77537539973855 ], [ 606159.204136704211123, 9936333.419430200010538 ], [ 606159.204136704211123, 9936337.063485000282526 ], [ 606159.204136704211123, 9936340.707539800554514 ], [ 606155.541872284724377, 9936344.351594600826502 ], [ 606151.879607865237631, 9936344.351594600826502 ], [ 606148.217343445750885, 9936344.351594600826502 ], [ 606144.555079026264139, 9936347.99564940109849 ], [ 606140.892814606777392, 9936344.351594600826502 ], [ 606137.230550187290646, 9936344.351594600826502 ], [ 606133.5682857678039, 9936344.351594600826502 ], [ 606129.906021348317154, 9936347.99564940109849 ], [ 606129.906021348317154, 9936351.639704199507833 ], [ 606126.243756928830408, 9936355.28375899977982 ], [ 606122.581492509460077, 9936358.927813800051808 ], [ 606118.91922808997333, 9936362.571868600323796 ], [ 606115.256963670486584, 9936366.215923400595784 ], [ 606115.256963670486584, 9936369.859978200867772 ], [ 606111.594699250999838, 9936373.50403300113976 ], [ 606107.932434831513092, 9936373.50403300113976 ], [ 606104.270170412026346, 9936373.50403300113976 ], [ 606100.6079059925396, 9936373.50403300113976 ], [ 606096.945641573052853, 9936377.148087799549103 ], [ 606093.283377153566107, 9936380.792142599821091 ], [ 606089.621112734079361, 9936380.792142599821091 ], [ 606085.958848314592615, 9936377.148087799549103 ], [ 606082.296583895222284, 9936377.148087799549103 ], [ 606078.634319475735538, 9936377.148087799549103 ], [ 606074.972055056248792, 9936373.50403300113976 ], [ 606071.309790636762045, 9936373.50403300113976 ], [ 606067.647526217275299, 9936377.148087799549103 ], [ 606067.647526217275299, 9936380.792142599821091 ], [ 606067.647526217275299, 9936384.436197400093079 ], [ 606067.647526217275299, 9936388.080252200365067 ], [ 606063.985261797788553, 9936391.724307000637054 ], [ 606060.322997378301807, 9936391.724307000637054 ], [ 606056.660732958815061, 9936395.368361800909042 ], [ 606052.998468539328314, 9936395.368361800909042 ], [ 606049.336204119841568, 9936395.368361800909042 ], [ 606045.673939700471237, 9936395.368361800909042 ], [ 606042.011675280984491, 9936395.368361800909042 ], [ 606038.349410861497745, 9936391.724307000637054 ], [ 606034.687146442010999, 9936388.080252200365067 ], [ 606031.024882022524253, 9936391.724307000637054 ] ] ] } },
{ "type": "Feature", "properties": { "Subbasin": 11, "SubbasinR": 3, "AreaC": 18.0, "Len2": 618.3, "Slo2": 5.8382925764192164, "Wid2": 0.46832661665671099, "Dep2": 0.066158061698875004, "MinEl": 48.0, "MaxEl": 84.098163, "Shape_Len": 618.3, "HydroID": 200011, "OutletID": 100011 }, "geometry": { "type": "MultiLineString", "coordinates": [ [ [ 606426.549439325812273, 9936406.300526199862361 ], [ 606430.211703745299019, 9936409.944581000134349 ], [ 606430.211703745299019, 9936413.588635800406337 ], [ 606433.873968164785765, 9936417.232690600678325 ], [ 606437.536232584272511, 9936420.876745400950313 ], [ 606437.536232584272511, 9936424.520800201222301 ], [ 606441.198497003759257, 9936424.520800201222301 ], [ 606444.860761423246004, 9936428.164854999631643 ], [ 606448.52302584273275, 9936431.808909799903631 ], [ 606452.185290262219496, 9936435.452964600175619 ], [ 606455.847554681706242, 9936439.097019400447607 ], [ 606455.847554681706242, 9936442.741074200719595 ], [ 606459.509819101192988, 9936446.385129000991583 ], [ 606459.509819101192988, 9936450.029183799400926 ], [ 606463.172083520563319, 9936453.673238599672914 ], [ 606466.834347940050066, 9936457.317293399944901 ], [ 606466.834347940050066, 9936460.961348200216889 ], [ 606466.834347940050066, 9936464.605403000488877 ], [ 606466.834347940050066, 9936468.249457800760865 ], [ 606470.496612359536812, 9936471.893512601032853 ], [ 606470.496612359536812, 9936475.537567399442196 ], [ 606470.496612359536812, 9936479.181622199714184 ], [ 606470.496612359536812, 9936482.825677 ], [ 606474.158876779023558, 9936486.46973180025816 ], [ 606477.821141198510304, 9936490.113786600530148 ], [ 606477.821141198510304, 9936493.757841400802135 ], [ 606481.48340561799705, 9936497.401896201074123 ], [ 606481.48340561799705, 9936501.045950999483466 ], [ 606485.145670037483796, 9936504.690005799755454 ], [ 606485.145670037483796, 9936508.334060600027442 ], [ 606485.145670037483796, 9936511.97811540029943 ], [ 606488.807934456970543, 9936515.622170200571418 ], [ 606492.470198876457289, 9936519.266225000843406 ], [ 606496.132463295944035, 9936522.910279801115394 ], [ 606499.794727715314366, 9936526.554334599524736 ], [ 606503.456992134801112, 9936530.198389399796724 ], [ 606507.119256554287858, 9936533.842444200068712 ], [ 606510.781520973774604, 9936537.4864990003407 ], [ 606514.443785393261351, 9936541.130553800612688 ], [ 606518.106049812748097, 9936544.774608600884676 ], [ 606518.106049812748097, 9936548.418663399294019 ], [ 606518.106049812748097, 9936552.062718199566007 ], [ 606521.768314232234843, 9936555.706772999837995 ], [ 606521.768314232234843, 9936559.350827800109982 ], [ 606521.768314232234843, 9936562.99488260038197 ], [ 606521.768314232234843, 9936566.638937400653958 ], [ 606525.430578651721589, 9936570.282992200925946 ], [ 606525.430578651721589, 9936573.927046999335289 ], [ 606525.430578651721589, 9936577.571101799607277 ], [ 606529.092843071208335, 9936581.215156599879265 ], [ 606529.092843071208335, 9936584.859211400151253 ], [ 606529.092843071208335, 9936588.503266200423241 ], [ 606529.092843071208335, 9936592.147321000695229 ], [ 606529.092843071208335, 9936595.791375800967216 ], [ 606529.092843071208335, 9936599.435430599376559 ], [ 606532.755107490695082, 9936603.079485399648547 ], [ 606532.755107490695082, 9936606.723540199920535 ], [ 606536.417371910065413, 9936610.367595000192523 ], [ 606536.417371910065413, 9936614.011649800464511 ], [ 606540.079636329552159, 9936617.655704600736499 ], [ 606540.079636329552159, 9936621.299759401008487 ], [ 606540.079636329552159, 9936624.94381419941783 ], [ 606543.741900749038905, 9936628.587868999689817 ], [ 606543.741900749038905, 9936632.231923799961805 ], [ 606543.741900749038905, 9936635.875978600233793 ], [ 606543.741900749038905, 9936639.520033400505781 ], [ 606543.741900749038905, 9936643.164088200777769 ], [ 606543.741900749038905, 9936646.808142999187112 ], [ 606543.741900749038905, 9936650.4521977994591 ], [ 606540.079636329552159, 9936654.096252599731088 ], [ 606536.417371910065413, 9936657.740307400003076 ], [ 606540.079636329552159, 9936661.384362200275064 ], [ 606540.079636329552159, 9936665.028417000547051 ], [ 606540.079636329552159, 9936668.672471800819039 ], [ 606536.417371910065413, 9936672.316526599228382 ], [ 606536.417371910065413, 9936675.96058139950037 ], [ 606536.417371910065413, 9936679.604636199772358 ], [ 606536.417371910065413, 9936683.248691 ], [ 606536.417371910065413, 9936686.892745800316334 ], [ 606532.755107490695082, 9936690.536800600588322 ], [ 606536.417371910065413, 9936694.18085540086031 ], [ 606536.417371910065413, 9936697.824910199269652 ], [ 606532.755107490695082, 9936701.46896499954164 ], [ 606532.755107490695082, 9936705.113019799813628 ], [ 606532.755107490695082, 9936708.757074600085616 ], [ 606529.092843071208335, 9936712.401129400357604 ], [ 606529.092843071208335, 9936716.045184200629592 ], [ 606529.092843071208335, 9936719.68923900090158 ], [ 606529.092843071208335, 9936723.333293799310923 ], [ 606529.092843071208335, 9936726.977348599582911 ], [ 606529.092843071208335, 9936730.621403399854898 ], [ 606525.430578651721589, 9936734.265458200126886 ], [ 606525.430578651721589, 9936737.909513000398874 ], [ 606525.430578651721589, 9936741.553567800670862 ], [ 606529.092843071208335, 9936745.19762260094285 ], [ 606529.092843071208335, 9936748.841677399352193 ], [ 606525.430578651721589, 9936752.485732199624181 ], [ 606525.430578651721589, 9936756.129786999896169 ], [ 606525.430578651721589, 9936759.773841800168157 ], [ 606525.430578651721589, 9936763.417896600440145 ], [ 606525.430578651721589, 9936767.061951400712132 ], [ 606525.430578651721589, 9936770.706006199121475 ], [ 606525.430578651721589, 9936774.350060999393463 ], [ 606521.768314232234843, 9936777.994115799665451 ], [ 606521.768314232234843, 9936781.638170599937439 ], [ 606521.768314232234843, 9936785.282225400209427 ], [ 606518.106049812748097, 9936788.926280200481415 ], [ 606518.106049812748097, 9936792.570335000753403 ], [ 606521.768314232234843, 9936796.214389799162745 ], [ 606521.768314232234843, 9936799.858444599434733 ], [ 606518.106049812748097, 9936803.502499399706721 ], [ 606521.768314232234843, 9936807.146554199978709 ], [ 606521.768314232234843, 9936810.790609000250697 ], [ 606518.106049812748097, 9936814.434663800522685 ], [ 606518.106049812748097, 9936818.078718600794673 ], [ 606518.106049812748097, 9936821.722773399204016 ], [ 606518.106049812748097, 9936825.366828199476004 ], [ 606518.106049812748097, 9936829.010882999747992 ], [ 606518.106049812748097, 9936832.654937800019979 ], [ 606518.106049812748097, 9936836.298992600291967 ], [ 606514.443785393261351, 9936839.943047400563955 ], [ 606514.443785393261351, 9936843.587102200835943 ], [ 606510.781520973774604, 9936847.231156999245286 ], [ 606510.781520973774604, 9936850.875211799517274 ], [ 606514.443785393261351, 9936854.519266599789262 ], [ 606514.443785393261351, 9936858.16332140006125 ], [ 606514.443785393261351, 9936861.807376200333238 ], [ 606514.443785393261351, 9936865.451431000605226 ], [ 606514.443785393261351, 9936869.095485799014568 ], [ 606514.443785393261351, 9936872.739540599286556 ], [ 606510.781520973774604, 9936876.383595399558544 ], [ 606510.781520973774604, 9936880.027650199830532 ], [ 606507.119256554287858, 9936883.67170500010252 ], [ 606503.456992134801112, 9936887.315759800374508 ], [ 606503.456992134801112, 9936890.959814600646496 ], [ 606499.794727715314366, 9936894.603869399055839 ], [ 606499.794727715314366, 9936898.247924199327826 ], [ 606499.794727715314366, 9936901.891978999599814 ], [ 606496.132463295944035, 9936905.536033799871802 ], [ 606499.794727715314366, 9936909.18008860014379 ], [ 606496.132463295944035, 9936912.824143400415778 ], [ 606492.470198876457289, 9936912.824143400415778 ], [ 606488.807934456970543, 9936909.18008860014379 ], [ 606485.145670037483796, 9936909.18008860014379 ], [ 606481.48340561799705, 9936909.18008860014379 ], [ 606477.821141198510304, 9936909.18008860014379 ] ] ] } },
{ "type": "Feature", "properties": { "Subbasin": 12, "SubbasinR": 11, "AreaC": 10.0, "Len2": 45.0, "Slo2": 3.5328977776549348, "Wid2": 0.33014067607279701, "Dep2": 0.052402205949882, "MinEl": 84.098163, "MaxEl": 85.68796699994472, "Shape_Len": 45.0, "HydroID": 200012, "OutletID": 100012 }, "geometry": { "type": "MultiLineString", "coordinates": [ [ [ 606477.821141198510304, 9936909.18008860014379 ], [ 606474.158876779023558, 9936912.824143400415778 ], [ 606470.496612359536812, 9936916.468198200687766 ], [ 606466.834347940050066, 9936920.112252999097109 ], [ 606463.172083520563319, 9936923.756307799369097 ], [ 606466.834347940050066, 9936927.400362599641085 ], [ 606466.834347940050066, 9936931.044417399913073 ], [ 606463.172083520563319, 9936934.688472200185061 ], [ 606459.509819101192988, 9936938.332527000457048 ], [ 606455.847554681706242, 9936941.976581800729036 ] ] ] } },
{ "type": "Feature", "properties": { "Subbasin": 13, "SubbasinR": 9, "AreaC": 8.0, "Len2": 150.8, "Slo2": 4.3699104775317723, "Wid2": 0.27979724864189698, "Dep2": 0.046929490421135998, "MinEl": 68.410174999882088, "MaxEl": 75.0, "Shape_Len": 150.8, "HydroID": 200013, "OutletID": 100013 }, "geometry": { "type": "MultiLineString", "coordinates": [ [ [ 606111.594699250999838, 9936803.502499399706721 ], [ 606107.932434831513092, 9936803.502499399706721 ], [ 606104.270170412026346, 9936803.502499399706721 ], [ 606100.6079059925396, 9936807.146554199978709 ], [ 606096.945641573052853, 9936810.790609000250697 ], [ 606096.945641573052853, 9936814.434663800522685 ], [ 606093.283377153566107, 9936818.078718600794673 ], [ 606089.621112734079361, 9936818.078718600794673 ], [ 606085.958848314592615, 9936818.078718600794673 ], [ 606082.296583895222284, 9936821.722773399204016 ], [ 606078.634319475735538, 9936825.366828199476004 ], [ 606074.972055056248792, 9936829.010882999747992 ], [ 606074.972055056248792, 9936832.654937800019979 ], [ 606071.309790636762045, 9936836.298992600291967 ], [ 606071.309790636762045, 9936839.943047400563955 ], [ 606067.647526217275299, 9936843.587102200835943 ], [ 606063.985261797788553, 9936847.231156999245286 ], [ 606060.322997378301807, 9936847.231156999245286 ], [ 606056.660732958815061, 9936850.875211799517274 ], [ 606052.998468539328314, 9936854.519266599789262 ], [ 606052.998468539328314, 9936858.16332140006125 ], [ 606049.336204119841568, 9936861.807376200333238 ], [ 606045.673939700471237, 9936865.451431000605226 ], [ 606042.011675280984491, 9936869.095485799014568 ], [ 606038.349410861497745, 9936872.739540599286556 ], [ 606034.687146442010999, 9936876.383595399558544 ], [ 606034.687146442010999, 9936880.027650199830532 ], [ 606034.687146442010999, 9936883.67170500010252 ], [ 606034.687146442010999, 9936887.315759800374508 ] ] ] } },
{ "type": "Feature", "properties": { "Subbasin": 14, "SubbasinR": 0, "AreaC": 12.0, "Len2": 514.2, "Slo2": 8.4460196421696914, "Wid2": 0.35406458244093503, "Dep2": 0.054904153829741002, "MinEl": 46.676663, "MaxEl": 90.106096000036558, "Shape_Len": 514.2, "HydroID": 200014, "OutletID": 100014 }, "geometry": null },
{ "type": "Feature", "properties": { "Subbasin": 15, "SubbasinR": 0, "AreaC": 5.0, "Len2": 143.5, "Slo2": 2.0905923344947741, "Wid2": 0.21648763357345399, "Dep2": 0.039552348365870002, "MinEl": 48.0, "MaxEl": 51.0, "Shape_Len": 143.5, "HydroID": 200015, "OutletID": 100015 }, "geometry": null },
{ "type": "Feature", "properties": { "Subbasin": 16, "SubbasinR": 8, "AreaC": 7.0, "Len2": 53.6, "Slo2": 3.9568694030325222, "Wid2": 0.27214149823950201, "Dep2": 0.046069488781039003, "MinEl": 65.379117999974568, "MaxEl": 67.5, "Shape_Len": 53.6, "HydroID": 200016, "OutletID": 100016 }, "geometry": { "type": "MultiLineString", "coordinates": [ [ [ 606151.879607865237631, 9936748.841677399352193 ], [ 606148.217343445750885, 9936752.485732199624181 ], [ 606144.555079026264139, 9936752.485732199624181 ], [ 606140.892814606777392, 9936752.485732199624181 ], [ 606137.230550187290646, 9936756.129786999896169 ], [ 606133.5682857678039, 9936756.129786999896169 ], [ 606129.906021348317154, 9936752.485732199624181 ], [ 606126.243756928830408, 9936748.841677399352193 ], [ 606122.581492509460077, 9936748.841677399352193 ], [ 606118.91922808997333, 9936748.841677399352193 ], [ 606115.256963670486584, 9936748.841677399352193 ] ] ] } },
{ "type": "Feature", "properties": { "Subbasin": 17, "SubbasinR": 10, "AreaC": 4.0, "Len2": 171.9, "Slo2": 0.87260034904014006, "Wid2": 0.19781728025592701, "Dep2": 0.037244289732767999, "MinEl": 60.0, "MaxEl": 61.5, "Shape_Len": 171.9, "HydroID": 200017, "OutletID": 100017 }, "geometry": { "type": "MultiLineString", "coordinates": [ [ [ 606031.024882022524253, 9936391.724307000637054 ], [ 606031.024882022524253, 9936395.368361800909042 ], [ 606031.024882022524253, 9936399.01241660118103 ], [ 606031.024882022524253, 9936402.656471399590373 ], [ 606031.024882022524253, 9936406.300526199862361 ], [ 606027.362617603037506, 9936409.944581000134349 ], [ 606023.70035318355076, 9936413.588635800406337 ], [ 606020.038088764064014, 9936413.588635800406337 ], [ 606016.375824344577268, 9936409.944581000134349 ], [ 606012.713559925090522, 9936409.944581000134349 ], [ 606009.051295505720191, 9936413.588635800406337 ], [ 606005.389031086233445, 9936413.588635800406337 ], [ 606001.726766666746698, 9936417.232690600678325 ], [ 605998.064502247259952, 9936417.232690600678325 ], [ 605994.402237827773206, 9936420.876745400950313 ], [ 605990.73997340828646, 9936424.520800201222301 ], [ 605987.077708988799714, 9936424.520800201222301 ], [ 605983.415444569312967, 9936428.164854999631643 ], [ 605979.753180149826221, 9936428.164854999631643 ] ] ] } },
{ "type": "Feature", "properties": { "Subbasin": 18, "SubbasinR": 12, "AreaC": 7.0, "Len2": 168.5, "Slo2": 5.4827370920465244, "Wid2": 0.26380903318173698, "Dep2": 0.045124248993397002, "MinEl": 85.68796699994472, "MaxEl": 94.926379000043113, "Shape_Len": 168.5, "HydroID": 200018, "OutletID": 100018 }, "geometry": { "type": "MultiLineString", "coordinates": [ [ [ 606455.847554681706242, 9936941.976581800729036 ], [ 606452.185290262219496, 9936941.976581800729036 ], [ 606448.52302584273275, 9936945.620636599138379 ], [ 606444.860761423246004, 9936945.620636599138379 ], [ 606441.198497003759257, 9936949.264691399410367 ], [ 606441.198497003759257, 9936952.908746199682355 ], [ 606441.198497003759257, 9936956.552801 ], [ 606437.536232584272511, 9936960.196855800226331 ], [ 606437.536232584272511, 9936963.840910600498319 ], [ 606433.873968164785765, 9936967.484965398907661 ], [ 606433.873968164785765, 9936971.129020199179649 ], [ 606430.211703745299019, 9936974.773074999451637 ], [ 606426.549439325812273, 9936974.773074999451637 ], [ 606422.887174906441942, 9936978.417129799723625 ], [ 606419.224910486955196, 9936978.417129799723625 ], [ 606415.562646067468449, 9936982.061184599995613 ], [ 606411.900381647981703, 9936985.705239400267601 ], [ 606408.238117228494957, 9936985.705239400267601 ], [ 606404.575852809008211, 9936989.349294200539589 ], [ 606400.913588389521465, 9936989.349294200539589 ], [ 606397.251323970034719, 9936985.705239400267601 ], [ 606393.589059550547972, 9936989.349294200539589 ], [ 606389.926795131061226, 9936992.993348998948932 ], [ 606386.26453071157448, 9936996.63740379922092 ], [ 606386.26453071157448, 9937000.281458599492908 ], [ 606382.602266292204149, 9937003.925513399764895 ], [ 606382.602266292204149, 9937007.569568200036883 ], [ 606386.26453071157448, 9937011.213623000308871 ], [ 606382.602266292204149, 9937014.857677800580859 ], [ 606378.940001872717403, 9937018.501732598990202 ], [ 606375.277737453230657, 9937018.501732598990202 ], [ 606371.61547303374391, 9937018.501732598990202 ], [ 606367.953208614257164, 9937018.501732598990202 ], [ 606364.290944194770418, 9937022.14578739926219 ], [ 606360.628679775283672, 9937025.789842199534178 ], [ 606356.966415355796926, 9937029.433896999806166 ], [ 606353.30415093631018, 9937033.077951800078154 ], [ 606349.641886516823433, 9937036.722006600350142 ] ] ] } },
{ "type": "Feature", "properties": { "Subbasin": 19, "SubbasinR": 7, "AreaC": 4.0, "Len2": 93.3, "Slo2": 4.8231511253683896, "Wid2": 0.18709691523764899, "Dep2": 0.035886240515894001, "MinEl": 64.500000000031292, "MaxEl": 69.0, "Shape_Len": 93.3, "HydroID": 200019, "OutletID": 100019 }, "geometry": { "type": "MultiLineString", "coordinates": [ [ [ 606159.204136704211123, 9936741.553567800670862 ], [ 606162.866401123581454, 9936745.19762260094285 ], [ 606166.5286655430682, 9936748.841677399352193 ], [ 606166.5286655430682, 9936752.485732199624181 ], [ 606166.5286655430682, 9936756.129786999896169 ], [ 606162.866401123581454, 9936759.773841800168157 ], [ 606159.204136704211123, 9936763.417896600440145 ], [ 606159.204136704211123, 9936767.061951400712132 ], [ 606159.204136704211123, 9936770.706006199121475 ], [ 606159.204136704211123, 9936774.350060999393463 ], [ 606155.541872284724377, 9936777.994115799665451 ], [ 606155.541872284724377, 9936781.638170599937439 ], [ 606159.204136704211123, 9936785.282225400209427 ], [ 606162.866401123581454, 9936785.282225400209427 ], [ 606166.5286655430682, 9936788.926280200481415 ], [ 606170.190929962554947, 9936792.570335000753403 ], [ 606170.190929962554947, 9936796.214389799162745 ], [ 606170.190929962554947, 9936799.858444599434733 ], [ 606173.853194382041693, 9936803.502499399706721 ], [ 606173.853194382041693, 9936807.146554199978709 ], [ 606177.515458801528439, 9936810.790609000250697 ], [ 606181.177723221015185, 9936814.434663800522685 ] ] ] } },
{ "type": "Feature", "properties": { "Subbasin": 20, "SubbasinR": 18, "AreaC": 3.0, "Len2": 33.8, "Slo2": 0.10693490978349, "Wid2": 0.158860448945292, "Dep2": 0.032178125102494001, "MinEl": 94.926379000043113, "MaxEl": 94.962522999549932, "Shape_Len": 33.8, "HydroID": 200020, "OutletID": 100020 }, "geometry": null },
{ "type": "Feature", "properties": { "Subbasin": 21, "SubbasinR": 16, "AreaC": 3.0, "Len2": 82.1, "Slo2": 5.4811205846528637, "Wid2": 0.15629816859870599, "Dep2": 0.031831184873149003, "MinEl": 67.5, "MaxEl": 72.0, "Shape_Len": 82.1, "HydroID": 200021, "OutletID": 100021 }, "geometry": null },
{ "type": "Feature", "properties": { "Subbasin": 22, "SubbasinR": 13, "AreaC": 6.0, "Len2": 220.2, "Slo2": 4.0871934604908828, "Wid2": 0.235816840646564, "Dep2": 0.041872936949399003, "MinEl": 75.0, "MaxEl": 84.000000000000924, "Shape_Len": 220.2, "HydroID": 200022, "OutletID": 100022 }, "geometry": null },
{ "type": "Feature", "properties": { "Subbasin": 23, "SubbasinR": 16, "AreaC": 4.0, "Len2": 193.5, "Slo2": 1.550387596874174, "Wid2": 0.188810455627833, "Dep2": 0.036105018534763, "MinEl": 67.5, "MaxEl": 70.499999999951527, "Shape_Len": 193.5, "HydroID": 200023, "OutletID": 100023 }, "geometry": null },
{ "type": "Feature", "properties": { "Subbasin": 24, "SubbasinR": 10, "AreaC": 1.0, "Len2": 36.2, "Slo2": 0.0, "Wid2": 0.081958688968521001, "Dep2": 0.020698881611582998, "MinEl": 60.0, "MaxEl": 60.0, "Shape_Len": 36.2, "HydroID": 200024, "OutletID": 100024 }, "geometry": null },
{ "type": "Feature", "properties": { "Subbasin": 25, "SubbasinR": 15, "AreaC": 1.0, "Len2": 36.8, "Slo2": 0.0, "Wid2": 0.092597804469114003, "Dep2": 0.022453497811533, "MinEl": 51.0, "MaxEl": 51.0, "Shape_Len": 36.8, "HydroID": 200025, "OutletID": 100025 }, "geometry": null },
{ "type": "Feature", "properties": { "Subbasin": 26, "SubbasinR": 5, "AreaC": 4.0, "Len2": 358.3, "Slo2": 3.5931138710586241, "Wid2": 0.194117255460906, "Dep2": 0.036778412012104002, "MinEl": 52.500000000054335, "MaxEl": 65.374127000057385, "Shape_Len": 358.3, "HydroID": 200026, "OutletID": 100026 }, "geometry": { "type": "MultiLineString", "coordinates": [ [ [ 606327.668300000019372, 9936446.385129000991583 ], [ 606324.006035580532625, 9936446.385129000991583 ], [ 606320.343771161045879, 9936450.029183799400926 ], [ 606316.681506741559133, 9936450.029183799400926 ], [ 606313.019242322072387, 9936453.673238599672914 ], [ 606309.356977902702056, 9936453.673238599672914 ], [ 606305.69471348321531, 9936453.673238599672914 ], [ 606302.032449063728563, 9936457.317293399944901 ], [ 606298.370184644241817, 9936457.317293399944901 ], [ 606294.707920224755071, 9936457.317293399944901 ], [ 606291.045655805268325, 9936457.317293399944901 ], [ 606287.383391385781579, 9936457.317293399944901 ], [ 606283.721126966294833, 9936453.673238599672914 ], [ 606280.058862546808086, 9936450.029183799400926 ], [ 606276.39659812732134, 9936446.385129000991583 ], [ 606272.734333707951009, 9936442.741074200719595 ], [ 606269.072069288464263, 9936442.741074200719595 ], [ 606265.409804868977517, 9936442.741074200719595 ], [ 606261.747540449490771, 9936442.741074200719595 ], [ 606258.085276030004025, 9936442.741074200719595 ], [ 606254.423011610517278, 9936442.741074200719595 ], [ 606250.760747191030532, 9936439.097019400447607 ], [ 606247.098482771543786, 9936439.097019400447607 ], [ 606243.43621835205704, 9936439.097019400447607 ], [ 606239.773953932570294, 9936435.452964600175619 ], [ 606236.111689513083547, 9936435.452964600175619 ], [ 606232.449425093713216, 9936431.808909799903631 ], [ 606232.449425093713216, 9936435.452964600175619 ], [ 606228.78716067422647, 9936439.097019400447607 ], [ 606225.124896254739724, 9936439.097019400447607 ], [ 606221.462631835252978, 9936435.452964600175619 ], [ 606217.800367415766232, 9936431.808909799903631 ], [ 606214.138102996279486, 9936428.164854999631643 ], [ 606210.475838576792739, 9936428.164854999631643 ], [ 606206.813574157305993, 9936424.520800201222301 ], [ 606203.151309737819247, 9936420.876745400950313 ], [ 606199.489045318332501, 9936417.232690600678325 ], [ 606199.489045318332501, 9936413.588635800406337 ], [ 606195.82678089896217, 9936409.944581000134349 ], [ 606192.164516479475424, 9936406.300526199862361 ], [ 606188.502252059988678, 9936402.656471399590373 ], [ 606184.839987640501931, 9936399.01241660118103 ], [ 606181.177723221015185, 9936399.01241660118103 ], [ 606177.515458801528439, 9936399.01241660118103 ], [ 606173.853194382041693, 9936399.01241660118103 ], [ 606170.190929962554947, 9936399.01241660118103 ], [ 606166.5286655430682, 9936402.656471399590373 ], [ 606162.866401123581454, 9936402.656471399590373 ], [ 606159.204136704211123, 9936402.656471399590373 ], [ 606155.541872284724377, 9936402.656471399590373 ], [ 606151.879607865237631, 9936402.656471399590373 ], [ 606148.217343445750885, 9936402.656471399590373 ], [ 606148.217343445750885, 9936406.300526199862361 ], [ 606144.555079026264139, 9936406.300526199862361 ], [ 606140.892814606777392, 9936406.300526199862361 ], [ 606137.230550187290646, 9936406.300526199862361 ], [ 606133.5682857678039, 9936406.300526199862361 ], [ 606129.906021348317154, 9936406.300526199862361 ], [ 606126.243756928830408, 9936406.300526199862361 ], [ 606122.581492509460077, 9936406.300526199862361 ], [ 606118.91922808997333, 9936406.300526199862361 ], [ 606115.256963670486584, 9936406.300526199862361 ], [ 606111.594699250999838, 9936406.300526199862361 ], [ 606107.932434831513092, 9936406.300526199862361 ], [ 606104.270170412026346, 9936406.300526199862361 ], [ 606100.6079059925396, 9936409.944581000134349 ], [ 606096.945641573052853, 9936409.944581000134349 ], [ 606093.283377153566107, 9936409.944581000134349 ], [ 606089.621112734079361, 9936409.944581000134349 ], [ 606085.958848314592615, 9936409.944581000134349 ], [ 606082.296583895222284, 9936409.944581000134349 ], [ 606082.296583895222284, 9936413.588635800406337 ], [ 606082.296583895222284, 9936417.232690600678325 ], [ 606078.634319475735538, 9936420.876745400950313 ], [ 606074.972055056248792, 9936424.520800201222301 ], [ 606074.972055056248792, 9936428.164854999631643 ], [ 606071.309790636762045, 9936431.808909799903631 ], [ 606067.647526217275299, 9936435.452964600175619 ], [ 606063.985261797788553, 9936439.097019400447607 ], [ 606060.322997378301807, 9936442.741074200719595 ], [ 606060.322997378301807, 9936446.385129000991583 ], [ 606060.322997378301807, 9936450.029183799400926 ], [ 606060.322997378301807, 9936453.673238599672914 ], [ 606060.322997378301807, 9936457.317293399944901 ], [ 606060.322997378301807, 9936460.961348200216889 ], [ 606060.322997378301807, 9936464.605403000488877 ], [ 606060.322997378301807, 9936468.249457800760865 ] ] ] } },
{ "type": "Feature", "properties": { "Subbasin": 27, "SubbasinR": 3, "AreaC": 2.0, "Len2": 121.5, "Slo2": 6.5532082304817383, "Wid2": 0.105245565544621, "Dep2": 0.024454160008373999, "MinEl": 48.0, "MaxEl": 55.962148000035313, "Shape_Len": 121.5, "HydroID": 200027, "OutletID": 100027 }, "geometry": { "type": "MultiLineString", "coordinates": [ [ [ 606426.549439325812273, 9936406.300526199862361 ], [ 606426.549439325812273, 9936409.944581000134349 ], [ 606426.549439325812273, 9936413.588635800406337 ], [ 606426.549439325812273, 9936417.232690600678325 ], [ 606426.549439325812273, 9936420.876745400950313 ], [ 606426.549439325812273, 9936424.520800201222301 ], [ 606426.549439325812273, 9936428.164854999631643 ], [ 606426.549439325812273, 9936431.808909799903631 ], [ 606430.211703745299019, 9936435.452964600175619 ], [ 606430.211703745299019, 9936439.097019400447607 ], [ 606430.211703745299019, 9936442.741074200719595 ], [ 606430.211703745299019, 9936446.385129000991583 ], [ 606430.211703745299019, 9936450.029183799400926 ], [ 606426.549439325812273, 9936453.673238599672914 ], [ 606422.887174906441942, 9936457.317293399944901 ], [ 606422.887174906441942, 9936460.961348200216889 ], [ 606422.887174906441942, 9936464.605403000488877 ], [ 606422.887174906441942, 9936468.249457800760865 ], [ 606422.887174906441942, 9936471.893512601032853 ], [ 606422.887174906441942, 9936475.537567399442196 ], [ 606422.887174906441942, 9936479.181622199714184 ], [ 606426.549439325812273, 9936479.181622199714184 ], [ 606426.549439325812273, 9936482.825677 ], [ 606426.549439325812273, 9936486.46973180025816 ], [ 606422.887174906441942, 9936490.113786600530148 ], [ 606419.224910486955196, 9936493.757841400802135 ], [ 606422.887174906441942, 9936497.401896201074123 ], [ 606426.549439325812273, 9936501.045950999483466 ], [ 606426.549439325812273, 9936504.690005799755454 ], [ 606430.211703745299019, 9936508.334060600027442 ], [ 606430.211703745299019, 9936511.97811540029943 ] ] ] } },
{ "type": "Feature", "properties": { "Subbasin": 28, "SubbasinR": 17, "AreaC": 1.0, "Len2": 80.6, "Slo2": 10.83104466503776, "Wid2": 0.086479557298523996, "Dep2": 0.021453221523737999, "MinEl": 61.5, "MaxEl": 70.229822000020434, "Shape_Len": 80.6, "HydroID": 200028, "OutletID": 100028 }, "geometry": null },
{ "type": "Feature", "properties": { "Subbasin": 29, "SubbasinR": 15, "AreaC": 3.0, "Len2": 210.4, "Slo2": 6.090303707290146, "Wid2": 0.153153918432647, "Dep2": 0.031402841985495998, "MinEl": 51.0, "MaxEl": 63.813999000138466, "Shape_Len": 210.4, "HydroID": 200029, "OutletID": 100029 }, "geometry": null },
{ "type": "Feature", "properties": { "Subbasin": 30, "SubbasinR": 17, "AreaC": 1.0, "Len2": 190.4, "Slo2": 8.0655955882411217, "Wid2": 0.102811459595213, "Dep2": 0.024075643024090002, "MinEl": 61.5, "MaxEl": 76.856894000011081, "Shape_Len": 190.4, "HydroID": 200030, "OutletID": 100030 }, "geometry": null },
{ "type": "Feature", "properties": { "Subbasin": 31, "SubbasinR": 2, "AreaC": 3.0, "Len2": 282.5, "Slo2": 4.5809486725634736, "Wid2": 0.14394849388236799, "Dep2": 0.030131560831364999, "MinEl": 48.0, "MaxEl": 60.94117999999181, "Shape_Len": 282.5, "HydroID": 200031, "OutletID": 100031 }, "geometry": null },
{ "type": "Feature", "properties": { "Subbasin": 32, "SubbasinR": 21, "AreaC": 1.0, "Len2": 47.7, "Slo2": 12.048763102777171, "Wid2": 0.082671212571116995, "Dep2": 0.020818674922898999, "MinEl": 72.0, "MaxEl": 77.74726000002471, "Shape_Len": 47.7, "HydroID": 200032, "OutletID": 100032 }, "geometry": null },
{ "type": "Feature", "properties": { "Subbasin": 33, "SubbasinR": 21, "AreaC": 1.0, "Len2": 46.3, "Slo2": 3.2397408208063778, "Wid2": 0.10236362097415599, "Dep2": 0.024005677765350002, "MinEl": 72.0, "MaxEl": 73.500000000033367, "Shape_Len": 46.3, "HydroID": 200033, "OutletID": 100033 }, "geometry": null },
{ "type": "Feature", "properties": { "Subbasin": 34, "SubbasinR": 6, "AreaC": 1.0, "Len2": 3.6, "Slo2": 0.0, "Wid2": 0.077734279275504997, "Dep2": 0.019981370052908998, "MinEl": 64.5, "MaxEl": 64.5, "Shape_Len": 3.6, "HydroID": 200034, "OutletID": 100034 }, "geometry": { "type": "MultiLineString", "coordinates": [ [ [ 606221.462631835252978, 9936697.824910199269652 ], [ 606221.462631835252978, 9936701.46896499954164 ] ] ] } },
{ "type": "Feature", "properties": { "Subbasin": 35, "SubbasinR": 19, "AreaC": 1.0, "Len2": 110.9, "Slo2": 22.721238954294872, "Wid2": 0.094794226768334003, "Dep2": 0.022807173745755999, "MinEl": 69.0, "MaxEl": 94.197854000313015, "Shape_Len": 110.9, "HydroID": 200035, "OutletID": 100035 }, "geometry": { "type": "MultiLineString", "coordinates": [ [ [ 606181.177723221015185, 9936814.434663800522685 ], [ 606184.839987640501931, 9936818.078718600794673 ], [ 606188.502252059988678, 9936814.434663800522685 ], [ 606192.164516479475424, 9936814.434663800522685 ], [ 606195.82678089896217, 9936814.434663800522685 ], [ 606199.489045318332501, 9936814.434663800522685 ], [ 606203.151309737819247, 9936814.434663800522685 ], [ 606206.813574157305993, 9936814.434663800522685 ], [ 606210.475838576792739, 9936814.434663800522685 ], [ 606214.138102996279486, 9936818.078718600794673 ], [ 606217.800367415766232, 9936818.078718600794673 ], [ 606221.462631835252978, 9936818.078718600794673 ], [ 606225.124896254739724, 9936818.078718600794673 ], [ 606228.78716067422647, 9936818.078718600794673 ], [ 606232.449425093713216, 9936818.078718600794673 ], [ 606236.111689513083547, 9936821.722773399204016 ], [ 606239.773953932570294, 9936821.722773399204016 ], [ 606243.43621835205704, 9936821.722773399204016 ], [ 606247.098482771543786, 9936821.722773399204016 ], [ 606250.760747191030532, 9936825.366828199476004 ], [ 606254.423011610517278, 9936825.366828199476004 ], [ 606258.085276030004025, 9936829.010882999747992 ], [ 606261.747540449490771, 9936832.654937800019979 ], [ 606265.409804868977517, 9936836.298992600291967 ], [ 606269.072069288464263, 9936836.298992600291967 ], [ 606272.734333707951009, 9936836.298992600291967 ], [ 606276.39659812732134, 9936836.298992600291967 ], [ 606280.058862546808086, 9936836.298992600291967 ] ] ] } },
{ "type": "Feature", "properties": { "Subbasin": 36, "SubbasinR": 23, "AreaC": 1.0, "Len2": 10.3, "Slo2": 0.0, "Wid2": 0.078602227384493004, "Dep2": 0.020129830319696, "MinEl": 70.499999999951527, "MaxEl": 70.499999999951527, "Shape_Len": 10.3, "HydroID": 200036, "OutletID": 100036 }, "geometry": null },
{ "type": "Feature", "properties": { "Subbasin": 37, "SubbasinR": 9, "AreaC": 1.0, "Len2": 52.9, "Slo2": 3.9505198489961781, "Wid2": 0.094263824524609005, "Dep2": 0.022722018874174001, "MinEl": 68.410174999882088, "MaxEl": 70.500000000001066, "Shape_Len": 52.9, "HydroID": 200037, "OutletID": 100037 }, "geometry": { "type": "MultiLineString", "coordinates": [ [ [ 606111.594699250999838, 9936803.502499399706721 ], [ 606115.256963670486584, 9936807.146554199978709 ], [ 606115.256963670486584, 9936810.790609000250697 ], [ 606115.256963670486584, 9936814.434663800522685 ], [ 606111.594699250999838, 9936818.078718600794673 ], [ 606107.932434831513092, 9936821.722773399204016 ], [ 606107.932434831513092, 9936825.366828199476004 ], [ 606104.270170412026346, 9936829.010882999747992 ], [ 606100.6079059925396, 9936832.654937800019979 ], [ 606096.945641573052853, 9936836.298992600291967 ], [ 606096.945641573052853, 9936839.943047400563955 ], [ 606096.945641573052853, 9936843.587102200835943 ], [ 606096.945641573052853, 9936847.231156999245286 ] ] ] } },
{ "type": "Feature", "properties": { "Subbasin": 38, "SubbasinR": 23, "AreaC": 1.0, "Len2": 21.9, "Slo2": 13.426872146272297, "Wid2": 0.095085106150942997, "Dep2": 0.022853806321154, "MinEl": 70.499999999951527, "MaxEl": 73.440484999985145, "Shape_Len": 21.9, "HydroID": 200038, "OutletID": 100038 }, "geometry": null },
{ "type": "Feature", "properties": { "Subbasin": 39, "SubbasinR": 19, "AreaC": 2.0, "Len2": 76.8, "Slo2": 16.039178385428361, "Wid2": 0.118432698673478, "Dep2": 0.026456433359157001, "MinEl": 69.0, "MaxEl": 81.318089000008982, "Shape_Len": 76.8, "HydroID": 200039, "OutletID": 100039 }, "geometry": { "type": "MultiLineString", "coordinates": [ [ [ 606181.177723221015185, 9936814.434663800522685 ], [ 606181.177723221015185, 9936818.078718600794673 ], [ 606184.839987640501931, 9936821.722773399204016 ], [ 606184.839987640501931, 9936825.366828199476004 ], [ 606188.502252059988678, 9936829.010882999747992 ], [ 606188.502252059988678, 9936832.654937800019979 ], [ 606192.164516479475424, 9936836.298992600291967 ], [ 606192.164516479475424, 9936839.943047400563955 ], [ 606192.164516479475424, 9936843.587102200835943 ], [ 606192.164516479475424, 9936847.231156999245286 ], [ 606192.164516479475424, 9936850.875211799517274 ], [ 606192.164516479475424, 9936854.519266599789262 ], [ 606192.164516479475424, 9936858.16332140006125 ], [ 606192.164516479475424, 9936861.807376200333238 ], [ 606188.502252059988678, 9936865.451431000605226 ], [ 606184.839987640501931, 9936869.095485799014568 ], [ 606184.839987640501931, 9936872.739540599286556 ], [ 606184.839987640501931, 9936876.383595399558544 ], [ 606184.839987640501931, 9936880.027650199830532 ], [ 606184.839987640501931, 9936883.67170500010252 ] ] ] } },
{ "type": "Feature", "properties": { "Subbasin": 40, "SubbasinR": 11, "AreaC": 1.0, "Len2": 48.4, "Slo2": 25.823132231253631, "Wid2": 0.080982582320575994, "Dep2": 0.020534208126596998, "MinEl": 84.098163, "MaxEl": 96.596558999926756, "Shape_Len": 48.4, "HydroID": 200040, "OutletID": 100040 }, "geometry": { "type": "MultiLineString", "coordinates": [ [ [ 606477.821141198510304, 9936909.18008860014379 ], [ 606474.158876779023558, 9936909.18008860014379 ], [ 606474.158876779023558, 9936905.536033799871802 ], [ 606474.158876779023558, 9936901.891978999599814 ], [ 606470.496612359536812, 9936898.247924199327826 ], [ 606466.834347940050066, 9936894.603869399055839 ], [ 606463.172083520563319, 9936890.959814600646496 ], [ 606459.509819101192988, 9936890.959814600646496 ], [ 606455.847554681706242, 9936890.959814600646496 ], [ 606452.185290262219496, 9936890.959814600646496 ], [ 606448.52302584273275, 9936890.959814600646496 ], [ 606444.860761423246004, 9936890.959814600646496 ], [ 606441.198497003759257, 9936890.959814600646496 ] ] ] } },
{ "type": "Feature", "properties": { "Subbasin": 41, "SubbasinR": 14, "AreaC": 2.0, "Len2": 91.7, "Slo2": 9.6989138492898981, "Wid2": 0.11123070671329099, "Dep2": 0.025372699530487, "MinEl": 90.106096000036558, "MaxEl": 98.999999999835396, "Shape_Len": 91.7, "HydroID": 200041, "OutletID": 100041 }, "geometry": null },
{ "type": "Feature", "properties": { "Subbasin": 42, "SubbasinR": 13, "AreaC": 1.0, "Len2": 87.4, "Slo2": 3.72439816932207, "Wid2": 0.094263824524609005, "Dep2": 0.022722018874174001, "MinEl": 75.0, "MaxEl": 78.255123999987489, "Shape_Len": 87.4, "HydroID": 200042, "OutletID": 100042 }, "geometry": null },
{ "type": "Feature", "properties": { "Subbasin": 43, "SubbasinR": 20, "AreaC": 1.0, "Len2": 36.0, "Slo2": 11.215213890139077, "Wid2": 0.087976492352933006, "Dep2": 0.021700078611241999, "MinEl": 94.962522999549932, "MaxEl": 99.0, "Shape_Len": 36.0, "HydroID": 200043, "OutletID": 100043 }, "geometry": null },
{ "type": "Feature", "properties": { "Subbasin": 44, "SubbasinR": 12, "AreaC": 3.0, "Len2": 153.5, "Slo2": 9.7138065147135517, "Wid2": 0.15638350144819199, "Dep2": 0.031842769562552997, "MinEl": 85.68796699994472, "MaxEl": 100.59866000003002, "Shape_Len": 153.5, "HydroID": 200044, "OutletID": 100044 }, "geometry": { "type": "MultiLineString", "coordinates": [ [ [ 606455.847554681706242, 9936941.976581800729036 ], [ 606459.509819101192988, 9936945.620636599138379 ], [ 606459.509819101192988, 9936949.264691399410367 ], [ 606459.509819101192988, 9936952.908746199682355 ], [ 606459.509819101192988, 9936956.552801 ], [ 606459.509819101192988, 9936960.196855800226331 ], [ 606459.509819101192988, 9936963.840910600498319 ], [ 606459.509819101192988, 9936967.484965398907661 ], [ 606459.509819101192988, 9936971.129020199179649 ], [ 606463.172083520563319, 9936974.773074999451637 ], [ 606463.172083520563319, 9936978.417129799723625 ], [ 606466.834347940050066, 9936982.061184599995613 ], [ 606470.496612359536812, 9936985.705239400267601 ], [ 606474.158876779023558, 9936985.705239400267601 ], [ 606477.821141198510304, 9936985.705239400267601 ], [ 606481.48340561799705, 9936989.349294200539589 ], [ 606485.145670037483796, 9936992.993348998948932 ], [ 606488.807934456970543, 9936996.63740379922092 ], [ 606492.470198876457289, 9937000.281458599492908 ], [ 606496.132463295944035, 9937003.925513399764895 ], [ 606499.794727715314366, 9937007.569568200036883 ], [ 606503.456992134801112, 9937011.213623000308871 ], [ 606507.119256554287858, 9937014.857677800580859 ], [ 606510.781520973774604, 9937018.501732598990202 ], [ 606514.443785393261351, 9937022.14578739926219 ], [ 606518.106049812748097, 9937022.14578739926219 ], [ 606518.106049812748097, 9937025.789842199534178 ], [ 606518.106049812748097, 9937029.433896999806166 ], [ 606514.443785393261351, 9937033.077951800078154 ], [ 606514.443785393261351, 9937036.722006600350142 ], [ 606518.106049812748097, 9937040.366061400622129 ], [ 606521.768314232234843, 9937044.010116199031472 ], [ 606521.768314232234843, 9937047.65417099930346 ], [ 606521.768314232234843, 9937051.298225799575448 ], [ 606521.768314232234843, 9937054.942280599847436 ], [ 606521.768314232234843, 9937058.586335400119424 ] ] ] } },
{ "type": "Feature", "properties": { "Subbasin": 45, "SubbasinR": 22, "AreaC": 1.0, "Len2": 25.0, "Slo2": 12.126752000151725, "Wid2": 0.087232497186521998, "Dep2": 0.021577564104066999, "MinEl": 84.000000000000924, "MaxEl": 87.031688000038855, "Shape_Len": 25.0, "HydroID": 200045, "OutletID": 100045 }, "geometry": null },
{ "type": "Feature", "properties": { "Subbasin": 46, "SubbasinR": 20, "AreaC": 2.0, "Len2": 99.8, "Slo2": 12.61169038103651, "Wid2": 0.107646757079425, "Dep2": 0.024824709749762999, "MinEl": 94.962522999549932, "MaxEl": 107.54898999982437, "Shape_Len": 99.8, "HydroID": 200046, "OutletID": 100046 }, "geometry": null },
{ "type": "Feature", "properties": { "Subbasin": 47, "SubbasinR": 14, "AreaC": 4.0, "Len2": 251.6, "Slo2": 2.938753577093598, "Wid2": 0.18035360133078901, "Dep2": 0.035018705772423997, "MinEl": 90.106096000036558, "MaxEl": 97.50000000000405, "Shape_Len": 251.6, "HydroID": 200047, "OutletID": 100047 }, "geometry": null },
{ "type": "Feature", "properties": { "Subbasin": 48, "SubbasinR": 18, "AreaC": 2.0, "Len2": 104.8, "Slo2": 7.9066230916118281, "Wid2": 0.12960495622624599, "Dep2": 0.028095145479187001, "MinEl": 94.926379000043113, "MaxEl": 103.21252000005231, "Shape_Len": 104.8, "HydroID": 200048, "OutletID": 100048 }, "geometry": null },
{ "type": "Feature", "properties": { "Subbasin": 49, "SubbasinR": 22, "AreaC": 2.0, "Len2": 38.0, "Slo2": 11.842105263155464, "Wid2": 0.112443765920561, "Dep2": 0.025556838802697001, "MinEl": 84.000000000000924, "MaxEl": 88.5, "Shape_Len": 38.0, "HydroID": 200049, "OutletID": 100049 }, "geometry": null },
{ "type": "Feature", "properties": { "Subbasin": 50, "SubbasinR": 0, "AreaC": 1.0, "Len2": 44.7, "Slo2": 0.0, "Wid2": 0.085348974125946997, "Dep2": 0.021265833814495001, "MinEl": 94.528261, "MaxEl": 94.5, "Shape_Len": 44.7, "HydroID": 200050, "OutletID": 100050 }, "geometry": null }
]
}
