{
"type": "FeatureCollection",
"name": "rivers",
"xy_coordinate_resolution": 1e-08,
"features": [
{ "type": "Feature", "properties": { "Subbasin": 1, "SubbasinR": 0, "AreaC": 63.0, "Len2": 143.2, "Slo2": 0.0, "Wid2": 0.97976374426253199, "Dep2": 0.108217572675959, "MinEl": 48.0, "MaxEl": 48.0, "Shape_Len": 143.2, "HydroID": 200001, "OutletID": 100001 }, "geometry": { "type": "MultiLineString", "coordinates": [ [ [ -80.04317322, -0.57626012 ], [ -80.04320614, -0.57622716 ], [ -80.04323904, -0.57622717 ], [ -80.04327195, -0.57622717 ], [ -80.04330486, -0.57622718 ], [ -80.04333778, -0.57619422 ], [ -80.04337069, -0.57616126 ], [ -80.04340361, -0.5761283 ], [ -80.04343652, -0.57609534 ], [ -80.04343653, -0.57606238 ], [ -80.04346944, -0.57602942 ], [ -80.04350235, -0.57599646 ], [ -80.04353526, -0.57599647 ], [ -80.04356818, -0.57596351 ], [ -80.04356818, -0.57593054 ], [ -80.04356819, -0.57589758 ], [ -80.04356819, -0.57586462 ], [ -80.0435682, -0.57583165 ], [ -80.04356821, -0.57579869 ], [ -80.0435353, -0.57576572 ], [ -80.04353531, -0.57573275 ], [ -80.04356822, -0.57569979 ], [ -80.04360114, -0.57566684 ], [ -80.04360114, -0.57563387 ], [ -80.04363406, -0.57560091 ], [ -80.04363406, -0.57556795 ], [ -80.04366698, -0.57553499 ], [ -80.04366698, -0.57550203 ], [ -80.04363408, -0.57546906 ], [ -80.04363408, -0.57543609 ], [ -80.04360118, -0.57540312 ], [ -80.04360119, -0.57537016 ], [ -80.04360119, -0.57533719 ], [ -80.0436012, -0.57530423 ] ] ] } },
{ "type": "Feature", "properties": { "Subbasin": 2, "SubbasinR": 1, "AreaC": 42.0, "Len2": 30.1, "Slo2": 0.0, "Wid2": 0.76398584562171401, "Dep2": 0.091679820380705004, "MinEl": 48.0, "MaxEl": 48.0, "Shape_Len": 30.1, "HydroID": 200002, "OutletID": 100002 }, "geometry": { "type": "MultiLineString", "coordinates": [ [ [ -80.0436012, -0.57530423 ], [ -80.0436012, -0.57527127 ], [ -80.04360121, -0.5752383 ], [ -80.04360121, -0.57520534 ], [ -80.04363413, -0.57517238 ], [ -80.04366704, -0.57513942 ], [ -80.04369995, -0.57513942 ], [ -80.04373286, -0.57510647 ] ] ] } },
{ "type": "Feature", "properties": { "Subbasin": 3, "SubbasinR": 1, "AreaC": 20.0, "Len2": 5.2, "Slo2": 0.0, "Wid2": 0.49131361403284601, "Dep2": 0.068305563374346998, "MinEl": 48.0, "MaxEl": 48.0, "Shape_Len": 5.2, "HydroID": 200003, "OutletID": 100003 }, "geometry": { "type": "MultiLineString", "coordinates": [ [ [ -80.0436012, -0.57530423 ], [ -80.04356829, -0.57527126 ] ] ] } },
{ "type": "Feature", "properties": { "Subbasin": 4, "SubbasinR": 2, "AreaC": 39.0, "Len2": 90.4, "Slo2": 4.9778761062547963, "Wid2": 0.73403443095615895, "Dep2": 0.089267731780164006, "MinEl": 48.0, "MaxEl": 52.500000000054335, "Shape_Len": 90.4, "HydroID": 200004, "OutletID": 100004 }, "geometry": { "type": "MultiLineString", "coordinates": [ [ [ -80.04373286, -0.57510647 ], [ -80.04376577, -0.57510647 ], [ -80.04379869, -0.57507351 ], [ -80.0438316, -0.57507352 ], [ -80.04386451, -0.57504056 ], [ -80.04389742, -0.57504057 ], [ -80.04393033, -0.57500761 ], [ -80.04396325, -0.57497465 ], [ -80.04399616, -0.57494169 ], [ -80.04402908, -0.57490873 ], [ -80.04406199, -0.57487577 ], [ -80.04409491, -0.57484281 ], [ -80.04412782, -0.57484282 ], [ -80.04416072, -0.57484282 ], [ -80.04419363, -0.57484283 ], [ -80.04419363, -0.57487579 ], [ -80.04422653, -0.57490876 ], [ -80.04425944, -0.57490877 ], [ -80.04429235, -0.57490877 ], [ -80.04432526, -0.57490878 ], [ -80.04435817, -0.57490879 ], [ -80.04439108, -0.57490879 ] ] ] } },
{ "type": "Feature", "properties": { "Subbasin": 5, "SubbasinR": 4, "AreaC": 30.0, "Len2": 7.3, "Slo2": 0.0, "Wid2": 0.62300909227010504, "Dep2": 0.080022687980909002, "MinEl": 52.500000000054335, "MaxEl": 52.500000000054335, "Shape_Len": 7.3, "HydroID": 200005, "OutletID": 100005 }, "geometry": { "type": "MultiLineString", "coordinates": [ [ [ -80.04439108, -0.57490879 ], [ -80.04442398, -0.5749088 ], [ -80.04445689, -0.5749088 ] ] ] } },
{ "type": "Feature", "properties": { "Subbasin": 6, "SubbasinR": 5, "AreaC": 25.0, "Len2": 337.0, "Slo2": 3.560830860518001, "Wid2": 0.56778050405000902, "Dep2": 0.075220669775301993, "MinEl": 52.500000000054335, "MaxEl": 64.5, "Shape_Len": 337.0, "HydroID": 200006, "OutletID": 100006 }, "geometry": { "type": "MultiLineString", "coordinates": [ [ [ -80.04445689, -0.5749088 ], [ -80.0444569, -0.57487584 ], [ -80.04448981, -0.57484288 ], [ -80.04448982, -0.57480992 ], [ -80.04452273, -0.57477696 ], [ -80.04455565, -0.574744 ], [ -80.04458856, -0.57471104 ], [ -80.04462147, -0.57471104 ], [ -80.04465438, -0.57467809 ], [ -80.0446873, -0.57464513 ], [ -80.04472021, -0.57464513 ], [ -80.04475312, -0.57461217 ], [ -80.04475313, -0.57457921 ], [ -80.04478604, -0.57454625 ], [ -80.04481896, -0.57451329 ], [ -80.04485187, -0.57448033 ], [ -80.04488479, -0.57444737 ], [ -80.0449177, -0.57441442 ], [ -80.04491771, -0.57438145 ], [ -80.04495062, -0.57434849 ], [ -80.04495063, -0.57431553 ], [ -80.04495063, -0.57428256 ], [ -80.04498354, -0.57424961 ], [ -80.04501646, -0.57421665 ], [ -80.04501646, -0.57418368 ], [ -80.04501647, -0.57415072 ], [ -80.04498357, -0.57411775 ], [ -80.04498357, -0.57408478 ], [ -80.04495067, -0.57405181 ], [ -80.04491776, -0.57405181 ], [ -80.04488486, -0.57401884 ], [ -80.04485195, -0.57398587 ], [ -80.04485196, -0.57395291 ], [ -80.04488487, -0.57391995 ], [ -80.04491778, -0.57391995 ], [ -80.0449507, -0.57388699 ], [ -80.04498361, -0.57385403 ], [ -80.04501652, -0.57385404 ], [ -80.04504942, -0.57388701 ], [ -80.04508233, -0.57388702 ], [ -80.04511525, -0.57385406 ], [ -80.04511525, -0.57382109 ], [ -80.04511526, -0.57378813 ], [ -80.04514817, -0.57375517 ], [ -80.04518109, -0.57372221 ], [ -80.04518109, -0.57368925 ], [ -80.0451811, -0.57365628 ], [ -80.0451811, -0.57362332 ], [ -80.04518111, -0.57359035 ], [ -80.04518111, -0.57355739 ], [ -80.04518112, -0.57352443 ], [ -80.04521403, -0.57349147 ], [ -80.04521404, -0.5734585 ], [ -80.04521404, -0.57342554 ], [ -80.04524696, -0.57339258 ], [ -80.04524696, -0.57335962 ], [ -80.04524697, -0.57332665 ], [ -80.04524697, -0.57329369 ], [ -80.04521407, -0.57326072 ], [ -80.04521408, -0.57322775 ], [ -80.04518117, -0.57319478 ], [ -80.04518118, -0.57316182 ], [ -80.04518118, -0.57312885 ], [ -80.04518119, -0.57309589 ], [ -80.04518119, -0.57306293 ], [ -80.0451812, -0.57302996 ], [ -80.04521411, -0.572997 ], [ -80.04521412, -0.57296404 ], [ -80.04521413, -0.57293107 ], [ -80.04521413, -0.57289811 ], [ -80.04524705, -0.57286515 ], [ -80.04524705, -0.57283219 ], [ -80.04524706, -0.57279922 ], [ -80.04527997, -0.57276626 ], [ -80.04531288, -0.57273331 ], [ -80.0453458, -0.57270035 ], [ -80.04537871, -0.57266739 ], [ -80.04541163, -0.57263443 ] ] ] } },
{ "type": "Feature", "properties": { "Subbasin": 7, "SubbasinR": 6, "AreaC": 22.0, "Len2": 86.7, "Slo2": 3.6093e-11, "Wid2": 0.51659798792190503, "Dep2": 0.070629373232316994, "MinEl": 64.5, "MaxEl": 64.500000000031292, "Shape_Len": 86.7, "HydroID": 200007, "OutletID": 100007 }, "geometry": { "type": "MultiLineString", "coordinates": [ [ [ -80.04541163, -0.57263443 ], [ -80.04544454, -0.57263443 ], [ -80.04547745, -0.57260148 ], [ -80.04551037, -0.57256852 ], [ -80.04554328, -0.57253556 ], [ -80.04557619, -0.57253556 ], [ -80.0456091, -0.5725026 ], [ -80.04564201, -0.57250261 ], [ -80.04567493, -0.57246965 ], [ -80.04570784, -0.57246966 ], [ -80.04574074, -0.57246966 ], [ -80.04577365, -0.57246967 ], [ -80.04580657, -0.57243671 ], [ -80.04583948, -0.57243671 ], [ -80.04587238, -0.57243672 ], [ -80.0459053, -0.57240376 ], [ -80.0459053, -0.5723708 ], [ -80.04593822, -0.57233784 ], [ -80.04593822, -0.57230487 ], [ -80.04597114, -0.57227192 ], [ -80.04597114, -0.57223895 ] ] ] } },
{ "type": "Feature", "properties": { "Subbasin": 8, "SubbasinR": 7, "AreaC": 17.0, "Len2": 10.3, "Slo2": 8.5351262130415115, "Wid2": 0.44186474030404699, "Dep2": 0.063641896116558003, "MinEl": 64.500000000031292, "MaxEl": 65.379117999974568, "Shape_Len": 10.3, "HydroID": 200008, "OutletID": 100008 }, "geometry": { "type": "MultiLineString", "coordinates": [ [ [ -80.04597114, -0.57223895 ], [ -80.04600406, -0.57220599 ], [ -80.04603697, -0.57217303 ] ] ] } },
{ "type": "Feature", "properties": { "Subbasin": 9, "SubbasinR": 8, "AreaC": 9.0, "Len2": 73.5, "Slo2": 4.1238870747041103, "Wid2": 0.30989255418098099, "Dep2": 0.050237070526411999, "MinEl": 65.379117999974568, "MaxEl": 68.410174999882088, "Shape_Len": 73.5, "HydroID": 200009, "OutletID": 100009 }, "geometry": { "type": "MultiLineString", "coordinates": [ [ [ -80.04603697, -0.57217303 ], [ -80.04603698, -0.57214007 ], [ -80.04603698, -0.57210711 ], [ -80.0460699, -0.57207415 ], [ -80.04610281, -0.57204119 ], [ -80.04610282, -0.57200822 ], [ -80.04613573, -0.57197526 ], [ -80.04616864, -0.57197527 ], [ -80.04620156, -0.57194231 ], [ -80.04623447, -0.57190935 ], [ -80.04626738, -0.57187639 ], [ -80.04626739, -0.57184343 ], [ -80.0463003, -0.57181047 ], [ -80.04630031, -0.57177751 ], [ -80.04633322, -0.57174455 ], [ -80.04636614, -0.57171159 ], [ -80.04639905, -0.57167863 ] ] ] } },
{ "type": "Feature", "properties": { "Subbasin": 10, "SubbasinR": 4, "AreaC": 8.0, "Len2": 492.2, "Slo2": 1.5237708248569011, "Wid2": 0.29184003802021502, "Dep2": 0.048266609665888999, "MinEl": 52.500000000054335, "MaxEl": 60.0, "Shape_Len": 492.2, "HydroID": 200010, "OutletID": 100010 }, "geometry": { "type": "MultiLineString", "coordinates": [ [ [ -80.04439108, -0.57490879 ], [ -80.04442398, -0.57494176 ], [ -80.04445689, -0.57494177 ], [ -80.0444898, -0.57494177 ], [ -80.0445227, -0.57497474 ], [ -80.0445556, -0.57500771 ], [ -80.04458851, -0.57504068 ], [ -80.04462141, -0.57507365 ], [ -80.04465431, -0.57510662 ], [ -80.04465431, -0.57513959 ], [ -80.04468721, -0.57517256 ], [ -80.04472011, -0.57520553 ], [ -80.04475302, -0.57520553 ], [ -80.04478593, -0.57520554 ], [ -80.04481884, -0.57520554 ], [ -80.04485175, -0.57520555 ], [ -80.04488466, -0.57517259 ], [ -80.04488467, -0.57513962 ], [ -80.04491758, -0.57510667 ], [ -80.04495049, -0.57510667 ], [ -80.04498341, -0.57507371 ], [ -80.04501631, -0.57510668 ], [ -80.04504921, -0.57513965 ], [ -80.04504921, -0.57517262 ], [ -80.04501629, -0.57520558 ], [ -80.04501629, -0.57523854 ], [ -80.04504919, -0.57527151 ], [ -80.0450821, -0.57530448 ], [ -80.045115, -0.57533745 ], [ -80.04514791, -0.57533745 ], [ -80.04518081, -0.57537042 ], [ -80.04518081, -0.57540339 ], [ -80.0451808, -0.57543635 ], [ -80.04514789, -0.57546931 ], [ -80.04514788, -0.57550228 ], [ -80.04514788, -0.57553524 ], [ -80.04514787, -0.5755682 ], [ -80.04514786, -0.57560117 ], [ -80.04518077, -0.57563414 ], [ -80.04521368, -0.57563414 ], [ -80.04524659, -0.57563415 ], [ -80.04527949, -0.57563415 ], [ -80.0453124, -0.57566712 ], [ -80.04531239, -0.57570009 ], [ -80.0453453, -0.57573306 ], [ -80.04534529, -0.57576602 ], [ -80.04534529, -0.57579899 ], [ -80.04537819, -0.57583196 ], [ -80.04537818, -0.57586492 ], [ -80.04537818, -0.57589789 ], [ -80.04541108, -0.57593086 ], [ -80.04541108, -0.57596382 ], [ -80.04537816, -0.57599678 ], [ -80.04541106, -0.57602975 ], [ -80.04544397, -0.57602975 ], [ -80.04547688, -0.57606272 ], [ -80.04550979, -0.57606273 ], [ -80.04554269, -0.57606273 ], [ -80.0455756, -0.57606274 ], [ -80.04560851, -0.57609571 ], [ -80.04564142, -0.57609572 ], [ -80.04567433, -0.57606276 ], [ -80.04570724, -0.57606276 ], [ -80.04574015, -0.57606277 ], [ -80.04577306, -0.57606277 ], [ -80.04580597, -0.57606278 ], [ -80.04583887, -0.57606278 ], [ -80.04587178, -0.57606279 ], [ -80.04590469, -0.5760628 ], [ -80.04593761, -0.57602984 ], [ -80.04597052, -0.57599688 ], [ -80.04597053, -0.57596391 ], [ -80.04597053, -0.57593095 ], [ -80.04597054, -0.57589799 ], [ -80.04597054, -0.57586502 ], [ -80.04600346, -0.57583206 ], [ -80.04603637, -0.57583207 ], [ -80.04606928, -0.57583207 ], [ -80.04610219, -0.57579911 ], [ -80.04613509, -0.57583208 ], [ -80.046168, -0.57583209 ], [ -80.04620091, -0.5758321 ], [ -80.04623383, -0.57579914 ], [ -80.04623383, -0.57576617 ], [ -80.04626675, -0.57573321 ], [ -80.04629966, -0.57570026 ], [ -80.04633257, -0.5756673 ], [ -80.04636549, -0.57563434 ], [ -80.04636549, -0.57560137 ], [ -80.04639841, -0.57556841 ], [ -80.04643132, -0.57556842 ], [ -80.04646423, -0.57556843 ], [ -80.04649714, -0.57556843 ], [ -80.04653005, -0.57553547 ], [ -80.04656296, -0.57550251 ], [ -80.04659587, -0.57550252 ], [ -80.04662878, -0.57553549 ], [ -80.04666169, -0.57553549 ], [ -80.04669459, -0.5755355 ], [ -80.0467275, -0.57556847 ], [ -80.04676041, -0.57556848 ], [ -80.04679332, -0.57553552 ], [ -80.04679333, -0.57550255 ], [ -80.04679333, -0.57546959 ], [ -80.04679334, -0.57543662 ], [ -80.04682625, -0.57540367 ], [ -80.04685916, -0.57540367 ], [ -80.04689207, -0.57537071 ], [ -80.04692498, -0.57537072 ], [ -80.04695789, -0.57537072 ], [ -80.0469908, -0.57537073 ], [ -80.04702371, -0.57537073 ], [ -80.04705661, -0.5754037 ], [ -80.04708952, -0.57543667 ], [ -80.04712243, -0.57540372 ] ] ] } },
{ "type": "Feature", "properties": { "Subbasin": 11, "SubbasinR": 3, "AreaC": 18.0, "Len2": 618.3, "Slo2": 5.8382925764192164, "Wid2": 0.46832661665671099, "Dep2": 0.066158061698875004, "MinEl": 48.0, "MaxEl": 84.098163, "Shape_Len": 618.3, "HydroID": 200011, "OutletID": 100011 }, "geometry": { "type": "MultiLineString", "coordinates": [ [ [ -80.04356829, -0.57527126 ], [ -80.04353539, -0.57523829 ], [ -80.0435354, -0.57520533 ], [ -80.04350249, -0.57517236 ], [ -80.04346959, -0.57513939 ], [ -80.04346959, -0.57510642 ], [ -80.04343669, -0.57510642 ], [ -80.04340378, -0.57507345 ], [ -80.04337088, -0.57504048 ], [ -80.04333797, -0.57500751 ], [ -80.04330507, -0.57497454 ], [ -80.04330508, -0.57494157 ], [ -80.04327217, -0.5749086 ], [ -80.04327218, -0.57487564 ], [ -80.04323928, -0.57484267 ], [ -80.04320637, -0.5748097 ], [ -80.04320638, -0.57477673 ], [ -80.04320638, -0.57474377 ], [ -80.04320639, -0.57471081 ], [ -80.04317349, -0.57467784 ], [ -80.04317349, -0.57464487 ], [ -80.0431735, -0.57461191 ], [ -80.0431735, -0.57457894 ], [ -80.0431406, -0.57454597 ], [ -80.0431077, -0.574513 ], [ -80.0431077, -0.57448004 ], [ -80.0430748, -0.57444707 ], [ -80.0430748, -0.57441411 ], [ -80.0430419, -0.57438114 ], [ -80.0430419, -0.57434817 ], [ -80.04304191, -0.57431521 ], [ -80.04300901, -0.57428224 ], [ -80.0429761, -0.57424927 ], [ -80.0429432, -0.5742163 ], [ -80.0429103, -0.57418333 ], [ -80.04287739, -0.57415036 ], [ -80.04284449, -0.57411739 ], [ -80.04281159, -0.57408442 ], [ -80.04277868, -0.57405145 ], [ -80.04274578, -0.57401848 ], [ -80.04274579, -0.57398552 ], [ -80.04274579, -0.57395255 ], [ -80.04271289, -0.57391958 ], [ -80.04271289, -0.57388662 ], [ -80.0427129, -0.57385365 ], [ -80.0427129, -0.57382069 ], [ -80.04268, -0.57378772 ], [ -80.04268001, -0.57375475 ], [ -80.04268001, -0.57372179 ], [ -80.04264711, -0.57368882 ], [ -80.04264711, -0.57365586 ], [ -80.04264712, -0.57362289 ], [ -80.04264712, -0.57358993 ], [ -80.04264713, -0.57355696 ], [ -80.04264714, -0.573524 ], [ -80.04261423, -0.57349103 ], [ -80.04261424, -0.57345807 ], [ -80.04258133, -0.5734251 ], [ -80.04258134, -0.57339213 ], [ -80.04254844, -0.57335916 ], [ -80.04254844, -0.5733262 ], [ -80.04254845, -0.57329323 ], [ -80.04251554, -0.57326026 ], [ -80.04251555, -0.5732273 ], [ -80.04251555, -0.57319433 ], [ -80.04251556, -0.57316137 ], [ -80.04251557, -0.57312841 ], [ -80.04251557, -0.57309544 ], [ -80.04251558, -0.57306248 ], [ -80.04254849, -0.57302952 ], [ -80.04258141, -0.57299656 ], [ -80.0425485, -0.57296359 ], [ -80.04254851, -0.57293063 ], [ -80.04254851, -0.57289766 ], [ -80.04258143, -0.5728647 ], [ -80.04258143, -0.57283174 ], [ -80.04258144, -0.57279877 ], [ -80.04258144, -0.57276581 ], [ -80.04258145, -0.57273285 ], [ -80.04261436, -0.57269989 ], [ -80.04258146, -0.57266692 ], [ -80.04258147, -0.57263395 ], [ -80.04261438, -0.57260099 ], [ -80.04261439, -0.57256803 ], [ -80.04261439, -0.57253507 ], [ -80.04264731, -0.57250211 ], [ -80.04264731, -0.57246914 ], [ -80.04264732, -0.57243618 ], [ -80.04264732, -0.57240322 ], [ -80.04264733, -0.57237025 ], [ -80.04264733, -0.57233729 ], [ -80.04268025, -0.57230433 ], [ -80.04268025, -0.57227136 ], [ -80.04268026, -0.5722384 ], [ -80.04264735, -0.57220543 ], [ -80.04264736, -0.57217247 ], [ -80.04268027, -0.57213951 ], [ -80.04268028, -0.57210654 ], [ -80.04268028, -0.57207358 ], [ -80.04268029, -0.57204061 ], [ -80.0426803, -0.57200765 ], [ -80.0426803, -0.57197469 ], [ -80.04268031, -0.57194172 ], [ -80.04271322, -0.57190876 ], [ -80.04271323, -0.5718758 ], [ -80.04271323, -0.57184283 ], [ -80.04274615, -0.57180988 ], [ -80.04274615, -0.57177691 ], [ -80.04271325, -0.57174394 ], [ -80.04271325, -0.57171098 ], [ -80.04274617, -0.57167802 ], [ -80.04271326, -0.57164505 ], [ -80.04271327, -0.57161208 ], [ -80.04274618, -0.57157913 ], [ -80.04274619, -0.57154616 ], [ -80.0427462, -0.5715132 ], [ -80.0427462, -0.57148023 ], [ -80.04274621, -0.57144727 ], [ -80.04274621, -0.5714143 ], [ -80.04274622, -0.57138134 ], [ -80.04277913, -0.57134838 ], [ -80.04277914, -0.57131542 ], [ -80.04281205, -0.57128246 ], [ -80.04281206, -0.57124949 ], [ -80.04277915, -0.57121652 ], [ -80.04277916, -0.57118356 ], [ -80.04277916, -0.5711506 ], [ -80.04277917, -0.57111763 ], [ -80.04277918, -0.57108467 ], [ -80.04277918, -0.5710517 ], [ -80.04281209, -0.57101874 ], [ -80.0428121, -0.57098578 ], [ -80.04284501, -0.57095282 ], [ -80.04287793, -0.57091986 ], [ -80.04287793, -0.5708869 ], [ -80.04291085, -0.57085394 ], [ -80.04291085, -0.57082098 ], [ -80.04291086, -0.57078801 ], [ -80.04294377, -0.57075505 ], [ -80.04291087, -0.57072208 ], [ -80.04294378, -0.57068912 ], [ -80.04297669, -0.57068913 ], [ -80.0430096, -0.5707221 ], [ -80.04304251, -0.5707221 ], [ -80.04307541, -0.57072211 ], [ -80.04310832, -0.57072212 ] ] ] } },
{ "type": "Feature", "properties": { "Subbasin": 12, "SubbasinR": 11, "AreaC": 10.0, "Len2": 45.0, "Slo2": 3.5328977776549348, "Wid2": 0.33014067607279701, "Dep2": 0.052402205949882, "MinEl": 84.098163, "MaxEl": 85.68796699994472, "Shape_Len": 45.0, "HydroID": 200012, "OutletID": 100012 }, "geometry": { "type": "MultiLineString", "coordinates": [ [ [ -80.04310832, -0.57072212 ], [ -80.04314124, -0.57068916 ], [ -80.04317415, -0.5706562 ], [ -80.04320707, -0.57062324 ], [ -80.04323998, -0.57059028 ], [ -80.04320708, -0.57055731 ], [ -80.04320708, -0.57052435 ], [ -80.04324, -0.57049139 ], [ -80.04327291, -0.57045843 ], [ -80.04330583, -0.57042547 ] ] ] } },
{ "type": "Feature", "properties": { "Subbasin": 13, "SubbasinR": 9, "AreaC": 8.0, "Len2": 150.8, "Slo2": 4.3699104775317723, "Wid2": 0.27979724864189698, "Dep2": 0.046929490421135998, "MinEl": 68.410174999882088, "MaxEl": 75.0, "Shape_Len": 150.8, "HydroID": 200013, "OutletID": 100013 }, "geometry": { "type": "MultiLineString", "coordinates": [ [ [ -80.04639905, -0.57167863 ], [ -80.04643196, -0.57167864 ], [ -80.04646487, -0.57167864 ], [ -80.04649778, -0.57164568 ], [ -80.0465307, -0.57161272 ], [ -80.0465307, -0.57157976 ], [ -80.04656362, -0.5715468 ], [ -80.04659653, -0.57154681 ], [ -80.04662944, -0.57154681 ], [ -80.04666235, -0.57151385 ], [ -80.04669526, -0.57148089 ], [ -80.04672818, -0.57144794 ], [ -80.04672818, -0.57141497 ], [ -80.0467611, -0.57138201 ], [ -80.0467611, -0.57134905 ], [ -80.04679402, -0.57131609 ], [ -80.04682693, -0.57128313 ], [ -80.04685984, -0.57128314 ], [ -80.04689276, -0.57125018 ], [ -80.04692567, -0.57121722 ], [ -80.04692568, -0.57118425 ], [ -80.04695859, -0.5711513 ], [ -80.0469915, -0.57111834 ], [ -80.04702442, -0.57108538 ], [ -80.04705733, -0.57105242 ], [ -80.04709025, -0.57101946 ], [ -80.04709025, -0.5709865 ], [ -80.04709026, -0.57095353 ], [ -80.04709026, -0.57092057 ] ] ] } },
{ "type": "Feature", "properties": { "Subbasin": 14, "SubbasinR": 0, "AreaC": 12.0, "Len2": 514.2, "Slo2": 8.4460196421696914, "Wid2": 0.35406458244093503, "Dep2": 0.054904153829741002, "MinEl": 46.676663, "MaxEl": 90.106096000036558, "Shape_Len": 514.2, "HydroID": 200014, "OutletID": 100014 }, "geometry": null },
{ "type": "Feature", "properties": { "Subbasin": 15, "SubbasinR": 0, "AreaC": 5.0, "Len2": 143.5, "Slo2": 2.0905923344947741, "Wid2": 0.21648763357345399, "Dep2": 0.039552348365870002, "MinEl": 48.0, "MaxEl": 51.0, "Shape_Len": 143.5, "HydroID": 200015, "OutletID": 100015 }, "geometry": null },
{ "type": "Feature", "properties": { "Subbasin": 16, "SubbasinR": 8, "AreaC": 7.0, "Len2": 53.6, "Slo2": 3.9568694030325222, "Wid2": 0.27214149823950201, "Dep2": 0.046069488781039003, "MinEl": 65.379117999974568, "MaxEl": 67.5, "Shape_Len": 53.6, "HydroID": 200016, "OutletID": 100016 }, "geometry": { "type": "MultiLineString", "coordinates": [ [ [ -80.04603697, -0.57217303 ], [ -80.04606989, -0.57214008 ], [ -80.0461028, -0.57214008 ], [ -80.04613571, -0.57214009 ], [ -80.04616862, -0.57210713 ], [ -80.04620153, -0.57210713 ], [ -80.04623443, -0.5721401 ], [ -80.04626734, -0.57217307 ], [ -80.04630024, -0.57217308 ], [ -80.04633315, -0.57217308 ], [ -80.04636606, -0.57217309 ] ] ] } },
{ "type": "Feature", "properties": { "Subbasin": 17, "SubbasinR": 10, "AreaC": 4.0, "Len2": 171.9, "Slo2": 0.87260034904014006, "Wid2": 0.19781728025592701, "Dep2": 0.037244289732767999, "MinEl": 60.0, "MaxEl": 61.5, "Shape_Len": 171.9, "HydroID": 200017, "OutletID": 100017 }, "geometry": { "type": "MultiLineString", "coordinates": [ [ [ -80.04712243, -0.57540372 ], [ -80.04712244, -0.57537075 ], [ -80.04712244, -0.57533779 ], [ -80.04712245, -0.57530482 ], [ -80.04712245, -0.57527186 ], [ -80.04715537, -0.5752389 ], [ -80.04718828, -0.57520594 ], [ -80.04722119, -0.57520595 ], [ -80.04725409, -0.57523892 ], [ -80.047287, -0.57523892 ], [ -80.04731992, -0.57520596 ], [ -80.04735283, -0.57520597 ], [ -80.04738574, -0.57517301 ], [ -80.04741865, -0.57517302 ], [ -80.04745156, -0.57514006 ], [ -80.04748448, -0.5751071 ], [ -80.04751739, -0.5751071 ], [ -80.0475503, -0.57507414 ], [ -80.04758321, -0.57507415 ] ] ] } },
{ "type": "Feature", "properties": { "Subbasin": 18, "SubbasinR": 12, "AreaC": 7.0, "Len2": 168.5, "Slo2": 5.4827370920465244, "Wid2": 0.26380903318173698, "Dep2": 0.045124248993397002, "MinEl": 85.68796699994472, "MaxEl": 94.926379000043113, "Shape_Len": 168.5, "HydroID": 200018, "OutletID": 100018 }, "geometry": { "type": "MultiLineString", "coordinates": [ [ [ -80.04330583, -0.57042547 ], [ -80.04333873, -0.57042548 ], [ -80.04337165, -0.57039252 ], [ -80.04340456, -0.57039252 ], [ -80.04343747, -0.57035956 ], [ -80.04343748, -0.5703266 ], [ -80.04343748, -0.57029364 ], [ -80.0434704, -0.57026068 ], [ -80.0434704, -0.57022771 ], [ -80.04350332, -0.57019475 ], [ -80.04350332, -0.57016179 ], [ -80.04353624, -0.57012883 ], [ -80.04356915, -0.57012884 ], [ -80.04360206, -0.57009588 ], [ -80.04363497, -0.57009588 ], [ -80.04366788, -0.57006292 ], [ -80.0437008, -0.57002997 ], [ -80.04373371, -0.57002997 ], [ -80.04376662, -0.56999701 ], [ -80.04379953, -0.56999702 ], [ -80.04383243, -0.57002999 ], [ -80.04386535, -0.56999703 ], [ -80.04389826, -0.56996407 ], [ -80.04393118, -0.56993111 ], [ -80.04393118, -0.56989815 ], [ -80.0439641, -0.56986519 ], [ -80.0439641, -0.56983222 ], [ -80.0439312, -0.56979925 ], [ -80.04396411, -0.5697663 ], [ -80.04399703, -0.56973334 ], [ -80.04402993, -0.56973334 ], [ -80.04406284, -0.56973335 ], [ -80.04409575, -0.56973335 ], [ -80.04412867, -0.56970039 ], [ -80.04416158, -0.56966744 ], [ -80.0441945, -0.56963448 ], [ -80.04422741, -0.56960152 ], [ -80.04426032, -0.56956856 ] ] ] } },
{ "type": "Feature", "properties": { "Subbasin": 19, "SubbasinR": 7, "AreaC": 4.0, "Len2": 93.3, "Slo2": 4.8231511253683896, "Wid2": 0.18709691523764899, "Dep2": 0.035886240515894001, "MinEl": 64.500000000031292, "MaxEl": 69.0, "Shape_Len": 93.3, "HydroID": 200019, "OutletID": 100019 }, "geometry": { "type": "MultiLineString", "coordinates": [ [ [ -80.04597114, -0.57223895 ], [ -80.04593824, -0.57220598 ], [ -80.04590534, -0.57217301 ], [ -80.04590534, -0.57214005 ], [ -80.04590535, -0.57210708 ], [ -80.04593826, -0.57207412 ], [ -80.04597118, -0.57204117 ], [ -80.04597118, -0.5720082 ], [ -80.04597119, -0.57197524 ], [ -80.04597119, -0.57194227 ], [ -80.04600411, -0.57190931 ], [ -80.04600411, -0.57187635 ], [ -80.04597121, -0.57184338 ], [ -80.0459383, -0.57184337 ], [ -80.0459054, -0.5718104 ], [ -80.04587249, -0.57177743 ], [ -80.0458725, -0.57174447 ], [ -80.0458725, -0.57171151 ], [ -80.0458396, -0.57167854 ], [ -80.04583961, -0.57164557 ], [ -80.0458067, -0.5716126 ], [ -80.0457738, -0.57157963 ] ] ] } },
{ "type": "Feature", "properties": { "Subbasin": 20, "SubbasinR": 18, "AreaC": 3.0, "Len2": 33.8, "Slo2": 0.10693490978349, "Wid2": 0.158860448945292, "Dep2": 0.032178125102494001, "MinEl": 94.926379000043113, "MaxEl": 94.962522999549932, "Shape_Len": 33.8, "HydroID": 200020, "OutletID": 100020 }, "geometry": null },
{ "type": "Feature", "properties": { "Subbasin": 21, "SubbasinR": 16, "AreaC": 3.0, "Len2": 82.1, "Slo2": 5.4811205846528637, "Wid2": 0.15629816859870599, "Dep2": 0.031831184873149003, "MinEl": 67.5, "MaxEl": 72.0, "Shape_Len": 82.1, "HydroID": 200021, "OutletID": 100021 }, "geometry": null },
{ "type": "Feature", "properties": { "Subbasin": 22, "SubbasinR": 13, "AreaC": 6.0, "Len2": 220.2, "Slo2": 4.0871934604908828, "Wid2": 0.235816840646564, "Dep2": 0.041872936949399003, "MinEl": 75.0, "MaxEl": 84.000000000000924, "Shape_Len": 220.2, "HydroID": 200022, "OutletID": 100022 }, "geometry": null },
{ "type": "Feature", "properties": { "Subbasin": 23, "SubbasinR": 16, "AreaC": 4.0, "Len2": 193.5, "Slo2": 1.550387596874174, "Wid2": 0.188810455627833, "Dep2": 0.036105018534763, "MinEl": 67.5, "MaxEl": 70.499999999951527, "Shape_Len": 193.5, "HydroID": 200023, "OutletID": 100023 }, "geometry": null },
{ "type": "Feature", "properties": { "Subbasin": 24, "SubbasinR": 10, "AreaC": 1.0, "Len2": 36.2, "Slo2": 0.0, "Wid2": 0.081958688968521001, "Dep2": 0.020698881611582998, "MinEl": 60.0, "MaxEl": 60.0, "Shape_Len": 36.2, "HydroID": 200024, "OutletID": 100024 }, "geometry": null },
{ "type": "Feature", "properties": { "Subbasin": 25, "SubbasinR": 15, "AreaC": 1.0, "Len2": 36.8, "Slo2": 0.0, "Wid2": 0.092597804469114003, "Dep2": 0.022453497811533, "MinEl": 51.0, "MaxEl": 51.0, "Shape_Len": 36.8, "HydroID": 200025, "OutletID": 100025 }, "geometry": null },
{ "type": "Feature", "properties": { "Subbasin": 26, "SubbasinR": 5, "AreaC": 4.0, "Len2": 358.3, "Slo2": 3.5931138710586241, "Wid2": 0.194117255460906, "Dep2": 0.036778412012104002, "MinEl": 52.500000000054335, "MaxEl": 65.374127000057385, "Shape_Len": 358.3, "HydroID": 200026, "OutletID": 100026 }, "geometry": { "type": "MultiLineString", "coordinates": [ [ [ -80.04445689, -0.5749088 ], [ -80.0444898, -0.57490881 ], [ -80.04452272, -0.57487585 ], [ -80.04455563, -0.57487585 ], [ -80.04458854, -0.5748429 ], [ -80.04462145, -0.5748429 ], [ -80.04465436, -0.57484291 ], [ -80.04468727, -0.57480995 ], [ -80.04472018, -0.57480995 ], [ -80.04475309, -0.57480996 ], [ -80.044786, -0.57480997 ], [ -80.04481891, -0.57480997 ], [ -80.04485181, -0.57484294 ], [ -80.04488471, -0.57487591 ], [ -80.04491762, -0.57490888 ], [ -80.04495052, -0.57494185 ], [ -80.04498343, -0.57494186 ], [ -80.04501634, -0.57494186 ], [ -80.04504925, -0.57494187 ], [ -80.04508216, -0.57494187 ], [ -80.04511507, -0.57494188 ], [ -80.04514797, -0.57497485 ], [ -80.04518088, -0.57497485 ], [ -80.04521379, -0.57497486 ], [ -80.04524669, -0.57500783 ], [ -80.0452796, -0.57500783 ], [ -80.0453125, -0.5750408 ], [ -80.04531251, -0.57500784 ], [ -80.04534542, -0.57497488 ], [ -80.04537833, -0.57497489 ], [ -80.04541123, -0.57500786 ], [ -80.04544414, -0.57504083 ], [ -80.04547704, -0.5750738 ], [ -80.04550995, -0.5750738 ], [ -80.04554285, -0.57510677 ], [ -80.04557576, -0.57513974 ], [ -80.04560866, -0.57517271 ], [ -80.04560866, -0.57520567 ], [ -80.04564156, -0.57523864 ], [ -80.04567446, -0.57527161 ], [ -80.04570737, -0.57530458 ], [ -80.04574027, -0.57533755 ], [ -80.04577318, -0.57533756 ], [ -80.04580609, -0.57533757 ], [ -80.045839, -0.57533757 ], [ -80.0458719, -0.57533758 ], [ -80.04590482, -0.57530462 ], [ -80.04593773, -0.57530462 ], [ -80.04597064, -0.57530463 ], [ -80.04600355, -0.57530463 ], [ -80.04603645, -0.57530464 ], [ -80.04606936, -0.57530465 ], [ -80.04606937, -0.57527168 ], [ -80.04610228, -0.57527169 ], [ -80.04613519, -0.57527169 ], [ -80.0461681, -0.5752717 ], [ -80.046201, -0.5752717 ], [ -80.04623391, -0.57527171 ], [ -80.04626682, -0.57527171 ], [ -80.04629973, -0.57527172 ], [ -80.04633264, -0.57527173 ], [ -80.04636555, -0.57527173 ], [ -80.04639846, -0.57527174 ], [ -80.04643137, -0.57527174 ], [ -80.04646428, -0.57527175 ], [ -80.04649719, -0.57523879 ], [ -80.0465301, -0.57523879 ], [ -80.04656301, -0.5752388 ], [ -80.04659592, -0.57523881 ], [ -80.04662883, -0.57523881 ], [ -80.04666173, -0.57523882 ], [ -80.04666174, -0.57520585 ], [ -80.04666175, -0.57517289 ], [ -80.04669466, -0.57513993 ], [ -80.04672757, -0.57510697 ], [ -80.04672758, -0.57507401 ], [ -80.04676049, -0.57504105 ], [ -80.04679341, -0.57500809 ], [ -80.04682632, -0.57497513 ], [ -80.04685924, -0.57494217 ], [ -80.04685924, -0.57490921 ], [ -80.04685925, -0.57487624 ], [ -80.04685925, -0.57484328 ], [ -80.04685926, -0.57481031 ], [ -80.04685926, -0.57477735 ], [ -80.04685927, -0.57474439 ], [ -80.04685928, -0.57471142 ] ] ] } },
{ "type": "Feature", "properties": { "Subbasin": 27, "SubbasinR": 3, "AreaC": 2.0, "Len2": 121.5, "Slo2": 6.5532082304817383, "Wid2": 0.105245565544621, "Dep2": 0.024454160008373999, "MinEl": 48.0, "MaxEl": 55.962148000035313, "Shape_Len": 121.5, "HydroID": 200027, "OutletID": 100027 }, "geometry": { "type": "MultiLineString", "coordinates": [ [ [ -80.04356829, -0.57527126 ], [ -80.0435683, -0.5752383 ], [ -80.0435683, -0.57520533 ], [ -80.04356831, -0.57517237 ], [ -80.04356832, -0.5751394 ], [ -80.04356832, -0.57510644 ], [ -80.04356833, -0.57507347 ], [ -80.04356833, -0.57504051 ], [ -80.04353543, -0.57500754 ], [ -80.04353543, -0.57497458 ], [ -80.04353544, -0.57494161 ], [ -80.04353544, -0.57490865 ], [ -80.04353545, -0.57487568 ], [ -80.04356836, -0.57484272 ], [ -80.04360128, -0.57480977 ], [ -80.04360128, -0.5747768 ], [ -80.04360129, -0.57474384 ], [ -80.0436013, -0.57471087 ], [ -80.0436013, -0.57467791 ], [ -80.04360131, -0.57464494 ], [ -80.04360131, -0.57461198 ], [ -80.0435684, -0.57461197 ], [ -80.04356841, -0.57457901 ], [ -80.04356841, -0.57454605 ], [ -80.04360133, -0.57451309 ], [ -80.04363424, -0.57448013 ], [ -80.04360134, -0.57444716 ], [ -80.04356844, -0.57441419 ], [ -80.04356844, -0.57438122 ], [ -80.04353554, -0.57434825 ], [ -80.04353554, -0.57431529 ] ] ] } },
{ "type": "Feature", "properties": { "Subbasin": 28, "SubbasinR": 17, "AreaC": 1.0, "Len2": 80.6, "Slo2": 10.83104466503776, "Wid2": 0.086479557298523996, "Dep2": 0.021453221523737999, "MinEl": 61.5, "MaxEl": 70.229822000020434, "Shape_Len": 80.6, "HydroID": 200028, "OutletID": 100028 }, "geometry": null },
{ "type": "Feature", "properties": { "Subbasin": 29, "SubbasinR": 15, "AreaC": 3.0, "Len2": 210.4, "Slo2": 6.090303707290146, "Wid2": 0.153153918432647, "Dep2": 0.031402841985495998, "MinEl": 51.0, "MaxEl": 63.813999000138466, "Shape_Len": 210.4, "HydroID": 200029, "OutletID": 100029 }, "geometry": null },
{ "type": "Feature", "properties": { "Subbasin": 30, "SubbasinR": 17, "AreaC": 1.0, "Len2": 190.4, "Slo2": 8.0655955882411217, "Wid2": 0.102811459595213, "Dep2": 0.024075643024090002, "MinEl": 61.5, "MaxEl": 76.856894000011081, "Shape_Len": 190.4, "HydroID": 200030, "OutletID": 100030 }, "geometry": null },
{ "type": "Feature", "properties": { "Subbasin": 31, "SubbasinR": 2, "AreaC": 3.0, "Len2": 282.5, "Slo2": 4.5809486725634736, "Wid2": 0.14394849388236799, "Dep2": 0.030131560831364999, "MinEl": 48.0, "MaxEl": 60.94117999999181, "Shape_Len": 282.5, "HydroID": 200031, "OutletID": 100031 }, "geometry": null },
{ "type": "Feature", "properties": { "Subbasin": 32, "SubbasinR": 21, "AreaC": 1.0, "Len2": 47.7, "Slo2": 12.048763102777171, "Wid2": 0.082671212571116995, "Dep2": 0.020818674922898999, "MinEl": 72.0, "MaxEl": 77.74726000002471, "Shape_Len": 47.7, "HydroID": 200032, "OutletID": 100032 }, "geometry": null },
{ "type": "Feature", "properties": { "Subbasin": 33, "SubbasinR": 21, "AreaC": 1.0, "Len2": 46.3, "Slo2": 3.2397408208063778, "Wid2": 0.10236362097415599, "Dep2": 0.024005677765350002, "MinEl": 72.0, "MaxEl": 73.500000000033367, "Shape_Len": 46.3, "HydroID": 200033, "OutletID": 100033 }, "geometry": null },
{ "type": "Feature", "properties": { "Subbasin": 34, "SubbasinR": 6, "AreaC": 1.0, "Len2": 3.6, "Slo2": 0.0, "Wid2": 0.077734279275504997, "Dep2": 0.019981370052908998, "MinEl": 64.5, "MaxEl": 64.5, "Shape_Len": 3.6, "HydroID": 200034, "OutletID": 100034 }, "geometry": { "type": "MultiLineString", "coordinates": [ [ [ -80.04541163, -0.57263443 ], [ -80.04541163, -0.57260146 ] ] ] } },
{ "type": "Feature", "properties": { "Subbasin": 35, "SubbasinR": 19, "AreaC": 1.0, "Len2": 110.9, "Slo2": 22.721238954294872, "Wid2": 0.094794226768334003, "Dep2": 0.022807173745755999, "MinEl": 69.0, "MaxEl": 94.197854000313015, "Shape_Len": 110.9, "HydroID": 200035, "OutletID": 100035 }, "geometry": { "type": "MultiLineString", "coordinates": [ [ [ -80.0457738, -0.57157963 ], [ -80.0457409, -0.57154666 ], [ -80.04570798, -0.57157962 ], [ -80.04567507, -0.57157962 ], [ -80.04564216, -0.57157961 ], [ -80.04560926, -0.57157961 ], [ -80.04557635, -0.5715796 ], [ -80.04554344, -0.57157959 ], [ -80.04551053, -0.57157959 ], [ -80.04547763, -0.57154662 ], [ -80.04544472, -0.57154661 ], [ -80.04541181, -0.57154661 ], [ -80.0453789, -0.5715466 ], [ -80.04534599, -0.5715466 ], [ -80.04531308, -0.57154659 ], [ -80.04528018, -0.57151362 ], [ -80.04524727, -0.57151362 ], [ -80.04521436, -0.57151361 ], [ -80.04518145, -0.57151361 ], [ -80.04514855, -0.57148064 ], [ -80.04511564, -0.57148063 ], [ -80.04508274, -0.57144766 ], [ -80.04504983, -0.57141469 ], [ -80.04501693, -0.57138172 ], [ -80.04498402, -0.57138172 ], [ -80.04495111, -0.57138171 ], [ -80.0449182, -0.5713817 ], [ -80.04488529, -0.5713817 ] ] ] } },
{ "type": "Feature", "properties": { "Subbasin": 36, "SubbasinR": 23, "AreaC": 1.0, "Len2": 10.3, "Slo2": 0.0, "Wid2": 0.078602227384493004, "Dep2": 0.020129830319696, "MinEl": 70.499999999951527, "MaxEl": 70.499999999951527, "Shape_Len": 10.3, "HydroID": 200036, "OutletID": 100036 }, "geometry": null },
{ "type": "Feature", "properties": { "Subbasin": 37, "SubbasinR": 9, "AreaC": 1.0, "Len2": 52.9, "Slo2": 3.9505198489961781, "Wid2": 0.094263824524609005, "Dep2": 0.022722018874174001, "MinEl": 68.410174999882088, "MaxEl": 70.500000000001066, "Shape_Len": 52.9, "HydroID": 200037, "OutletID": 100037 }, "geometry": { "type": "MultiLineString", "coordinates": [ [ [ -80.04639905, -0.57167863 ], [ -80.04636615, -0.57164566 ], [ -80.04636615, -0.5716127 ], [ -80.04636616, -0.57157973 ], [ -80.04639907, -0.57154677 ], [ -80.04643199, -0.57151381 ], [ -80.04643199, -0.57148085 ], [ -80.04646491, -0.57144789 ], [ -80.04649782, -0.57141493 ], [ -80.04653074, -0.57138197 ], [ -80.04653074, -0.57134901 ], [ -80.04653075, -0.57131605 ], [ -80.04653075, -0.57128308 ] ] ] } },
{ "type": "Feature", "properties": { "Subbasin": 38, "SubbasinR": 23, "AreaC": 1.0, "Len2": 21.9, "Slo2": 13.426872146272297, "Wid2": 0.095085106150942997, "Dep2": 0.022853806321154, "MinEl": 70.499999999951527, "MaxEl": 73.440484999985145, "Shape_Len": 21.9, "HydroID": 200038, "OutletID": 100038 }, "geometry": null },
{ "type": "Feature", "properties": { "Subbasin": 39, "SubbasinR": 19, "AreaC": 2.0, "Len2": 76.8, "Slo2": 16.039178385428361, "Wid2": 0.118432698673478, "Dep2": 0.026456433359157001, "MinEl": 69.0, "MaxEl": 81.318089000008982, "Shape_Len": 76.8, "HydroID": 200039, "OutletID": 100039 }, "geometry": { "type": "MultiLineString", "coordinates": [ [ [ -80.0457738, -0.57157963 ], [ -80.04577381, -0.57154667 ], [ -80.0457409, -0.5715137 ], [ -80.04574091, -0.57148073 ], [ -80.045708, -0.57144776 ], [ -80.04570801, -0.5714148 ], [ -80.04567511, -0.57138183 ], [ -80.04567511, -0.57134887 ], [ -80.04567512, -0.5713159 ], [ -80.04567512, -0.57128294 ], [ -80.04567513, -0.57124997 ], [ -80.04567513, -0.57121701 ], [ -80.04567514, -0.57118405 ], [ -80.04567514, -0.57115108 ], [ -80.04570806, -0.57111812 ], [ -80.04574097, -0.57108516 ], [ -80.04574098, -0.5710522 ], [ -80.04574098, -0.57101923 ], [ -80.04574099, -0.57098627 ], [ -80.04574099, -0.57095331 ] ] ] } },
{ "type": "Feature", "properties": { "Subbasin": 40, "SubbasinR": 11, "AreaC": 1.0, "Len2": 48.4, "Slo2": 25.823132231253631, "Wid2": 0.080982582320575994, "Dep2": 0.020534208126596998, "MinEl": 84.098163, "MaxEl": 96.596558999926756, "Shape_Len": 48.4, "HydroID": 200040, "OutletID": 100040 }, "geometry": { "type": "MultiLineString", "coordinates": [ [ [ -80.04310832, -0.57072212 ], [ -80.04314123, -0.57072212 ], [ -80.04314123, -0.57075509 ], [ -80.04314122, -0.57078805 ], [ -80.04317412, -0.57082102 ], [ -80.04320703, -0.57085399 ], [ -80.04323993, -0.57088696 ], [ -80.04327284, -0.57088696 ], [ -80.04330575, -0.57088697 ], [ -80.04333866, -0.57088698 ], [ -80.04337157, -0.57088698 ], [ -80.04340448, -0.57088699 ], [ -80.04343738, -0.57088699 ] ] ] } },
{ "type": "Feature", "properties": { "Subbasin": 41, "SubbasinR": 14, "AreaC": 2.0, "Len2": 91.7, "Slo2": 9.6989138492898981, "Wid2": 0.11123070671329099, "Dep2": 0.025372699530487, "MinEl": 90.106096000036558, "MaxEl": 98.999999999835396, "Shape_Len": 91.7, "HydroID": 200041, "OutletID": 100041 }, "geometry": null },
{ "type": "Feature", "properties": { "Subbasin": 42, "SubbasinR": 13, "AreaC": 1.0, "Len2": 87.4, "Slo2": 3.72439816932207, "Wid2": 0.094263824524609005, "Dep2": 0.022722018874174001, "MinEl": 75.0, "MaxEl": 78.255123999987489, "Shape_Len": 87.4, "HydroID": 200042, "OutletID": 100042 }, "geometry": null },
{ "type": "Feature", "properties": { "Subbasin": 43, "SubbasinR": 20, "AreaC": 1.0, "Len2": 36.0, "Slo2": 11.215213890139077, "Wid2": 0.087976492352933006, "Dep2": 0.021700078611241999, "MinEl": 94.962522999549932, "MaxEl": 99.0, "Shape_Len": 36.0, "HydroID": 200043, "OutletID": 100043 }, "geometry": null },
{ "type": "Feature", "properties": { "Subbasin": 44, "SubbasinR": 12, "AreaC": 3.0, "Len2": 153.5, "Slo2": 9.7138065147135517, "Wid2": 0.15638350144819199, "Dep2": 0.031842769562552997, "MinEl": 85.68796699994472, "MaxEl": 100.59866000003002, "Shape_Len": 153.5, "HydroID": 200044, "OutletID": 100044 }, "geometry": { "type": "MultiLineString", "coordinates": [ [ [ -80.04330583, -0.57042547 ], [ -80.04327292, -0.5703925 ], [ -80.04327293, -0.57035954 ], [ -80.04327293, -0.57032657 ], [ -80.04327294, -0.57029361 ], [ -80.04327294, -0.57026064 ], [ -80.04327295, -0.57022768 ], [ -80.04327295, -0.57019472 ], [ -80.04327296, -0.57016175 ], [ -80.04324006, -0.57012878 ], [ -80.04324006, -0.57009582 ], [ -80.04320716, -0.57006285 ], [ -80.04317426, -0.57002988 ], [ -80.04314135, -0.57002987 ], [ -80.04310844, -0.57002987 ], [ -80.04307553, -0.5699969 ], [ -80.04304263, -0.56996393 ], [ -80.04300973, -0.56993096 ], [ -80.04297682, -0.56989799 ], [ -80.04294392, -0.56986502 ], [ -80.04291102, -0.56983205 ], [ -80.04287811, -0.56979908 ], [ -80.04284521, -0.56976611 ], [ -80.04281231, -0.56973314 ], [ -80.0427794, -0.56970017 ], [ -80.0427465, -0.56970016 ], [ -80.0427465, -0.5696672 ], [ -80.04274651, -0.56963424 ], [ -80.04277942, -0.56960128 ], [ -80.04277943, -0.56956831 ], [ -80.04274652, -0.56953534 ], [ -80.04271362, -0.56950237 ], [ -80.04271362, -0.56946941 ], [ -80.04271363, -0.56943644 ], [ -80.04271364, -0.56940348 ], [ -80.04271364, -0.56937052 ] ] ] } },
{ "type": "Feature", "properties": { "Subbasin": 45, "SubbasinR": 22, "AreaC": 1.0, "Len2": 25.0, "Slo2": 12.126752000151725, "Wid2": 0.087232497186521998, "Dep2": 0.021577564104066999, "MinEl": 84.000000000000924, "MaxEl": 87.031688000038855, "Shape_Len": 25.0, "HydroID": 200045, "OutletID": 100045 }, "geometry": null },
{ "type": "Feature", "properties": { "Subbasin": 46, "SubbasinR": 20, "AreaC": 2.0, "Len2": 99.8, "Slo2": 12.61169038103651, "Wid2": 0.107646757079425, "Dep2": 0.024824709749762999, "MinEl": 94.962522999549932, "MaxEl": 107.54898999982437, "Shape_Len": 99.8, "HydroID": 200046, "OutletID": 100046 }, "geometry": null },
{ "type": "Feature", "properties": { "Subbasin": 47, "SubbasinR": 14, "AreaC": 4.0, "Len2": 251.6, "Slo2": 2.938753577093598, "Wid2": 0.18035360133078901, "Dep2": 0.035018705772423997, "MinEl": 90.106096000036558, "MaxEl": 97.50000000000405, "Shape_Len": 251.6, "HydroID": 200047, "OutletID": 100047 }, "geometry": null },
{ "type": "Feature", "properties": { "Subbasin": 48, "SubbasinR": 18, "AreaC": 2.0, "Len2": 104.8, "Slo2": 7.9066230916118281, "Wid2": 0.12960495622624599, "Dep2": 0.028095145479187001, "MinEl": 94.926379000043113, "MaxEl": 103.21252000005231, "Shape_Len": 104.8, "HydroID": 200048, "OutletID": 100048 }, "geometry": null },
{ "type": "Feature", "properties": { "Subbasin": 49, "SubbasinR": 22, "AreaC": 2.0, "Len2": 38.0, "Slo2": 11.842105263155464, "Wid2": 0.112443765920561, "Dep2": 0.025556838802697001, "MinEl": 84.000000000000924, "MaxEl": 88.5, "Shape_Len": 38.0, "HydroID": 200049, "OutletID": 100049 }, "geometry": null },
{ "type": "Feature", "properties": { "Subbasin": 50, "SubbasinR": 0, "AreaC": 1.0, "Len2": 44.7, "Slo2": 0.0, "Wid2": 0.085348974125946997, "Dep2": 0.021265833814495001, "MinEl": 94.528261, "MaxEl": 94.5, "Shape_Len": 44.7, "HydroID": 200050, "OutletID": 100050 }, "geometry": null }
]
}
